{"type":"FeatureCollection","name":"LFAD AVISO","bbox":[2.795666667,49.427694444,2.807833333,49.435805556],"metadata":{"schema":"vSMR AVISO","schema_version":2,"geometry_mode":"shared","airport":"LFAD","coordinate_reference_system":"WGS84","coordinate_order":"longitude, latitude","default_color_palette":"dark","color_palettes":["dark","light"],"background_colors":{"dark":"#434A4F","light":"#434A4F"},"runways":[{"ends":["05","23"],"headings":[46,226],"thresholds":[[2.797191944,49.429052778],[2.804174722,49.433157778]]}],"saved_active_runways":[],"saved_active_airport_modes":[],"airport_reference":[2.804721944,49.433610833],"feature_count":2,"style_count":2,"layer_counts":{"Guidance lines":1,"Runways":1},"category_counts":{"Grass runways":1,"Runway centerlines":1},"geometry_source":"IWantPizzaa/France-Ground-Layouts","geometry_source_url":"https://github.com/IWantPizzaa/France-Ground-Layouts","geometry_license":"GPL-3.0"},"styles":{"line.runwaygrass.008000":{"name":"Grass runways","layer":"Guidance lines","object_type":"Line","paint":{"stroke":"#859A77","stroke-opacity":1,"stroke-width":1,"palette-overrides":{"light":{"stroke":"#008000"}}},"feature_count":1},"runway.reference":{"name":"Runway centerlines","layer":"Runways","object_type":"Line","paint":{"stroke":"#CCCCCC","stroke-width":2,"stroke-opacity":1},"feature_count":1}},"vsmr_groups":[],"features":[{"type":"Feature","id":"LFAD-da5f1a691c6fa0a257f6","properties":{"airport":"LFAD","name":"LFAD Groundlayout Compiegne Margny","layer":"Guidance lines","category":"Grass runways","object_type":"Line","style_id":"line.runwaygrass.008000","source_group":"LFAD Groundlayout Compiegne Margny","vsmr_group_ids":[],"geometry_role":"linework"},"geometry":{"type":"MultiLineString","coordinates":[[[2.795666667,49.430305556],[2.804972222,49.435805556]],[[2.798527778,49.427694444],[2.807833333,49.433194444]],[[2.795666667,49.430305556],[2.798527778,49.427694444]],[[2.804972222,49.435805556],[2.807833333,49.433194444]]]}},{"type":"Feature","id":"LFAD-ede85caa771fa1e267cf","properties":{"airport":"LFAD","name":"05/23","layer":"Runways","category":"Runway centerlines","object_type":"Line","style_id":"runway.reference","source_group":"LFAD Runways","vsmr_group_ids":[],"geometry_role":"runway_centerline"},"geometry":{"type":"LineString","coordinates":[[2.797191944,49.429052778],[2.804174722,49.433157778]]}}]}
