{"type":"FeatureCollection","name":"LFAF AVISO","bbox":[3.629013889,49.591427778,3.636566944,49.599755833],"metadata":{"schema":"vSMR AVISO","schema_version":2,"geometry_mode":"shared","airport":"LFAF","coordinate_reference_system":"WGS84","coordinate_order":"longitude, latitude","default_color_palette":"dark","color_palettes":["dark","light"],"background_colors":{"dark":"#434A4F","light":"#434A4F"},"runways":[{"ends":["17","35"],"headings":[171,351],"thresholds":[[3.629185833,49.599755833],[3.630863889,49.591427778]]},{"ends":["05","23"],"headings":[51,231],"thresholds":[[3.629013889,49.594160833],[3.636566944,49.597988889]]}],"saved_active_runways":[],"saved_active_airport_modes":[],"airport_reference":[3.630277778,49.594721944],"feature_count":0,"style_count":0,"layer_counts":{},"category_counts":{},"geometry_source":"IWantPizzaa/France-Ground-Layouts","geometry_source_url":"https://github.com/IWantPizzaa/France-Ground-Layouts","geometry_license":"GPL-3.0"},"styles":{},"vsmr_groups":[],"features":[]}
