{"type":"FeatureCollection","name":"LFAG AVISO","bbox":[3.020141944,49.868841944,3.038985833,49.869057778],"metadata":{"schema":"vSMR AVISO","schema_version":2,"geometry_mode":"shared","airport":"LFAG","coordinate_reference_system":"WGS84","coordinate_order":"longitude, latitude","default_color_palette":"dark","color_palettes":["dark","light"],"background_colors":{"dark":"#434A4F","light":"#434A4F"},"runways":[{"ends":["09","27"],"headings":[90,270],"thresholds":[[3.020141944,49.869057778],[3.038985833,49.868841944]]}],"saved_active_runways":[],"saved_active_airport_modes":[],"airport_reference":[3.029721944,49.868888889],"feature_count":1,"style_count":1,"layer_counts":{"Runways":1},"category_counts":{"Runway centerlines":1},"geometry_source":"IWantPizzaa/France-Ground-Layouts","geometry_source_url":"https://github.com/IWantPizzaa/France-Ground-Layouts","geometry_license":"GPL-3.0"},"styles":{"runway.reference":{"name":"Runway centerlines","layer":"Runways","object_type":"Line","paint":{"stroke":"#CCCCCC","stroke-width":2,"stroke-opacity":1},"feature_count":1}},"vsmr_groups":[],"features":[{"type":"Feature","id":"LFAG-e648171ada4a96a59edb","properties":{"airport":"LFAG","name":"09/27","layer":"Runways","category":"Runway centerlines","object_type":"Line","style_id":"runway.reference","source_group":"LFAG Runways","vsmr_group_ids":[],"geometry_role":"runway_centerline"},"geometry":{"type":"LineString","coordinates":[[3.020141944,49.869057778],[3.038985833,49.868841944]]}}]}
