{"type":"FeatureCollection","name":"LFAJ AVISO","bbox":[1.8889e-05,48.707471944,0.006410833,48.712235833],"metadata":{"schema":"vSMR AVISO","schema_version":2,"geometry_mode":"shared","airport":"LFAJ","coordinate_reference_system":"WGS84","coordinate_order":"longitude, latitude","default_color_palette":"dark","color_palettes":["dark","light"],"background_colors":{"dark":"#434A4F","light":"#434A4F"},"runways":[{"ends":["04","22"],"headings":[41,221],"thresholds":[[1.8889e-05,48.707471944],[0.006410833,48.712235833]]}],"saved_active_runways":[],"saved_active_airport_modes":[],"airport_reference":[0.002777778,48.709443889],"feature_count":1,"style_count":1,"layer_counts":{"Runways":1},"category_counts":{"Runway centerlines":1},"geometry_source":"IWantPizzaa/France-Ground-Layouts","geometry_source_url":"https://github.com/IWantPizzaa/France-Ground-Layouts","geometry_license":"GPL-3.0"},"styles":{"runway.reference":{"name":"Runway centerlines","layer":"Runways","object_type":"Line","paint":{"stroke":"#CCCCCC","stroke-width":2,"stroke-opacity":1},"feature_count":1}},"vsmr_groups":[],"features":[{"type":"Feature","id":"LFAJ-5aa3e2fc834fcbd079b5","properties":{"airport":"LFAJ","name":"04/22","layer":"Runways","category":"Runway centerlines","object_type":"Line","style_id":"runway.reference","source_group":"LFAJ Runways","vsmr_group_ids":[],"geometry_role":"runway_centerline"},"geometry":{"type":"LineString","coordinates":[[1.8889e-05,48.707471944],[0.006410833,48.712235833]]}}]}
