{"type":"FeatureCollection","name":"LFAR AVISO","bbox":[2.562580833,49.671925,2.572918889,49.672396944],"metadata":{"schema":"vSMR AVISO","schema_version":2,"geometry_mode":"shared","airport":"LFAR","coordinate_reference_system":"WGS84","coordinate_order":"longitude, latitude","default_color_palette":"dark","color_palettes":["dark","light"],"background_colors":{"dark":"#434A4F","light":"#434A4F"},"runways":[{"ends":["09","27"],"headings":[85,265],"thresholds":[[2.562580833,49.671925],[2.572918889,49.672396944]]}],"saved_active_runways":[],"saved_active_airport_modes":[],"airport_reference":[2.567777778,49.672221944],"feature_count":1,"style_count":1,"layer_counts":{"Runways":1},"category_counts":{"Runway centerlines":1},"geometry_source":"IWantPizzaa/France-Ground-Layouts","geometry_source_url":"https://github.com/IWantPizzaa/France-Ground-Layouts","geometry_license":"GPL-3.0"},"styles":{"runway.reference":{"name":"Runway centerlines","layer":"Runways","object_type":"Line","paint":{"stroke":"#CCCCCC","stroke-width":2,"stroke-opacity":1},"feature_count":1}},"vsmr_groups":[],"features":[{"type":"Feature","id":"LFAR-0151bc1a6545a40c9eca","properties":{"airport":"LFAR","name":"09/27","layer":"Runways","category":"Runway centerlines","object_type":"Line","style_id":"runway.reference","source_group":"LFAR Runways","vsmr_group_ids":[],"geometry_role":"runway_centerline"},"geometry":{"type":"LineString","coordinates":[[2.562580833,49.671925],[2.572918889,49.672396944]]}}]}
