{"type":"FeatureCollection","name":"LFAU AVISO","bbox":[-1.83305,49.620921944,-1.827635833,49.625221944],"metadata":{"schema":"vSMR AVISO","schema_version":2,"geometry_mode":"shared","airport":"LFAU","coordinate_reference_system":"WGS84","coordinate_order":"longitude, latitude","default_color_palette":"dark","color_palettes":["dark","light"],"background_colors":{"dark":"#434A4F","light":"#434A4F"},"runways":[{"ends":["15","33"],"headings":[148,328],"thresholds":[[-1.83305,49.625221944],[-1.828841944,49.620921944]]},{"ends":["10","28"],"headings":[104,284],"thresholds":[[-1.832993889,49.624002778],[-1.829591944,49.623474722]]},{"ends":["07","25"],"headings":[74,254],"thresholds":[[-1.831991944,49.622630833],[-1.827635833,49.623471944]]}],"saved_active_runways":[],"saved_active_airport_modes":[],"airport_reference":[-1.83,49.622777778],"feature_count":3,"style_count":1,"layer_counts":{"Runways":3},"category_counts":{"Runway centerlines":3},"geometry_source":"IWantPizzaa/France-Ground-Layouts","geometry_source_url":"https://github.com/IWantPizzaa/France-Ground-Layouts","geometry_license":"GPL-3.0"},"styles":{"runway.reference":{"name":"Runway centerlines","layer":"Runways","object_type":"Line","paint":{"stroke":"#CCCCCC","stroke-width":2,"stroke-opacity":1},"feature_count":3}},"vsmr_groups":[],"features":[{"type":"Feature","id":"LFAU-b2d18579f9bd55d0bbd6","properties":{"airport":"LFAU","name":"15/33","layer":"Runways","category":"Runway centerlines","object_type":"Line","style_id":"runway.reference","source_group":"LFAU Runways","vsmr_group_ids":[],"geometry_role":"runway_centerline"},"geometry":{"type":"LineString","coordinates":[[-1.83305,49.625221944],[-1.828841944,49.620921944]]}},{"type":"Feature","id":"LFAU-f9ad151fba4e361b739c","properties":{"airport":"LFAU","name":"10/28","layer":"Runways","category":"Runway centerlines","object_type":"Line","style_id":"runway.reference","source_group":"LFAU Runways","vsmr_group_ids":[],"geometry_role":"runway_centerline"},"geometry":{"type":"LineString","coordinates":[[-1.832993889,49.624002778],[-1.829591944,49.623474722]]}},{"type":"Feature","id":"LFAU-3acc50f7b07c22508d9b","properties":{"airport":"LFAU","name":"07/25","layer":"Runways","category":"Runway centerlines","object_type":"Line","style_id":"runway.reference","source_group":"LFAU Runways","vsmr_group_ids":[],"geometry_role":"runway_centerline"},"geometry":{"type":"LineString","coordinates":[[-1.831991944,49.622630833],[-1.827635833,49.623471944]]}}]}
