{"type":"FeatureCollection","name":"LFAY AVISO","bbox":[2.378593889,49.870325,2.394805833,49.875752778],"metadata":{"schema":"vSMR AVISO","schema_version":2,"geometry_mode":"shared","airport":"LFAY","coordinate_reference_system":"WGS84","coordinate_order":"longitude, latitude","default_color_palette":"dark","color_palettes":["dark","light"],"background_colors":{"dark":"#434A4F","light":"#434A4F"},"runways":[{"ends":["12R","30L"],"headings":[115,295],"thresholds":[[2.382005833,49.873885833],[2.393255833,49.870325]]},{"ends":["12","30"],"headings":[115,295],"thresholds":[[2.378593889,49.875752778],[2.394805833,49.870627778]]}],"saved_active_runways":[],"saved_active_airport_modes":[],"airport_reference":[2.386943889,49.873055833],"feature_count":2,"style_count":1,"layer_counts":{"Runways":2},"category_counts":{"Runway centerlines":2},"geometry_source":"IWantPizzaa/France-Ground-Layouts","geometry_source_url":"https://github.com/IWantPizzaa/France-Ground-Layouts","geometry_license":"GPL-3.0"},"styles":{"runway.reference":{"name":"Runway centerlines","layer":"Runways","object_type":"Line","paint":{"stroke":"#CCCCCC","stroke-width":2,"stroke-opacity":1},"feature_count":2}},"vsmr_groups":[],"features":[{"type":"Feature","id":"LFAY-3522f0823e0bbef6d28a","properties":{"airport":"LFAY","name":"12R/30L","layer":"Runways","category":"Runway centerlines","object_type":"Line","style_id":"runway.reference","source_group":"LFAY Runways","vsmr_group_ids":[],"geometry_role":"runway_centerline"},"geometry":{"type":"LineString","coordinates":[[2.382005833,49.873885833],[2.393255833,49.870325]]}},{"type":"Feature","id":"LFAY-415eef660d4959aa60fd","properties":{"airport":"LFAY","name":"12/30","layer":"Runways","category":"Runway centerlines","object_type":"Line","style_id":"runway.reference","source_group":"LFAY Runways","vsmr_group_ids":[],"geometry_role":"runway_centerline"},"geometry":{"type":"LineString","coordinates":[[2.378593889,49.875752778],[2.394805833,49.870627778]]}}]}
