{"type":"FeatureCollection","name":"LFBY AVISO","bbox":[-1.072083333,43.687,-1.064805556,43.691416667],"metadata":{"schema":"vSMR AVISO","schema_version":2,"geometry_mode":"shared","airport":"LFBY","coordinate_reference_system":"WGS84","coordinate_order":"longitude, latitude","default_color_palette":"dark","color_palettes":["dark","light"],"background_colors":{"dark":"#434A4F","light":"#434A4F"},"runways":[{"ends":["07","25"],"headings":[73,253],"thresholds":[[-1.071525,43.688591944],[-1.066668889,43.689577778]]}],"saved_active_runways":[],"saved_active_airport_modes":[],"airport_reference":[-1.068888889,43.689166944],"feature_count":2,"style_count":2,"layer_counts":{"Guidance lines":1,"Runways":1},"category_counts":{"Runway centerlines":1,"Runways":1},"geometry_source":"IWantPizzaa/France-Ground-Layouts","geometry_source_url":"https://github.com/IWantPizzaa/France-Ground-Layouts","geometry_license":"GPL-3.0"},"styles":{"line.runwayconcrete.555555":{"name":"Runways","layer":"Guidance lines","object_type":"Line","paint":{"stroke":"#111318","stroke-opacity":1,"stroke-width":1,"palette-overrides":{"light":{"stroke":"#555555"}}},"feature_count":1},"runway.reference":{"name":"Runway centerlines","layer":"Runways","object_type":"Line","paint":{"stroke":"#CCCCCC","stroke-width":2,"stroke-opacity":1},"feature_count":1}},"vsmr_groups":[],"features":[{"type":"Feature","id":"LFBY-da613f06b67480be213b","properties":{"airport":"LFBY","name":"LFBY Groundlayout Dax","layer":"Guidance lines","category":"Runways","object_type":"Line","style_id":"line.runwayconcrete.555555","source_group":"LFBY Groundlayout Dax","vsmr_group_ids":[],"geometry_role":"linework"},"geometry":{"type":"MultiLineString","coordinates":[[[-1.072083333,43.690222222],[-1.066,43.691416667]],[[-1.070916667,43.687],[-1.064805556,43.688194444]],[[-1.072083333,43.690222222],[-1.070916667,43.687]],[[-1.066,43.691416667],[-1.064805556,43.688194444]]]}},{"type":"Feature","id":"LFBY-80e61db889428a296541","properties":{"airport":"LFBY","name":"07/25","layer":"Runways","category":"Runway centerlines","object_type":"Line","style_id":"runway.reference","source_group":"LFBY Runways","vsmr_group_ids":[],"geometry_role":"runway_centerline"},"geometry":{"type":"LineString","coordinates":[[-1.071525,43.688591944],[-1.066668889,43.689577778]]}}]}
