{"type":"FeatureCollection","name":"LFCB AVISO","bbox":[0.600641944,42.798485833,0.601585833,42.803735833],"metadata":{"schema":"vSMR AVISO","schema_version":2,"geometry_mode":"shared","airport":"LFCB","coordinate_reference_system":"WGS84","coordinate_order":"longitude, latitude","default_color_palette":"dark","color_palettes":["dark","light"],"background_colors":{"dark":"#434A4F","light":"#434A4F"},"runways":[{"ends":["01","19"],"headings":[7,187],"thresholds":[[0.600641944,42.798485833],[0.601585833,42.803735833]]}],"saved_active_runways":[],"saved_active_airport_modes":[],"airport_reference":[0.601110833,42.800555833],"feature_count":1,"style_count":1,"layer_counts":{"Runways":1},"category_counts":{"Runway centerlines":1},"geometry_source":"IWantPizzaa/France-Ground-Layouts","geometry_source_url":"https://github.com/IWantPizzaa/France-Ground-Layouts","geometry_license":"GPL-3.0"},"styles":{"runway.reference":{"name":"Runway centerlines","layer":"Runways","object_type":"Line","paint":{"stroke":"#CCCCCC","stroke-width":2,"stroke-opacity":1},"feature_count":1}},"vsmr_groups":[],"features":[{"type":"Feature","id":"LFCB-2fb484893c9599cba6eb","properties":{"airport":"LFCB","name":"01/19","layer":"Runways","category":"Runway centerlines","object_type":"Line","style_id":"runway.reference","source_group":"LFCB Runways","vsmr_group_ids":[],"geometry_role":"runway_centerline"},"geometry":{"type":"LineString","coordinates":[[0.600641944,42.798485833],[0.601585833,42.803735833]]}}]}
