{"type":"FeatureCollection","name":"LFCC AVISO","bbox":[1.467111111,44.346583333,1.484694444,44.357611111],"metadata":{"schema":"vSMR AVISO","schema_version":2,"geometry_mode":"shared","airport":"LFCC","coordinate_reference_system":"WGS84","coordinate_order":"longitude, latitude","default_color_palette":"dark","color_palettes":["dark","light"],"background_colors":{"dark":"#434A4F","light":"#434A4F"},"runways":[{"ends":["13L","31R"],"headings":[127,307],"thresholds":[[1.472427778,44.354552778],[1.483066944,44.348507778]]},{"ends":["13","31"],"headings":[127,307],"thresholds":[[1.468452778,44.356280833],[1.483280833,44.347888889]]}],"saved_active_runways":[],"saved_active_airport_modes":[],"airport_reference":[1.478610833,44.350555833],"feature_count":2,"style_count":2,"layer_counts":{"Guidance lines":2},"category_counts":{"Grass runways":1,"Runways":1},"geometry_source":"local GNG/KMZ","geometry_source_url":"","geometry_license":"GPL-3.0"},"styles":{"line.runwayconcrete.555555":{"name":"Runways","layer":"Guidance lines","object_type":"Line","paint":{"stroke":"#111318","stroke-opacity":1,"stroke-width":1,"palette-overrides":{"light":{"stroke":"#555555"}}},"feature_count":1},"line.runwaygrass.008000":{"name":"Grass runways","layer":"Guidance lines","object_type":"Line","paint":{"stroke":"#859A77","stroke-opacity":1,"stroke-width":1,"palette-overrides":{"light":{"stroke":"#008000"}}},"feature_count":1}},"vsmr_groups":[],"features":[{"type":"Feature","id":"LFCC-3fdd8027ca2621857acd","properties":{"airport":"LFCC","name":"LFCC Groundlayout Cahors","layer":"Guidance lines","category":"Runways","object_type":"Line","style_id":"line.runwayconcrete.555555","source_group":"LFCC Groundlayout Cahors","vsmr_group_ids":[],"geometry_role":"linework"},"geometry":{"type":"MultiLineString","coordinates":[[[1.473805556,44.355916667],[1.4845,44.349805556]],[[1.471,44.353277778],[1.481694444,44.347194444]],[[1.473805556,44.355916667],[1.471,44.353277778]],[[1.4845,44.349805556],[1.481694444,44.347194444]]]}},{"type":"Feature","id":"LFCC-2431fd97e266bc299d0a","properties":{"airport":"LFCC","name":"LFCC Groundlayout Cahors","layer":"Guidance lines","category":"Grass runways","object_type":"Line","style_id":"line.runwaygrass.008000","source_group":"LFCC Groundlayout Cahors","vsmr_group_ids":[],"geometry_role":"linework"},"geometry":{"type":"MultiLineString","coordinates":[[[1.469888889,44.357611111],[1.484694444,44.349222222]],[[1.467111111,44.354972222],[1.481916667,44.346583333]],[[1.469888889,44.357611111],[1.467111111,44.354972222]],[[1.484694444,44.349222222],[1.481916667,44.346583333]]]}}]}
