{"type":"FeatureCollection","name":"LFCS AVISO","bbox":[-0.599843889,44.694141944,-0.594166944,44.701796944],"metadata":{"schema":"vSMR AVISO","schema_version":2,"geometry_mode":"shared","airport":"LFCS","coordinate_reference_system":"WGS84","coordinate_order":"longitude, latitude","default_color_palette":"dark","color_palettes":["dark","light"],"background_colors":{"dark":"#434A4F","light":"#434A4F"},"runways":[{"ends":["03R","21L"],"headings":[31,211],"thresholds":[[-0.599385833,44.694141944],[-0.594166944,44.700027778]]},{"ends":["03","21"],"headings":[31,211],"thresholds":[[-0.599843889,44.69615],[-0.594843889,44.701796944]]}],"saved_active_runways":[],"saved_active_airport_modes":[],"airport_reference":[-0.597221944,44.699166944],"feature_count":2,"style_count":1,"layer_counts":{"Runways":2},"category_counts":{"Runway centerlines":2},"geometry_source":"IWantPizzaa/France-Ground-Layouts","geometry_source_url":"https://github.com/IWantPizzaa/France-Ground-Layouts","geometry_license":"GPL-3.0"},"styles":{"runway.reference":{"name":"Runway centerlines","layer":"Runways","object_type":"Line","paint":{"stroke":"#CCCCCC","stroke-width":2,"stroke-opacity":1},"feature_count":2}},"vsmr_groups":[],"features":[{"type":"Feature","id":"LFCS-e502afc62c18d2d2a7ee","properties":{"airport":"LFCS","name":"03R/21L","layer":"Runways","category":"Runway centerlines","object_type":"Line","style_id":"runway.reference","source_group":"LFCS Runways","vsmr_group_ids":[],"geometry_role":"runway_centerline"},"geometry":{"type":"LineString","coordinates":[[-0.599385833,44.694141944],[-0.594166944,44.700027778]]}},{"type":"Feature","id":"LFCS-b089ce2c1bb3eb5522b0","properties":{"airport":"LFCS","name":"03/21","layer":"Runways","category":"Runway centerlines","object_type":"Line","style_id":"runway.reference","source_group":"LFCS Runways","vsmr_group_ids":[],"geometry_role":"runway_centerline"},"geometry":{"type":"LineString","coordinates":[[-0.599843889,44.69615],[-0.594843889,44.701796944]]}}]}
