{"type":"FeatureCollection","name":"LFCT AVISO","bbox":[-0.159349722,46.959085833,-0.149049722,46.962943889],"metadata":{"schema":"vSMR AVISO","schema_version":2,"geometry_mode":"shared","airport":"LFCT","coordinate_reference_system":"WGS84","coordinate_order":"longitude, latitude","default_color_palette":"dark","color_palettes":["dark","light"],"background_colors":{"dark":"#434A4F","light":"#434A4F"},"runways":[{"ends":["12","30"],"headings":[118,298],"thresholds":[[-0.159349722,46.962943889],[-0.149049722,46.959085833]]}],"saved_active_runways":[],"saved_active_airport_modes":[],"airport_reference":[-0.152777778,46.961943889],"feature_count":1,"style_count":1,"layer_counts":{"Runways":1},"category_counts":{"Runway centerlines":1},"geometry_source":"IWantPizzaa/France-Ground-Layouts","geometry_source_url":"https://github.com/IWantPizzaa/France-Ground-Layouts","geometry_license":"GPL-3.0"},"styles":{"runway.reference":{"name":"Runway centerlines","layer":"Runways","object_type":"Line","paint":{"stroke":"#CCCCCC","stroke-width":2,"stroke-opacity":1},"feature_count":1}},"vsmr_groups":[],"features":[{"type":"Feature","id":"LFCT-325f1ff1c5f8360f0d3b","properties":{"airport":"LFCT","name":"12/30","layer":"Runways","category":"Runway centerlines","object_type":"Line","style_id":"runway.reference","source_group":"LFCT Runways","vsmr_group_ids":[],"geometry_role":"runway_centerline"},"geometry":{"type":"LineString","coordinates":[[-0.159349722,46.962943889],[-0.149049722,46.959085833]]}}]}
