{"type":"FeatureCollection","name":"LFCU AVISO","bbox":[2.416277778,45.534927778,2.433252778,45.536885833],"metadata":{"schema":"vSMR AVISO","schema_version":2,"geometry_mode":"shared","airport":"LFCU","coordinate_reference_system":"WGS84","coordinate_order":"longitude, latitude","default_color_palette":"dark","color_palettes":["dark","light"],"background_colors":{"dark":"#434A4F","light":"#434A4F"},"runways":[{"ends":["10R","28L"],"headings":[98,278],"thresholds":[[2.418682778,45.536238889],[2.430046944,45.534930833]]},{"ends":["10","28"],"headings":[98,278],"thresholds":[[2.416277778,45.536885833],[2.433252778,45.534927778]]}],"saved_active_runways":[],"saved_active_airport_modes":[],"airport_reference":[2.424721944,45.535832778],"feature_count":2,"style_count":1,"layer_counts":{"Runways":2},"category_counts":{"Runway centerlines":2},"geometry_source":"IWantPizzaa/France-Ground-Layouts","geometry_source_url":"https://github.com/IWantPizzaa/France-Ground-Layouts","geometry_license":"GPL-3.0"},"styles":{"runway.reference":{"name":"Runway centerlines","layer":"Runways","object_type":"Line","paint":{"stroke":"#CCCCCC","stroke-width":2,"stroke-opacity":1},"feature_count":2}},"vsmr_groups":[],"features":[{"type":"Feature","id":"LFCU-cb568d77c21474c7372d","properties":{"airport":"LFCU","name":"10R/28L","layer":"Runways","category":"Runway centerlines","object_type":"Line","style_id":"runway.reference","source_group":"LFCU Runways","vsmr_group_ids":[],"geometry_role":"runway_centerline"},"geometry":{"type":"LineString","coordinates":[[2.418682778,45.536238889],[2.430046944,45.534930833]]}},{"type":"Feature","id":"LFCU-3292dfb13dd09a7031ac","properties":{"airport":"LFCU","name":"10/28","layer":"Runways","category":"Runway centerlines","object_type":"Line","style_id":"runway.reference","source_group":"LFCU Runways","vsmr_group_ids":[],"geometry_role":"runway_centerline"},"geometry":{"type":"LineString","coordinates":[[2.416277778,45.536885833],[2.433252778,45.534927778]]}}]}
