{"type":"FeatureCollection","name":"LFCV AVISO","bbox":[2.021825,44.366385833,2.031168889,44.371816944],"metadata":{"schema":"vSMR AVISO","schema_version":2,"geometry_mode":"shared","airport":"LFCV","coordinate_reference_system":"WGS84","coordinate_order":"longitude, latitude","default_color_palette":"dark","color_palettes":["dark","light"],"background_colors":{"dark":"#434A4F","light":"#434A4F"},"runways":[{"ends":["13","31"],"headings":[128,308],"thresholds":[[2.021825,44.371816944],[2.031168889,44.366385833]]}],"saved_active_runways":[],"saved_active_airport_modes":[],"airport_reference":[2.026943889,44.368888889],"feature_count":1,"style_count":1,"layer_counts":{"Runways":1},"category_counts":{"Runway centerlines":1},"geometry_source":"IWantPizzaa/France-Ground-Layouts","geometry_source_url":"https://github.com/IWantPizzaa/France-Ground-Layouts","geometry_license":"GPL-3.0"},"styles":{"runway.reference":{"name":"Runway centerlines","layer":"Runways","object_type":"Line","paint":{"stroke":"#CCCCCC","stroke-width":2,"stroke-opacity":1},"feature_count":1}},"vsmr_groups":[],"features":[{"type":"Feature","id":"LFCV-d425d0284c9ea3c63b55","properties":{"airport":"LFCV","name":"13/31","layer":"Runways","category":"Runway centerlines","object_type":"Line","style_id":"runway.reference","source_group":"LFCV Runways","vsmr_group_ids":[],"geometry_role":"runway_centerline"},"geometry":{"type":"LineString","coordinates":[[2.021825,44.371816944],[2.031168889,44.366385833]]}}]}
