{"type":"FeatureCollection","name":"LFCX AVISO","bbox":[1.122382778,44.084946944,1.133396944,44.087096944],"metadata":{"schema":"vSMR AVISO","schema_version":2,"geometry_mode":"shared","airport":"LFCX","coordinate_reference_system":"WGS84","coordinate_order":"longitude, latitude","default_color_palette":"dark","color_palettes":["dark","light"],"background_colors":{"dark":"#434A4F","light":"#434A4F"},"runways":[{"ends":["10L","28R"],"headings":[100,280],"thresholds":[[1.122777778,44.087096944],[1.133385833,44.085480833]]},{"ends":["10","28"],"headings":[100,280],"thresholds":[[1.122382778,44.086630833],[1.133396944,44.084946944]]}],"saved_active_runways":[],"saved_active_airport_modes":[],"airport_reference":[1.126943889,44.085832778],"feature_count":2,"style_count":1,"layer_counts":{"Runways":2},"category_counts":{"Runway centerlines":2},"geometry_source":"IWantPizzaa/France-Ground-Layouts","geometry_source_url":"https://github.com/IWantPizzaa/France-Ground-Layouts","geometry_license":"GPL-3.0"},"styles":{"runway.reference":{"name":"Runway centerlines","layer":"Runways","object_type":"Line","paint":{"stroke":"#CCCCCC","stroke-width":2,"stroke-opacity":1},"feature_count":2}},"vsmr_groups":[],"features":[{"type":"Feature","id":"LFCX-93bf036d68e204688fb3","properties":{"airport":"LFCX","name":"10L/28R","layer":"Runways","category":"Runway centerlines","object_type":"Line","style_id":"runway.reference","source_group":"LFCX Runways","vsmr_group_ids":[],"geometry_role":"runway_centerline"},"geometry":{"type":"LineString","coordinates":[[1.122777778,44.087096944],[1.133385833,44.085480833]]}},{"type":"Feature","id":"LFCX-ad0eae5fc34671b0bafe","properties":{"airport":"LFCX","name":"10/28","layer":"Runways","category":"Runway centerlines","object_type":"Line","style_id":"runway.reference","source_group":"LFCX Runways","vsmr_group_ids":[],"geometry_role":"runway_centerline"},"geometry":{"type":"LineString","coordinates":[[1.122382778,44.086630833],[1.133396944,44.084946944]]}}]}
