{"type":"FeatureCollection","name":"LFCZ AVISO","bbox":[-1.171241944,44.145196944,-1.160191944,44.146380833],"metadata":{"schema":"vSMR AVISO","schema_version":2,"geometry_mode":"shared","airport":"LFCZ","coordinate_reference_system":"WGS84","coordinate_order":"longitude, latitude","default_color_palette":"dark","color_palettes":["dark","light"],"background_colors":{"dark":"#434A4F","light":"#434A4F"},"runways":[{"ends":["08","26"],"headings":[81,261],"thresholds":[[-1.171241944,44.145196944],[-1.160191944,44.146380833]]}],"saved_active_runways":[],"saved_active_airport_modes":[],"airport_reference":[-1.164721944,44.145832778],"feature_count":1,"style_count":1,"layer_counts":{"Runways":1},"category_counts":{"Runway centerlines":1},"geometry_source":"IWantPizzaa/France-Ground-Layouts","geometry_source_url":"https://github.com/IWantPizzaa/France-Ground-Layouts","geometry_license":"GPL-3.0"},"styles":{"runway.reference":{"name":"Runway centerlines","layer":"Runways","object_type":"Line","paint":{"stroke":"#CCCCCC","stroke-width":2,"stroke-opacity":1},"feature_count":1}},"vsmr_groups":[],"features":[{"type":"Feature","id":"LFCZ-4a46afadec404b925e47","properties":{"airport":"LFCZ","name":"08/26","layer":"Runways","category":"Runway centerlines","object_type":"Line","style_id":"runway.reference","source_group":"LFCZ Runways","vsmr_group_ids":[],"geometry_role":"runway_centerline"},"geometry":{"type":"LineString","coordinates":[[-1.171241944,44.145196944],[-1.160191944,44.146380833]]}}]}
