{"type":"FeatureCollection","name":"LFDE AVISO","bbox":[2.064302778,45.419791944,2.071043889,45.421496944],"metadata":{"schema":"vSMR AVISO","schema_version":2,"geometry_mode":"shared","airport":"LFDE","coordinate_reference_system":"WGS84","coordinate_order":"longitude, latitude","default_color_palette":"dark","color_palettes":["dark","light"],"background_colors":{"dark":"#434A4F","light":"#434A4F"},"runways":[{"ends":["07","25"],"headings":[70,250],"thresholds":[[2.064302778,45.419791944],[2.071043889,45.421496944]]}],"saved_active_runways":[],"saved_active_airport_modes":[],"airport_reference":[2.067777778,45.420555833],"feature_count":1,"style_count":1,"layer_counts":{"Runways":1},"category_counts":{"Runway centerlines":1},"geometry_source":"IWantPizzaa/France-Ground-Layouts","geometry_source_url":"https://github.com/IWantPizzaa/France-Ground-Layouts","geometry_license":"GPL-3.0"},"styles":{"runway.reference":{"name":"Runway centerlines","layer":"Runways","object_type":"Line","paint":{"stroke":"#CCCCCC","stroke-width":2,"stroke-opacity":1},"feature_count":1}},"vsmr_groups":[],"features":[{"type":"Feature","id":"LFDE-2d8bbe82710cf3ad573c","properties":{"airport":"LFDE","name":"07/25","layer":"Runways","category":"Runway centerlines","object_type":"Line","style_id":"runway.reference","source_group":"LFDE Runways","vsmr_group_ids":[],"geometry_role":"runway_centerline"},"geometry":{"type":"LineString","coordinates":[[2.064302778,45.419791944],[2.071043889,45.421496944]]}}]}
