{"type":"FeatureCollection","name":"LFDF AVISO","bbox":[0.172160833,44.85195,0.181602778,44.852618889],"metadata":{"schema":"vSMR AVISO","schema_version":2,"geometry_mode":"shared","airport":"LFDF","coordinate_reference_system":"WGS84","coordinate_order":"longitude, latitude","default_color_palette":"dark","color_palettes":["dark","light"],"background_colors":{"dark":"#434A4F","light":"#434A4F"},"runways":[{"ends":["09","27"],"headings":[94,274],"thresholds":[[0.172160833,44.852618889],[0.181602778,44.85195]]}],"saved_active_runways":[],"saved_active_airport_modes":[],"airport_reference":[0.175555833,44.852499722],"feature_count":1,"style_count":1,"layer_counts":{"Runways":1},"category_counts":{"Runway centerlines":1},"geometry_source":"IWantPizzaa/France-Ground-Layouts","geometry_source_url":"https://github.com/IWantPizzaa/France-Ground-Layouts","geometry_license":"GPL-3.0"},"styles":{"runway.reference":{"name":"Runway centerlines","layer":"Runways","object_type":"Line","paint":{"stroke":"#CCCCCC","stroke-width":2,"stroke-opacity":1},"feature_count":1}},"vsmr_groups":[],"features":[{"type":"Feature","id":"LFDF-c3138183c27f25906488","properties":{"airport":"LFDF","name":"09/27","layer":"Runways","category":"Runway centerlines","object_type":"Line","style_id":"runway.reference","source_group":"LFDF Runways","vsmr_group_ids":[],"geometry_role":"runway_centerline"},"geometry":{"type":"LineString","coordinates":[[0.172160833,44.852618889],[0.181602778,44.85195]]}}]}
