{"type":"FeatureCollection","name":"LFDM AVISO","bbox":[0.195541944,44.498027778,0.205152778,44.500735833],"metadata":{"schema":"vSMR AVISO","schema_version":2,"geometry_mode":"shared","airport":"LFDM","coordinate_reference_system":"WGS84","coordinate_order":"longitude, latitude","default_color_palette":"dark","color_palettes":["dark","light"],"background_colors":{"dark":"#434A4F","light":"#434A4F"},"runways":[{"ends":["11L","29R"],"headings":[107,287],"thresholds":[[0.195557778,44.500735833],[0.204216944,44.498777778]]},{"ends":["11","29"],"headings":[107,287],"thresholds":[[0.195541944,44.500202778],[0.205152778,44.498027778]]}],"saved_active_runways":[],"saved_active_airport_modes":[],"airport_reference":[0.200277778,44.499166944],"feature_count":2,"style_count":1,"layer_counts":{"Runways":2},"category_counts":{"Runway centerlines":2},"geometry_source":"IWantPizzaa/France-Ground-Layouts","geometry_source_url":"https://github.com/IWantPizzaa/France-Ground-Layouts","geometry_license":"GPL-3.0"},"styles":{"runway.reference":{"name":"Runway centerlines","layer":"Runways","object_type":"Line","paint":{"stroke":"#CCCCCC","stroke-width":2,"stroke-opacity":1},"feature_count":2}},"vsmr_groups":[],"features":[{"type":"Feature","id":"LFDM-1c05b06f836fe87d7af9","properties":{"airport":"LFDM","name":"11L/29R","layer":"Runways","category":"Runway centerlines","object_type":"Line","style_id":"runway.reference","source_group":"LFDM Runways","vsmr_group_ids":[],"geometry_role":"runway_centerline"},"geometry":{"type":"LineString","coordinates":[[0.195557778,44.500735833],[0.204216944,44.498777778]]}},{"type":"Feature","id":"LFDM-7bbf6ce772376c115f1f","properties":{"airport":"LFDM","name":"11/29","layer":"Runways","category":"Runway centerlines","object_type":"Line","style_id":"runway.reference","source_group":"LFDM Runways","vsmr_group_ids":[],"geometry_role":"runway_centerline"},"geometry":{"type":"LineString","coordinates":[[0.195541944,44.500202778],[0.205152778,44.498027778]]}}]}
