{"type":"FeatureCollection","name":"LFDR AVISO","bbox":[-0.063171944,44.566027778,-0.053596944,44.567516944],"metadata":{"schema":"vSMR AVISO","schema_version":2,"geometry_mode":"shared","airport":"LFDR","coordinate_reference_system":"WGS84","coordinate_order":"longitude, latitude","default_color_palette":"dark","color_palettes":["dark","light"],"background_colors":{"dark":"#434A4F","light":"#434A4F"},"runways":[{"ends":["08","26"],"headings":[77,257],"thresholds":[[-0.063171944,44.566027778],[-0.053596944,44.567516944]]}],"saved_active_runways":[],"saved_active_airport_modes":[],"airport_reference":[-0.057221944,44.566943889],"feature_count":1,"style_count":1,"layer_counts":{"Runways":1},"category_counts":{"Runway centerlines":1},"geometry_source":"IWantPizzaa/France-Ground-Layouts","geometry_source_url":"https://github.com/IWantPizzaa/France-Ground-Layouts","geometry_license":"GPL-3.0"},"styles":{"runway.reference":{"name":"Runway centerlines","layer":"Runways","object_type":"Line","paint":{"stroke":"#CCCCCC","stroke-width":2,"stroke-opacity":1},"feature_count":1}},"vsmr_groups":[],"features":[{"type":"Feature","id":"LFDR-616460cb329a6279cb00","properties":{"airport":"LFDR","name":"08/26","layer":"Runways","category":"Runway centerlines","object_type":"Line","style_id":"runway.reference","source_group":"LFDR Runways","vsmr_group_ids":[],"geometry_role":"runway_centerline"},"geometry":{"type":"LineString","coordinates":[[-0.063171944,44.566027778],[-0.053596944,44.567516944]]}}]}
