{"type":"FeatureCollection","name":"LFDT AVISO","bbox":[0.074066944,43.214325,0.080846944,43.215796944],"metadata":{"schema":"vSMR AVISO","schema_version":2,"geometry_mode":"shared","airport":"LFDT","coordinate_reference_system":"WGS84","coordinate_order":"longitude, latitude","default_color_palette":"dark","color_palettes":["dark","light"],"background_colors":{"dark":"#434A4F","light":"#434A4F"},"runways":[{"ends":["08R","26L"],"headings":[80,260],"thresholds":[[0.074210833,43.214325],[0.080846944,43.215157778]]},{"ends":["08L","26R"],"headings":[80,260],"thresholds":[[0.074066944,43.214946944],[0.080816944,43.215796944]]}],"saved_active_runways":[],"saved_active_airport_modes":[],"airport_reference":[0.0775,43.215],"feature_count":2,"style_count":1,"layer_counts":{"Runways":2},"category_counts":{"Runway centerlines":2},"geometry_source":"IWantPizzaa/France-Ground-Layouts","geometry_source_url":"https://github.com/IWantPizzaa/France-Ground-Layouts","geometry_license":"GPL-3.0"},"styles":{"runway.reference":{"name":"Runway centerlines","layer":"Runways","object_type":"Line","paint":{"stroke":"#CCCCCC","stroke-width":2,"stroke-opacity":1},"feature_count":2}},"vsmr_groups":[],"features":[{"type":"Feature","id":"LFDT-8c16da1f849872b8d133","properties":{"airport":"LFDT","name":"08R/26L","layer":"Runways","category":"Runway centerlines","object_type":"Line","style_id":"runway.reference","source_group":"LFDT Runways","vsmr_group_ids":[],"geometry_role":"runway_centerline"},"geometry":{"type":"LineString","coordinates":[[0.074210833,43.214325],[0.080846944,43.215157778]]}},{"type":"Feature","id":"LFDT-b3fdc850a98853c5c2fa","properties":{"airport":"LFDT","name":"08L/26R","layer":"Runways","category":"Runway centerlines","object_type":"Line","style_id":"runway.reference","source_group":"LFDT Runways","vsmr_group_ids":[],"geometry_role":"runway_centerline"},"geometry":{"type":"LineString","coordinates":[[0.074066944,43.214946944],[0.080816944,43.215796944]]}}]}
