{"type":"FeatureCollection","name":"LFDY AVISO","bbox":[-0.485760833,44.875405833,-0.477488889,44.877288889],"metadata":{"schema":"vSMR AVISO","schema_version":2,"geometry_mode":"shared","airport":"LFDY","coordinate_reference_system":"WGS84","coordinate_order":"longitude, latitude","default_color_palette":"dark","color_palettes":["dark","light"],"background_colors":{"dark":"#434A4F","light":"#434A4F"},"runways":[{"ends":["11","29"],"headings":[107,287],"thresholds":[[-0.485760833,44.877288889],[-0.477488889,44.875405833]]}],"saved_active_runways":[],"saved_active_airport_modes":[],"airport_reference":[-0.481666944,44.876388889],"feature_count":1,"style_count":1,"layer_counts":{"Runways":1},"category_counts":{"Runway centerlines":1},"geometry_source":"IWantPizzaa/France-Ground-Layouts","geometry_source_url":"https://github.com/IWantPizzaa/France-Ground-Layouts","geometry_license":"GPL-3.0"},"styles":{"runway.reference":{"name":"Runway centerlines","layer":"Runways","object_type":"Line","paint":{"stroke":"#CCCCCC","stroke-width":2,"stroke-opacity":1},"feature_count":1}},"vsmr_groups":[],"features":[{"type":"Feature","id":"LFDY-3eac5865fabd5378ad88","properties":{"airport":"LFDY","name":"11/29","layer":"Runways","category":"Runway centerlines","object_type":"Line","style_id":"runway.reference","source_group":"LFDY Runways","vsmr_group_ids":[],"geometry_role":"runway_centerline"},"geometry":{"type":"LineString","coordinates":[[-0.485760833,44.877288889],[-0.477488889,44.875405833]]}}]}
