{"type":"FeatureCollection","name":"LFEE AVISO","bbox":[4.018611111,46.676111111,7.740555556,49.225833333],"metadata":{"schema":"vSMR AVISO","schema_version":2,"airport":"LFEE","coordinate_reference_system":"WGS84","coordinate_order":"longitude, latitude","default_color_palette":"night","color_palettes":["night","day"],"background_colors":{"night":"#434A4F","day":"#434A4F"},"geometry_mode":"shared","feature_count":18,"style_count":1,"layer_counts":{"Labels":18},"category_counts":{"Labels":18},"geometry_source":"IWantPizzaa/France-Ground-Layouts","geometry_source_url":"https://github.com/IWantPizzaa/France-Ground-Layouts","geometry_license":"GPL-3.0"},"styles":{"label.text.label.labels":{"name":"Labels","layer":"Labels","object_type":"Label","paint":{"text-anchor":"center","text-color":"#CCCCCC","text-halo-color":"#000000","text-halo-width":1,"text-size":12,"zoomLevel":1},"feature_count":18}},"features":[{"type":"Feature","id":"LFEE-text-lfee-19376","properties":{"airport":"LFEE","name":"HOP_HBES","layer":"Labels","category":"Labels","object_type":"Label","style_id":"label.text.label.labels","vsmr_group_ids":[],"geometry_role":"text_label","text-field":"HOP_HBES"},"geometry":{"type":"Point","coordinates":[5.964444444,47.225555556]}},{"type":"Feature","id":"LFEE-text-lfee-19377","properties":{"airport":"LFEE","name":"HOP_HCSS","layer":"Labels","category":"Labels","object_type":"Label","style_id":"label.text.label.labels","vsmr_group_ids":[],"geometry_role":"text_label","text-field":"HOP_HCSS"},"geometry":{"type":"Point","coordinates":[4.841944444,46.7775]}},{"type":"Feature","id":"LFEE-text-lfee-19378","properties":{"airport":"LFEE","name":"HOP_HCOL","layer":"Labels","category":"Labels","object_type":"Label","style_id":"label.text.label.labels","vsmr_group_ids":[],"geometry_role":"text_label","text-field":"HOP_HCOL"},"geometry":{"type":"Point","coordinates":[7.338055556,48.073888889]}},{"type":"Feature","id":"LFEE-text-lfee-19379","properties":{"airport":"LFEE","name":"HOP_HDBO","layer":"Labels","category":"Labels","object_type":"Label","style_id":"label.text.label.labels","vsmr_group_ids":[],"geometry_role":"text_label","text-field":"HOP_HDBO"},"geometry":{"type":"Point","coordinates":[5.069166667,47.321388889]}},{"type":"Feature","id":"LFEE-text-lfee-19380","properties":{"airport":"LFEE","name":"HOP_HDOL","layer":"Labels","category":"Labels","object_type":"Label","style_id":"label.text.label.labels","vsmr_group_ids":[],"geometry_role":"text_label","text-field":"HOP_HDOL"},"geometry":{"type":"Point","coordinates":[5.472777778,47.083333333]}},{"type":"Feature","id":"LFEE-text-lfee-19381","properties":{"airport":"LFEE","name":"HOP_HEPI","layer":"Labels","category":"Labels","object_type":"Label","style_id":"label.text.label.labels","vsmr_group_ids":[],"geometry_role":"text_label","text-field":"HOP_HEPI"},"geometry":{"type":"Point","coordinates":[6.454444444,48.181111111]}},{"type":"Feature","id":"LFEE-text-lfee-19382","properties":{"airport":"LFEE","name":"HOP_HLLS","layer":"Labels","category":"Labels","object_type":"Label","style_id":"label.text.label.labels","vsmr_group_ids":[],"geometry_role":"text_label","text-field":"HOP_HLLS"},"geometry":{"type":"Point","coordinates":[5.55,46.676111111]}},{"type":"Feature","id":"LFEE-text-lfee-19383","properties":{"airport":"LFEE","name":"HOP_HMER","layer":"Labels","category":"Labels","object_type":"Label","style_id":"label.text.label.labels","vsmr_group_ids":[],"geometry_role":"text_label","text-field":"HOP_HMER"},"geometry":{"type":"Point","coordinates":[6.242222222,49.084166667]}},{"type":"Feature","id":"LFEE-text-lfee-19384","properties":{"airport":"LFEE","name":"HOP_HMUL","layer":"Labels","category":"Labels","object_type":"Label","style_id":"label.text.label.labels","vsmr_group_ids":[],"geometry_role":"text_label","text-field":"HOP_HMUL"},"geometry":{"type":"Point","coordinates":[7.345,47.725277778]}},{"type":"Feature","id":"LFEE-text-lfee-19385","properties":{"airport":"LFEE","name":"HOP_HNAB","layer":"Labels","category":"Labels","object_type":"Label","style_id":"label.text.label.labels","vsmr_group_ids":[],"geometry_role":"text_label","text-field":"HOP_HNAB"},"geometry":{"type":"Point","coordinates":[6.151388889,48.644722222]}},{"type":"Feature","id":"LFEE-text-lfee-19386","properties":{"airport":"LFEE","name":"HOP_HNAN","layer":"Labels","category":"Labels","object_type":"Label","style_id":"label.text.label.labels","vsmr_group_ids":[],"geometry_role":"text_label","text-field":"HOP_HNAN"},"geometry":{"type":"Point","coordinates":[6.1925,48.685277778]}},{"type":"Feature","id":"LFEE-text-lfee-19387","properties":{"airport":"LFEE","name":"HOP_HPON","layer":"Labels","category":"Labels","object_type":"Label","style_id":"label.text.label.labels","vsmr_group_ids":[],"geometry_role":"text_label","text-field":"HOP_HPON"},"geometry":{"type":"Point","coordinates":[6.359722222,46.900555556]}},{"type":"Feature","id":"LFEE-text-lfee-19388","properties":{"airport":"LFEE","name":"HOP_HREM","layer":"Labels","category":"Labels","object_type":"Label","style_id":"label.text.label.labels","vsmr_group_ids":[],"geometry_role":"text_label","text-field":"HOP_HREM"},"geometry":{"type":"Point","coordinates":[4.018611111,49.225833333]}},{"type":"Feature","id":"LFEE-text-lfee-19389","properties":{"airport":"LFEE","name":"HOP_HAVO","layer":"Labels","category":"Labels","object_type":"Label","style_id":"label.text.label.labels","vsmr_group_ids":[],"geometry_role":"text_label","text-field":"HOP_HAVO"},"geometry":{"type":"Point","coordinates":[6.721666667,49.112222222]}},{"type":"Feature","id":"LFEE-text-lfee-19390","properties":{"airport":"LFEE","name":"HOP_HSEL","layer":"Labels","category":"Labels","object_type":"Label","style_id":"label.text.label.labels","vsmr_group_ids":[],"geometry_role":"text_label","text-field":"HOP_HSEL"},"geometry":{"type":"Point","coordinates":[7.432222222,48.261666667]}},{"type":"Feature","id":"LFEE-text-lfee-19391","properties":{"airport":"LFEE","name":"HOP_HAUT","layer":"Labels","category":"Labels","object_type":"Label","style_id":"label.text.label.labels","vsmr_group_ids":[],"geometry_role":"text_label","text-field":"HOP_HAUT"},"geometry":{"type":"Point","coordinates":[7.705,48.593333333]}},{"type":"Feature","id":"LFEE-text-lfee-19392","properties":{"airport":"LFEE","name":"HOP_HSTR","layer":"Labels","category":"Labels","object_type":"Label","style_id":"label.text.label.labels","vsmr_group_ids":[],"geometry_role":"text_label","text-field":"HOP_HSTR"},"geometry":{"type":"Point","coordinates":[7.740555556,48.575833333]}},{"type":"Feature","id":"LFEE-text-lfee-19393","properties":{"airport":"LFEE","name":"HOP_HVES","layer":"Labels","category":"Labels","object_type":"Label","style_id":"label.text.label.labels","vsmr_group_ids":[],"geometry_role":"text_label","text-field":"HOP_HVES"},"geometry":{"type":"Point","coordinates":[6.137222222,47.636944444]}}]}
