{"type":"FeatureCollection","name":"LFEK AVISO","bbox":[2.035568889,46.886210833,2.043738889,46.892710833],"metadata":{"schema":"vSMR AVISO","schema_version":2,"geometry_mode":"shared","airport":"LFEK","coordinate_reference_system":"WGS84","coordinate_order":"longitude, latitude","default_color_palette":"dark","color_palettes":["dark","light"],"background_colors":{"dark":"#434A4F","light":"#434A4F"},"runways":[{"ends":["17","35"],"headings":[174,354],"thresholds":[[2.038468889,46.892710833],[2.039018889,46.888138889]]},{"ends":["11","29"],"headings":[111,291],"thresholds":[[2.035568889,46.88985],[2.043738889,46.887568889]]},{"ends":["06","24"],"headings":[58,238],"thresholds":[[2.037518889,46.886210833],[2.043038889,46.888560833]]}],"saved_active_runways":[],"saved_active_airport_modes":[],"airport_reference":[2.040277778,46.887777778],"feature_count":3,"style_count":1,"layer_counts":{"Runways":3},"category_counts":{"Runway centerlines":3},"geometry_source":"IWantPizzaa/France-Ground-Layouts","geometry_source_url":"https://github.com/IWantPizzaa/France-Ground-Layouts","geometry_license":"GPL-3.0"},"styles":{"runway.reference":{"name":"Runway centerlines","layer":"Runways","object_type":"Line","paint":{"stroke":"#CCCCCC","stroke-width":2,"stroke-opacity":1},"feature_count":3}},"vsmr_groups":[],"features":[{"type":"Feature","id":"LFEK-74e18dfa162d93be0bd9","properties":{"airport":"LFEK","name":"17/35","layer":"Runways","category":"Runway centerlines","object_type":"Line","style_id":"runway.reference","source_group":"LFEK Runways","vsmr_group_ids":[],"geometry_role":"runway_centerline"},"geometry":{"type":"LineString","coordinates":[[2.038468889,46.892710833],[2.039018889,46.888138889]]}},{"type":"Feature","id":"LFEK-9a24115b9f490667b4ee","properties":{"airport":"LFEK","name":"11/29","layer":"Runways","category":"Runway centerlines","object_type":"Line","style_id":"runway.reference","source_group":"LFEK Runways","vsmr_group_ids":[],"geometry_role":"runway_centerline"},"geometry":{"type":"LineString","coordinates":[[2.035568889,46.88985],[2.043738889,46.887568889]]}},{"type":"Feature","id":"LFEK-bb75cb670f37d7145a12","properties":{"airport":"LFEK","name":"06/24","layer":"Runways","category":"Runway centerlines","object_type":"Line","style_id":"runway.reference","source_group":"LFEK Runways","vsmr_group_ids":[],"geometry_role":"runway_centerline"},"geometry":{"type":"LineString","coordinates":[[2.037518889,46.886210833],[2.043038889,46.888560833]]}}]}
