{"type":"FeatureCollection","name":"LFEM AVISO","bbox":[2.679443889,47.957410833,2.691577778,47.964838889],"metadata":{"schema":"vSMR AVISO","schema_version":2,"geometry_mode":"shared","airport":"LFEM","coordinate_reference_system":"WGS84","coordinate_order":"longitude, latitude","default_color_palette":"dark","color_palettes":["dark","light"],"background_colors":{"dark":"#434A4F","light":"#434A4F"},"runways":[{"ends":["04R","22L"],"headings":[45,225],"thresholds":[[2.681385833,47.957410833],[2.691577778,47.963902778]]},{"ends":["04L","22R"],"headings":[46,226],"thresholds":[[2.679443889,47.959280833],[2.688216944,47.964838889]]}],"saved_active_runways":[],"saved_active_airport_modes":[],"airport_reference":[2.684443889,47.959721944],"feature_count":2,"style_count":1,"layer_counts":{"Runways":2},"category_counts":{"Runway centerlines":2},"geometry_source":"IWantPizzaa/France-Ground-Layouts","geometry_source_url":"https://github.com/IWantPizzaa/France-Ground-Layouts","geometry_license":"GPL-3.0"},"styles":{"runway.reference":{"name":"Runway centerlines","layer":"Runways","object_type":"Line","paint":{"stroke":"#CCCCCC","stroke-width":2,"stroke-opacity":1},"feature_count":2}},"vsmr_groups":[],"features":[{"type":"Feature","id":"LFEM-71a493e4d6e45d53f13d","properties":{"airport":"LFEM","name":"04R/22L","layer":"Runways","category":"Runway centerlines","object_type":"Line","style_id":"runway.reference","source_group":"LFEM Runways","vsmr_group_ids":[],"geometry_role":"runway_centerline"},"geometry":{"type":"LineString","coordinates":[[2.681385833,47.957410833],[2.691577778,47.963902778]]}},{"type":"Feature","id":"LFEM-06ad2eaf495454cb9384","properties":{"airport":"LFEM","name":"04L/22R","layer":"Runways","category":"Runway centerlines","object_type":"Line","style_id":"runway.reference","source_group":"LFEM Runways","vsmr_group_ids":[],"geometry_role":"runway_centerline"},"geometry":{"type":"LineString","coordinates":[[2.679443889,47.959280833],[2.688216944,47.964838889]]}}]}
