{"type":"FeatureCollection","name":"LFEN AVISO","bbox":[0.696307778,47.263857778,0.701271944,47.268510833],"metadata":{"schema":"vSMR AVISO","schema_version":2,"geometry_mode":"shared","airport":"LFEN","coordinate_reference_system":"WGS84","coordinate_order":"longitude, latitude","default_color_palette":"dark","color_palettes":["dark","light"],"background_colors":{"dark":"#434A4F","light":"#434A4F"},"runways":[{"ends":["04","22"],"headings":[35,215],"thresholds":[[0.696307778,47.263857778],[0.701271944,47.268510833]]}],"saved_active_runways":[],"saved_active_airport_modes":[],"airport_reference":[0.699166944,47.266388889],"feature_count":1,"style_count":1,"layer_counts":{"Runways":1},"category_counts":{"Runway centerlines":1},"geometry_source":"IWantPizzaa/France-Ground-Layouts","geometry_source_url":"https://github.com/IWantPizzaa/France-Ground-Layouts","geometry_license":"GPL-3.0"},"styles":{"runway.reference":{"name":"Runway centerlines","layer":"Runways","object_type":"Line","paint":{"stroke":"#CCCCCC","stroke-width":2,"stroke-opacity":1},"feature_count":1}},"vsmr_groups":[],"features":[{"type":"Feature","id":"LFEN-1fd612c9f50b4a7d7e65","properties":{"airport":"LFEN","name":"04/22","layer":"Runways","category":"Runway centerlines","object_type":"Line","style_id":"runway.reference","source_group":"LFEN Runways","vsmr_group_ids":[],"geometry_role":"runway_centerline"},"geometry":{"type":"LineString","coordinates":[[0.696307778,47.263857778],[0.701271944,47.268510833]]}}]}
