{"type":"FeatureCollection","name":"LFEP AVISO","bbox":[4.557843889,47.217132778,4.562971944,47.223930833],"metadata":{"schema":"vSMR AVISO","schema_version":2,"geometry_mode":"shared","airport":"LFEP","coordinate_reference_system":"WGS84","coordinate_order":"longitude, latitude","default_color_palette":"dark","color_palettes":["dark","light"],"background_colors":{"dark":"#434A4F","light":"#434A4F"},"runways":[{"ends":["03","21"],"headings":[25,205],"thresholds":[[4.557843889,47.217132778],[4.562971944,47.223930833]]}],"saved_active_runways":[],"saved_active_airport_modes":[],"airport_reference":[4.560277778,47.220555833],"feature_count":1,"style_count":1,"layer_counts":{"Runways":1},"category_counts":{"Runway centerlines":1},"geometry_source":"IWantPizzaa/France-Ground-Layouts","geometry_source_url":"https://github.com/IWantPizzaa/France-Ground-Layouts","geometry_license":"GPL-3.0"},"styles":{"runway.reference":{"name":"Runway centerlines","layer":"Runways","object_type":"Line","paint":{"stroke":"#CCCCCC","stroke-width":2,"stroke-opacity":1},"feature_count":1}},"vsmr_groups":[],"features":[{"type":"Feature","id":"LFEP-9f25aeb0ce6ab843eab1","properties":{"airport":"LFEP","name":"03/21","layer":"Runways","category":"Runway centerlines","object_type":"Line","style_id":"runway.reference","source_group":"LFEP Runways","vsmr_group_ids":[],"geometry_role":"runway_centerline"},"geometry":{"type":"LineString","coordinates":[[4.557843889,47.217132778],[4.562971944,47.223930833]]}}]}
