{"type":"FeatureCollection","name":"LFER AVISO","bbox":[-2.041857778,47.696024722,-2.034030833,47.701407778],"metadata":{"schema":"vSMR AVISO","schema_version":2,"geometry_mode":"shared","airport":"LFER","coordinate_reference_system":"WGS84","coordinate_order":"longitude, latitude","default_color_palette":"dark","color_palettes":["dark","light"],"background_colors":{"dark":"#434A4F","light":"#434A4F"},"runways":[{"ends":["04","22"],"headings":[44,224],"thresholds":[[-2.041857778,47.696024722],[-2.034030833,47.701407778]]}],"saved_active_runways":[],"saved_active_airport_modes":[],"airport_reference":[-2.038055833,47.698610833],"feature_count":1,"style_count":1,"layer_counts":{"Runways":1},"category_counts":{"Runway centerlines":1},"geometry_source":"IWantPizzaa/France-Ground-Layouts","geometry_source_url":"https://github.com/IWantPizzaa/France-Ground-Layouts","geometry_license":"GPL-3.0"},"styles":{"runway.reference":{"name":"Runway centerlines","layer":"Runways","object_type":"Line","paint":{"stroke":"#CCCCCC","stroke-width":2,"stroke-opacity":1},"feature_count":1}},"vsmr_groups":[],"features":[{"type":"Feature","id":"LFER-3beecd4ff500b78f035d","properties":{"airport":"LFER","name":"04/22","layer":"Runways","category":"Runway centerlines","object_type":"Line","style_id":"runway.reference","source_group":"LFER Runways","vsmr_group_ids":[],"geometry_role":"runway_centerline"},"geometry":{"type":"LineString","coordinates":[[-2.041857778,47.696024722],[-2.034030833,47.701407778]]}}]}
