{"type":"FeatureCollection","name":"LFES AVISO","bbox":[-3.668649722,48.0463,-3.660913889,48.058766944],"metadata":{"schema":"vSMR AVISO","schema_version":2,"geometry_mode":"shared","airport":"LFES","coordinate_reference_system":"WGS84","coordinate_order":"longitude, latitude","default_color_palette":"dark","color_palettes":["dark","light"],"background_colors":{"dark":"#434A4F","light":"#434A4F"},"runways":[{"ends":["02R","20L"],"headings":[23,203],"thresholds":[[-3.666732778,48.048513889],[-3.664816944,48.051563889]]},{"ends":["02","20"],"headings":[23,203],"thresholds":[[-3.668649722,48.0463],[-3.660913889,48.058766944]]}],"saved_active_runways":[],"saved_active_airport_modes":[],"airport_reference":[-3.664166944,48.053610833],"feature_count":2,"style_count":1,"layer_counts":{"Runways":2},"category_counts":{"Runway centerlines":2},"geometry_source":"IWantPizzaa/France-Ground-Layouts","geometry_source_url":"https://github.com/IWantPizzaa/France-Ground-Layouts","geometry_license":"GPL-3.0"},"styles":{"runway.reference":{"name":"Runway centerlines","layer":"Runways","object_type":"Line","paint":{"stroke":"#CCCCCC","stroke-width":2,"stroke-opacity":1},"feature_count":2}},"vsmr_groups":[],"features":[{"type":"Feature","id":"LFES-6b2fa7168815a4930581","properties":{"airport":"LFES","name":"02R/20L","layer":"Runways","category":"Runway centerlines","object_type":"Line","style_id":"runway.reference","source_group":"LFES Runways","vsmr_group_ids":[],"geometry_role":"runway_centerline"},"geometry":{"type":"LineString","coordinates":[[-3.666732778,48.048513889],[-3.664816944,48.051563889]]}},{"type":"Feature","id":"LFES-88fc2aa3a07966aa9802","properties":{"airport":"LFES","name":"02/20","layer":"Runways","category":"Runway centerlines","object_type":"Line","style_id":"runway.reference","source_group":"LFES Runways","vsmr_group_ids":[],"geometry_role":"runway_centerline"},"geometry":{"type":"LineString","coordinates":[[-3.668649722,48.0463],[-3.660913889,48.058766944]]}}]}
