{"type":"FeatureCollection","name":"LFET AVISO","bbox":[5.206785833,47.542071944,5.217975,47.551188889],"metadata":{"schema":"vSMR AVISO","schema_version":2,"geometry_mode":"shared","airport":"LFET","coordinate_reference_system":"WGS84","coordinate_order":"longitude, latitude","default_color_palette":"dark","color_palettes":["dark","light"],"background_colors":{"dark":"#434A4F","light":"#434A4F"},"runways":[{"ends":["11","29"],"headings":[107,287],"thresholds":[[5.206785833,47.547316944],[5.217975,47.544746944]]},{"ends":["01","19"],"headings":[13,193],"thresholds":[[5.209007778,47.542071944],[5.212627778,47.551188889]]}],"saved_active_runways":[],"saved_active_airport_modes":[],"airport_reference":[5.210832778,47.546388889],"feature_count":2,"style_count":1,"layer_counts":{"Runways":2},"category_counts":{"Runway centerlines":2},"geometry_source":"IWantPizzaa/France-Ground-Layouts","geometry_source_url":"https://github.com/IWantPizzaa/France-Ground-Layouts","geometry_license":"GPL-3.0"},"styles":{"runway.reference":{"name":"Runway centerlines","layer":"Runways","object_type":"Line","paint":{"stroke":"#CCCCCC","stroke-width":2,"stroke-opacity":1},"feature_count":2}},"vsmr_groups":[],"features":[{"type":"Feature","id":"LFET-7d1a110253a282a816e8","properties":{"airport":"LFET","name":"11/29","layer":"Runways","category":"Runway centerlines","object_type":"Line","style_id":"runway.reference","source_group":"LFET Runways","vsmr_group_ids":[],"geometry_role":"runway_centerline"},"geometry":{"type":"LineString","coordinates":[[5.206785833,47.547316944],[5.217975,47.544746944]]}},{"type":"Feature","id":"LFET-f64185bb09043517aac7","properties":{"airport":"LFET","name":"01/19","layer":"Runways","category":"Runway centerlines","object_type":"Line","style_id":"runway.reference","source_group":"LFET Runways","vsmr_group_ids":[],"geometry_role":"runway_centerline"},"geometry":{"type":"LineString","coordinates":[[5.209007778,47.542071944],[5.212627778,47.551188889]]}}]}
