{"type":"FeatureCollection","name":"LFEV AVISO","bbox":[5.610738889,47.430391944,5.625149722,47.432991944],"metadata":{"schema":"vSMR AVISO","schema_version":2,"geometry_mode":"shared","airport":"LFEV","coordinate_reference_system":"WGS84","coordinate_order":"longitude, latitude","default_color_palette":"dark","color_palettes":["dark","light"],"background_colors":{"dark":"#434A4F","light":"#434A4F"},"runways":[{"ends":["07R","25L"],"headings":[74,254],"thresholds":[[5.616043889,47.431068889],[5.620530833,47.431877778]]},{"ends":["07L","25R"],"headings":[74,254],"thresholds":[[5.610935833,47.430935833],[5.621952778,47.432924722]]},{"ends":["07","25"],"headings":[74,254],"thresholds":[[5.610738889,47.430391944],[5.625149722,47.432991944]]}],"saved_active_runways":[],"saved_active_airport_modes":[],"airport_reference":[5.621388889,47.432221944],"feature_count":3,"style_count":1,"layer_counts":{"Runways":3},"category_counts":{"Runway centerlines":3},"geometry_source":"IWantPizzaa/France-Ground-Layouts","geometry_source_url":"https://github.com/IWantPizzaa/France-Ground-Layouts","geometry_license":"GPL-3.0"},"styles":{"runway.reference":{"name":"Runway centerlines","layer":"Runways","object_type":"Line","paint":{"stroke":"#CCCCCC","stroke-width":2,"stroke-opacity":1},"feature_count":3}},"vsmr_groups":[],"features":[{"type":"Feature","id":"LFEV-a5885364f2aa534e2cc9","properties":{"airport":"LFEV","name":"07R/25L","layer":"Runways","category":"Runway centerlines","object_type":"Line","style_id":"runway.reference","source_group":"LFEV Runways","vsmr_group_ids":[],"geometry_role":"runway_centerline"},"geometry":{"type":"LineString","coordinates":[[5.616043889,47.431068889],[5.620530833,47.431877778]]}},{"type":"Feature","id":"LFEV-01ca7fa668a74ed2f4a5","properties":{"airport":"LFEV","name":"07L/25R","layer":"Runways","category":"Runway centerlines","object_type":"Line","style_id":"runway.reference","source_group":"LFEV Runways","vsmr_group_ids":[],"geometry_role":"runway_centerline"},"geometry":{"type":"LineString","coordinates":[[5.610935833,47.430935833],[5.621952778,47.432924722]]}},{"type":"Feature","id":"LFEV-8eb9ac89cbb5e8219d12","properties":{"airport":"LFEV","name":"07/25","layer":"Runways","category":"Runway centerlines","object_type":"Line","style_id":"runway.reference","source_group":"LFEV Runways","vsmr_group_ids":[],"geometry_role":"runway_centerline"},"geometry":{"type":"LineString","coordinates":[[5.610738889,47.430391944],[5.625149722,47.432991944]]}}]}
