{"type":"FeatureCollection","name":"LFEW AVISO","bbox":[4.261652778,47.237207778,4.269480833,47.241027778],"metadata":{"schema":"vSMR AVISO","schema_version":2,"geometry_mode":"shared","airport":"LFEW","coordinate_reference_system":"WGS84","coordinate_order":"longitude, latitude","default_color_palette":"dark","color_palettes":["dark","light"],"background_colors":{"dark":"#434A4F","light":"#434A4F"},"runways":[{"ends":["05","23"],"headings":[54,234],"thresholds":[[4.261652778,47.237207778],[4.269480833,47.241027778]]}],"saved_active_runways":[],"saved_active_airport_modes":[],"airport_reference":[4.264443889,47.238610833],"feature_count":1,"style_count":1,"layer_counts":{"Runways":1},"category_counts":{"Runway centerlines":1},"geometry_source":"IWantPizzaa/France-Ground-Layouts","geometry_source_url":"https://github.com/IWantPizzaa/France-Ground-Layouts","geometry_license":"GPL-3.0"},"styles":{"runway.reference":{"name":"Runway centerlines","layer":"Runways","object_type":"Line","paint":{"stroke":"#CCCCCC","stroke-width":2,"stroke-opacity":1},"feature_count":1}},"vsmr_groups":[],"features":[{"type":"Feature","id":"LFEW-41f84858c53626619ca9","properties":{"airport":"LFEW","name":"05/23","layer":"Runways","category":"Runway centerlines","object_type":"Line","style_id":"runway.reference","source_group":"LFEW Runways","vsmr_group_ids":[],"geometry_role":"runway_centerline"},"geometry":{"type":"LineString","coordinates":[[4.261652778,47.237207778],[4.269480833,47.241027778]]}}]}
