{"type":"FeatureCollection","name":"LFEX AVISO","bbox":[6.238166944,48.591166944,6.245407778,48.59875],"metadata":{"schema":"vSMR AVISO","schema_version":2,"geometry_mode":"shared","airport":"LFEX","coordinate_reference_system":"WGS84","coordinate_order":"longitude, latitude","default_color_palette":"dark","color_palettes":["dark","light"],"background_colors":{"dark":"#434A4F","light":"#434A4F"},"runways":[{"ends":["18","36"],"headings":[178,358],"thresholds":[[6.239760833,48.59875],[6.239741944,48.593024722]]},{"ends":["06","24"],"headings":[56,236],"thresholds":[[6.238166944,48.591166944],[6.245407778,48.594146944]]}],"saved_active_runways":[],"saved_active_airport_modes":[],"airport_reference":[6.239721944,48.591943889],"feature_count":2,"style_count":1,"layer_counts":{"Runways":2},"category_counts":{"Runway centerlines":2},"geometry_source":"IWantPizzaa/France-Ground-Layouts","geometry_source_url":"https://github.com/IWantPizzaa/France-Ground-Layouts","geometry_license":"GPL-3.0"},"styles":{"runway.reference":{"name":"Runway centerlines","layer":"Runways","object_type":"Line","paint":{"stroke":"#CCCCCC","stroke-width":2,"stroke-opacity":1},"feature_count":2}},"vsmr_groups":[],"features":[{"type":"Feature","id":"LFEX-85f51454ee93cddca6da","properties":{"airport":"LFEX","name":"18/36","layer":"Runways","category":"Runway centerlines","object_type":"Line","style_id":"runway.reference","source_group":"LFEX Runways","vsmr_group_ids":[],"geometry_role":"runway_centerline"},"geometry":{"type":"LineString","coordinates":[[6.239760833,48.59875],[6.239741944,48.593024722]]}},{"type":"Feature","id":"LFEX-ba3535258d689337a4f3","properties":{"airport":"LFEX","name":"06/24","layer":"Runways","category":"Runway centerlines","object_type":"Line","style_id":"runway.reference","source_group":"LFEX Runways","vsmr_group_ids":[],"geometry_role":"runway_centerline"},"geometry":{"type":"LineString","coordinates":[[6.238166944,48.591166944],[6.245407778,48.594146944]]}}]}
