{"type":"FeatureCollection","name":"LFEZ AVISO","bbox":[6.201182778,48.720477778,6.212555833,48.726246944],"metadata":{"schema":"vSMR AVISO","schema_version":2,"geometry_mode":"shared","airport":"LFEZ","coordinate_reference_system":"WGS84","coordinate_order":"longitude, latitude","default_color_palette":"dark","color_palettes":["dark","light"],"background_colors":{"dark":"#434A4F","light":"#434A4F"},"runways":[{"ends":["14","32"],"headings":[137,317],"thresholds":[[6.205660833,48.725935833],[6.212555833,48.720477778]]},{"ends":["08","26"],"headings":[81,261],"thresholds":[[6.201182778,48.721985833],[6.211782778,48.722716944]]},{"ends":["04","22"],"headings":[35,215],"thresholds":[[6.201227778,48.720718889],[6.207824722,48.726246944]]}],"saved_active_runways":[],"saved_active_airport_modes":[],"airport_reference":[6.206388889,48.723610833],"feature_count":0,"style_count":0,"layer_counts":{},"category_counts":{},"geometry_source":"IWantPizzaa/France-Ground-Layouts","geometry_source_url":"https://github.com/IWantPizzaa/France-Ground-Layouts","geometry_license":"GPL-3.0"},"styles":{},"vsmr_groups":[],"features":[]}
