{"type":"FeatureCollection","name":"LFFB AVISO","bbox":[2.418746944,48.346810833,2.427982778,48.352266944],"metadata":{"schema":"vSMR AVISO","schema_version":2,"geometry_mode":"shared","airport":"LFFB","coordinate_reference_system":"WGS84","coordinate_order":"longitude, latitude","default_color_palette":"dark","color_palettes":["dark","light"],"background_colors":{"dark":"#434A4F","light":"#434A4F"},"runways":[{"ends":["10","28"],"headings":[97,277],"thresholds":[[2.418746944,48.350932778],[2.427982778,48.350052778]]},{"ends":["01","19"],"headings":[11,191],"thresholds":[[2.4232,48.346810833],[2.424974722,48.352266944]]}],"saved_active_runways":[],"saved_active_airport_modes":[],"airport_reference":[2.424443889,48.350277778],"feature_count":0,"style_count":0,"layer_counts":{},"category_counts":{},"geometry_source":"IWantPizzaa/France-Ground-Layouts","geometry_source_url":"https://github.com/IWantPizzaa/France-Ground-Layouts","geometry_license":"GPL-3.0"},"styles":{},"vsmr_groups":[],"features":[]}
