{"type":"FeatureCollection","name":"LFFC AVISO","bbox":[1.679999722,49.077221944,1.692221944,49.081388889],"metadata":{"schema":"vSMR AVISO","schema_version":2,"geometry_mode":"shared","airport":"LFFC","coordinate_reference_system":"WGS84","coordinate_order":"longitude, latitude","default_color_palette":"dark","color_palettes":["dark","light"],"background_colors":{"dark":"#434A4F","light":"#434A4F"},"runways":[{"ends":["12","30"],"headings":[120,300],"thresholds":[[1.679999722,49.081388889],[1.690555833,49.077221944]]},{"ends":["04","22"],"headings":[35,215],"thresholds":[[1.688888889,49.078610833],[1.692221944,49.081388889]]}],"saved_active_runways":[],"saved_active_airport_modes":[],"airport_reference":[1.688332778,49.078055833],"feature_count":2,"style_count":1,"layer_counts":{"Runways":2},"category_counts":{"Runway centerlines":2},"geometry_source":"IWantPizzaa/France-Ground-Layouts","geometry_source_url":"https://github.com/IWantPizzaa/France-Ground-Layouts","geometry_license":"GPL-3.0"},"styles":{"runway.reference":{"name":"Runway centerlines","layer":"Runways","object_type":"Line","paint":{"stroke":"#CCCCCC","stroke-width":2,"stroke-opacity":1},"feature_count":2}},"vsmr_groups":[],"features":[{"type":"Feature","id":"LFFC-13fb8c8cd16aed9012a8","properties":{"airport":"LFFC","name":"12/30","layer":"Runways","category":"Runway centerlines","object_type":"Line","style_id":"runway.reference","source_group":"LFFC Runways","vsmr_group_ids":[],"geometry_role":"runway_centerline"},"geometry":{"type":"LineString","coordinates":[[1.679999722,49.081388889],[1.690555833,49.077221944]]}},{"type":"Feature","id":"LFFC-9c0e949f1d6aab98b19e","properties":{"airport":"LFFC","name":"04/22","layer":"Runways","category":"Runway centerlines","object_type":"Line","style_id":"runway.reference","source_group":"LFFC Runways","vsmr_group_ids":[],"geometry_role":"runway_centerline"},"geometry":{"type":"LineString","coordinates":[[1.688888889,49.078610833],[1.692221944,49.081388889]]}}]}
