{"type":"FeatureCollection","name":"LFFD AVISO","bbox":[1.244827778,48.894575,1.256727778,48.900660833],"metadata":{"schema":"vSMR AVISO","schema_version":2,"geometry_mode":"shared","airport":"LFFD","coordinate_reference_system":"WGS84","coordinate_order":"longitude, latitude","default_color_palette":"dark","color_palettes":["dark","light"],"background_colors":{"dark":"#434A4F","light":"#434A4F"},"runways":[{"ends":["05R","23L"],"headings":[51,231],"thresholds":[[1.252346944,48.894575],[1.256682778,48.896785833]]},{"ends":["05L","23R"],"headings":[51,231],"thresholds":[[1.244827778,48.894638889],[1.256727778,48.900660833]]}],"saved_active_runways":[],"saved_active_airport_modes":[],"airport_reference":[1.250832778,48.8975],"feature_count":2,"style_count":1,"layer_counts":{"Runways":2},"category_counts":{"Runway centerlines":2},"geometry_source":"IWantPizzaa/France-Ground-Layouts","geometry_source_url":"https://github.com/IWantPizzaa/France-Ground-Layouts","geometry_license":"GPL-3.0"},"styles":{"runway.reference":{"name":"Runway centerlines","layer":"Runways","object_type":"Line","paint":{"stroke":"#CCCCCC","stroke-width":2,"stroke-opacity":1},"feature_count":2}},"vsmr_groups":[],"features":[{"type":"Feature","id":"LFFD-69fbe5eff5f120d91309","properties":{"airport":"LFFD","name":"05R/23L","layer":"Runways","category":"Runway centerlines","object_type":"Line","style_id":"runway.reference","source_group":"LFFD Runways","vsmr_group_ids":[],"geometry_role":"runway_centerline"},"geometry":{"type":"LineString","coordinates":[[1.252346944,48.894575],[1.256682778,48.896785833]]}},{"type":"Feature","id":"LFFD-f95b416e035601b0bc2a","properties":{"airport":"LFFD","name":"05L/23R","layer":"Runways","category":"Runway centerlines","object_type":"Line","style_id":"runway.reference","source_group":"LFFD Runways","vsmr_group_ids":[],"geometry_role":"runway_centerline"},"geometry":{"type":"LineString","coordinates":[[1.244827778,48.894638889],[1.256727778,48.900660833]]}}]}
