{"type":"FeatureCollection","name":"LFFF AVISO","bbox":[-0.3575,46.805,4.965,51.0375],"metadata":{"schema":"vSMR AVISO","schema_version":2,"airport":"LFFF","coordinate_reference_system":"WGS84","coordinate_order":"longitude, latitude","default_color_palette":"night","color_palettes":["night","day"],"background_colors":{"night":"#434A4F","day":"#434A4F"},"geometry_mode":"shared","feature_count":49,"style_count":1,"layer_counts":{"Labels":49},"category_counts":{"Labels":49},"geometry_source":"local GNG/KMZ","geometry_source_url":"","geometry_license":"GPL-3.0"},"styles":{"label.text.label.labels":{"name":"Labels","layer":"Labels","object_type":"Label","paint":{"text-anchor":"center","text-color":"#CCCCCC","text-halo-color":"#000000","text-halo-width":1,"text-size":12,"zoomLevel":0},"feature_count":49}},"features":[{"type":"Feature","id":"LFFF-text-lfff-27587","properties":{"airport":"LFFF","name":"HOP_HABB","layer":"Labels","category":"Labels","object_type":"Label","style_id":"label.text.label.labels","vsmr_group_ids":[],"geometry_role":"text_label","text-field":"HOP_HABB"},"geometry":{"type":"Point","coordinates":[1.831388889,50.101666667]}},{"type":"Feature","id":"LFFF-text-lfff-27588","properties":{"airport":"LFFF","name":"HOP_HAMI","layer":"Labels","category":"Labels","object_type":"Label","style_id":"label.text.label.labels","vsmr_group_ids":[],"geometry_role":"text_label","text-field":"HOP_HAMI"},"geometry":{"type":"Point","coordinates":[2.2575,49.876111111]}},{"type":"Feature","id":"LFFF-text-lfff-27589","properties":{"airport":"LFFF","name":"HOP_HAMY","layer":"Labels","category":"Labels","object_type":"Label","style_id":"label.text.label.labels","vsmr_group_ids":[],"geometry_role":"text_label","text-field":"HOP_HAMY"},"geometry":{"type":"Point","coordinates":[2.774444444,47.996666667]}},{"type":"Feature","id":"LFFF-text-lfff-27590","properties":{"airport":"LFFF","name":"HOP_HARS","layer":"Labels","category":"Labels","object_type":"Label","style_id":"label.text.label.labels","vsmr_group_ids":[],"geometry_role":"text_label","text-field":"HOP_HARS"},"geometry":{"type":"Point","coordinates":[2.759166667,50.296111111]}},{"type":"Feature","id":"LFFF-text-lfff-27591","properties":{"airport":"LFFF","name":"HOP_HAUL","layer":"Labels","category":"Labels","object_type":"Label","style_id":"label.text.label.labels","vsmr_group_ids":[],"geometry_role":"text_label","text-field":"HOP_HAUL"},"geometry":{"type":"Point","coordinates":[2.521111111,48.954444444]}},{"type":"Feature","id":"LFFF-text-lfff-27592","properties":{"airport":"LFFF","name":"HOP_HAUX","layer":"Labels","category":"Labels","object_type":"Label","style_id":"label.text.label.labels","vsmr_group_ids":[],"geometry_role":"text_label","text-field":"HOP_HAUX"},"geometry":{"type":"Point","coordinates":[3.557777778,47.804444444]}},{"type":"Feature","id":"LFFF-text-lfff-27593","properties":{"airport":"LFFF","name":"HOP_HBEA","layer":"Labels","category":"Labels","object_type":"Label","style_id":"label.text.label.labels","vsmr_group_ids":[],"geometry_role":"text_label","text-field":"HOP_HBEA"},"geometry":{"type":"Point","coordinates":[2.068333333,49.449166667]}},{"type":"Feature","id":"LFFF-text-lfff-27594","properties":{"airport":"LFFF","name":"HOP_HBER","layer":"Labels","category":"Labels","object_type":"Label","style_id":"label.text.label.labels","vsmr_group_ids":[],"geometry_role":"text_label","text-field":"HOP_HBER"},"geometry":{"type":"Point","coordinates":[1.564166667,50.418333333]}},{"type":"Feature","id":"LFFF-text-lfff-27595","properties":{"airport":"LFFF","name":"HOP_HBLO","layer":"Labels","category":"Labels","object_type":"Label","style_id":"label.text.label.labels","vsmr_group_ids":[],"geometry_role":"text_label","text-field":"HOP_HBLO"},"geometry":{"type":"Point","coordinates":[1.3425,47.604722222]}},{"type":"Feature","id":"LFFF-text-lfff-27596","properties":{"airport":"LFFF","name":"HOP_HBGS","layer":"Labels","category":"Labels","object_type":"Label","style_id":"label.text.label.labels","vsmr_group_ids":[],"geometry_role":"text_label","text-field":"HOP_HBGS"},"geometry":{"type":"Point","coordinates":[2.435277778,47.084166667]}},{"type":"Feature","id":"LFFF-text-lfff-27597","properties":{"airport":"LFFF","name":"HOP_HCAE","layer":"Labels","category":"Labels","object_type":"Label","style_id":"label.text.label.labels","vsmr_group_ids":[],"geometry_role":"text_label","text-field":"HOP_HCAE"},"geometry":{"type":"Point","coordinates":[-0.3575,49.203611111]}},{"type":"Feature","id":"LFFF-text-lfff-27598","properties":{"airport":"LFFF","name":"HOP_HMEZ","layer":"Labels","category":"Labels","object_type":"Label","style_id":"label.text.label.labels","vsmr_group_ids":[],"geometry_role":"text_label","text-field":"HOP_HMEZ"},"geometry":{"type":"Point","coordinates":[4.6975,49.7625]}},{"type":"Feature","id":"LFFF-text-lfff-27599","properties":{"airport":"LFFF","name":"HOP_LFWB","layer":"Labels","category":"Labels","object_type":"Label","style_id":"label.text.label.labels","vsmr_group_ids":[],"geometry_role":"text_label","text-field":"HOP_LFWB"},"geometry":{"type":"Point","coordinates":[1.504722222,48.42]}},{"type":"Feature","id":"LFFF-text-lfff-27600","properties":{"airport":"LFFF","name":"HOP_HCHS","layer":"Labels","category":"Labels","object_type":"Label","style_id":"label.text.label.labels","vsmr_group_ids":[],"geometry_role":"text_label","text-field":"HOP_HCHS"},"geometry":{"type":"Point","coordinates":[4.558055556,47.862222222]}},{"type":"Feature","id":"LFFF-text-lfff-27601","properties":{"airport":"LFFF","name":"HOP_HCHA","layer":"Labels","category":"Labels","object_type":"Label","style_id":"label.text.label.labels","vsmr_group_ids":[],"geometry_role":"text_label","text-field":"HOP_HCHA"},"geometry":{"type":"Point","coordinates":[3.2375,49.626111111]}},{"type":"Feature","id":"LFFF-text-lfff-27602","properties":{"airport":"LFFF","name":"HOP_HCOM","layer":"Labels","category":"Labels","object_type":"Label","style_id":"label.text.label.labels","vsmr_group_ids":[],"geometry_role":"text_label","text-field":"HOP_HCOM"},"geometry":{"type":"Point","coordinates":[2.795555556,49.389722222]}},{"type":"Feature","id":"LFFF-text-lfff-27603","properties":{"airport":"LFFF","name":"HOP_HCOQ","layer":"Labels","category":"Labels","object_type":"Label","style_id":"label.text.label.labels","vsmr_group_ids":[],"geometry_role":"text_label","text-field":"HOP_HCOQ"},"geometry":{"type":"Point","coordinates":[1.795,50.918055556]}},{"type":"Feature","id":"LFFF-text-lfff-27604","properties":{"airport":"LFFF","name":"HOP_HCOR","layer":"Labels","category":"Labels","object_type":"Label","style_id":"label.text.label.labels","vsmr_group_ids":[],"geometry_role":"text_label","text-field":"HOP_HCOR"},"geometry":{"type":"Point","coordinates":[2.457222222,48.620277778]}},{"type":"Feature","id":"LFFF-text-lfff-27605","properties":{"airport":"LFFF","name":"HOP_HDPE","layer":"Labels","category":"Labels","object_type":"Label","style_id":"label.text.label.labels","vsmr_group_ids":[],"geometry_role":"text_label","text-field":"HOP_HDPE"},"geometry":{"type":"Point","coordinates":[1.080555556,49.917777778]}},{"type":"Feature","id":"LFFF-text-lfff-27606","properties":{"airport":"LFFF","name":"HOP_HDOI","layer":"Labels","category":"Labels","object_type":"Label","style_id":"label.text.label.labels","vsmr_group_ids":[],"geometry_role":"text_label","text-field":"HOP_HDOI"},"geometry":{"type":"Point","coordinates":[3.101388889,50.337222222]}},{"type":"Feature","id":"LFFF-text-lfff-27607","properties":{"airport":"LFFF","name":"HOP_LFWD","layer":"Labels","category":"Labels","object_type":"Label","style_id":"label.text.label.labels","vsmr_group_ids":[],"geometry_role":"text_label","text-field":"HOP_LFWD"},"geometry":{"type":"Point","coordinates":[1.384722222,48.7275]}},{"type":"Feature","id":"LFFF-text-lfff-27608","properties":{"airport":"LFFF","name":"HOP_HDUN","layer":"Labels","category":"Labels","object_type":"Label","style_id":"label.text.label.labels","vsmr_group_ids":[],"geometry_role":"text_label","text-field":"HOP_HDUN"},"geometry":{"type":"Point","coordinates":[2.396666667,51.0375]}},{"type":"Feature","id":"LFFF-text-lfff-27609","properties":{"airport":"LFFF","name":"HOP_HEVR","layer":"Labels","category":"Labels","object_type":"Label","style_id":"label.text.label.labels","vsmr_group_ids":[],"geometry_role":"text_label","text-field":"HOP_HEVR"},"geometry":{"type":"Point","coordinates":[1.114166667,49.031111111]}},{"type":"Feature","id":"LFFF-text-lfff-27610","properties":{"airport":"LFFF","name":"HOP_HFEC","layer":"Labels","category":"Labels","object_type":"Label","style_id":"label.text.label.labels","vsmr_group_ids":[],"geometry_role":"text_label","text-field":"HOP_HFEC"},"geometry":{"type":"Point","coordinates":[0.385555556,49.743055556]}},{"type":"Feature","id":"LFFF-text-lfff-27611","properties":{"airport":"LFFF","name":"HOP_HGIE","layer":"Labels","category":"Labels","object_type":"Label","style_id":"label.text.label.labels","vsmr_group_ids":[],"geometry_role":"text_label","text-field":"HOP_HGIE"},"geometry":{"type":"Point","coordinates":[2.634722222,47.690277778]}},{"type":"Feature","id":"LFFF-text-lfff-27612","properties":{"airport":"LFFF","name":"HOP_HLAI","layer":"Labels","category":"Labels","object_type":"Label","style_id":"label.text.label.labels","vsmr_group_ids":[],"geometry_role":"text_label","text-field":"HOP_HLAI"},"geometry":{"type":"Point","coordinates":[0.611666667,48.768055556]}},{"type":"Feature","id":"LFFF-text-lfff-27613","properties":{"airport":"LFFF","name":"HOP_HLAO","layer":"Labels","category":"Labels","object_type":"Label","style_id":"label.text.label.labels","vsmr_group_ids":[],"geometry_role":"text_label","text-field":"HOP_HLAO"},"geometry":{"type":"Point","coordinates":[3.597222222,49.55]}},{"type":"Feature","id":"LFFF-text-lfff-27614","properties":{"airport":"LFFF","name":"HOP_HCRE","layer":"Labels","category":"Labels","object_type":"Label","style_id":"label.text.label.labels","vsmr_group_ids":[],"geometry_role":"text_label","text-field":"HOP_HCRE"},"geometry":{"type":"Point","coordinates":[4.446111111,46.805]}},{"type":"Feature","id":"LFFF-text-lfff-27615","properties":{"airport":"LFFF","name":"HOP_HHAV","layer":"Labels","category":"Labels","object_type":"Label","style_id":"label.text.label.labels","vsmr_group_ids":[],"geometry_role":"text_label","text-field":"HOP_HHAV"},"geometry":{"type":"Point","coordinates":[0.184722222,49.524722222]}},{"type":"Feature","id":"LFFF-text-lfff-27616","properties":{"airport":"LFFF","name":"HOP_HLEP","layer":"Labels","category":"Labels","object_type":"Label","style_id":"label.text.label.labels","vsmr_group_ids":[],"geometry_role":"text_label","text-field":"HOP_HLEP"},"geometry":{"type":"Point","coordinates":[2.274166667,48.784722222]}},{"type":"Feature","id":"LFFF-text-lfff-27617","properties":{"airport":"LFFF","name":"HOP_HLIL","layer":"Labels","category":"Labels","object_type":"Label","style_id":"label.text.label.labels","vsmr_group_ids":[],"geometry_role":"text_label","text-field":"HOP_HLIL"},"geometry":{"type":"Point","coordinates":[3.035,50.604166667]}},{"type":"Feature","id":"LFFF-text-lfff-27618","properties":{"airport":"LFFF","name":"HOP_HNEV","layer":"Labels","category":"Labels","object_type":"Label","style_id":"label.text.label.labels","vsmr_group_ids":[],"geometry_role":"text_label","text-field":"HOP_HNEV"},"geometry":{"type":"Point","coordinates":[3.122222222,46.981388889]}},{"type":"Feature","id":"LFFF-text-lfff-27619","properties":{"airport":"LFFF","name":"HOP_HORL","layer":"Labels","category":"Labels","object_type":"Label","style_id":"label.text.label.labels","vsmr_group_ids":[],"geometry_role":"text_label","text-field":"HOP_HORL"},"geometry":{"type":"Point","coordinates":[1.919444444,47.835277778]}},{"type":"Feature","id":"LFFF-text-lfff-27620","properties":{"airport":"LFFF","name":"HOP_HPLR","layer":"Labels","category":"Labels","object_type":"Label","style_id":"label.text.label.labels","vsmr_group_ids":[],"geometry_role":"text_label","text-field":"HOP_HPLR"},"geometry":{"type":"Point","coordinates":[2.354444444,48.882777778]}},{"type":"Feature","id":"LFFF-text-lfff-27621","properties":{"airport":"LFFF","name":"HOP_IRAN","layer":"Labels","category":"Labels","object_type":"Label","style_id":"label.text.label.labels","vsmr_group_ids":[],"geometry_role":"text_label","text-field":"HOP_IRAN"},"geometry":{"type":"Point","coordinates":[1.663055556,50.414444444]}},{"type":"Feature","id":"LFFF-text-lfff-27622","properties":{"airport":"LFFF","name":"HOP_HROM","layer":"Labels","category":"Labels","object_type":"Label","style_id":"label.text.label.labels","vsmr_group_ids":[],"geometry_role":"text_label","text-field":"HOP_HROM"},"geometry":{"type":"Point","coordinates":[1.731944444,47.360555556]}},{"type":"Feature","id":"LFFF-text-lfff-27623","properties":{"airport":"LFFF","name":"HOP_HROU","layer":"Labels","category":"Labels","object_type":"Label","style_id":"label.text.label.labels","vsmr_group_ids":[],"geometry_role":"text_label","text-field":"HOP_HROU"},"geometry":{"type":"Point","coordinates":[1.111111111,49.440555556]}},{"type":"Feature","id":"LFFF-text-lfff-27624","properties":{"airport":"LFFF","name":"HOP_HSDI","layer":"Labels","category":"Labels","object_type":"Label","style_id":"label.text.label.labels","vsmr_group_ids":[],"geometry_role":"text_label","text-field":"HOP_HSDI"},"geometry":{"type":"Point","coordinates":[4.965,48.655]}},{"type":"Feature","id":"LFFF-text-lfff-27625","properties":{"airport":"LFFF","name":"HOP_HOME","layer":"Labels","category":"Labels","object_type":"Label","style_id":"label.text.label.labels","vsmr_group_ids":[],"geometry_role":"text_label","text-field":"HOP_HOME"},"geometry":{"type":"Point","coordinates":[2.254722222,50.703611111]}},{"type":"Feature","id":"LFFF-text-lfff-27626","properties":{"airport":"LFFF","name":"HOP_HSTP","layer":"Labels","category":"Labels","object_type":"Label","style_id":"label.text.label.labels","vsmr_group_ids":[],"geometry_role":"text_label","text-field":"HOP_HSTP"},"geometry":{"type":"Point","coordinates":[2.335555556,50.387777778]}},{"type":"Feature","id":"LFFF-text-lfff-27627","properties":{"airport":"LFFF","name":"HOP_HSTQ","layer":"Labels","category":"Labels","object_type":"Label","style_id":"label.text.label.labels","vsmr_group_ids":[],"geometry_role":"text_label","text-field":"HOP_HSTQ"},"geometry":{"type":"Point","coordinates":[3.271666667,49.860555556]}},{"type":"Feature","id":"LFFF-text-lfff-27628","properties":{"airport":"LFFF","name":"HOP_HSPS","layer":"Labels","category":"Labels","object_type":"Label","style_id":"label.text.label.labels","vsmr_group_ids":[],"geometry_role":"text_label","text-field":"HOP_HSPS"},"geometry":{"type":"Point","coordinates":[1.878611111,47.938333333]}},{"type":"Feature","id":"LFFF-text-lfff-27629","properties":{"airport":"LFFF","name":"HOP_HSAU","layer":"Labels","category":"Labels","object_type":"Label","style_id":"label.text.label.labels","vsmr_group_ids":[],"geometry_role":"text_label","text-field":"HOP_HSAU"},"geometry":{"type":"Point","coordinates":[-0.059444444,47.245555556]}},{"type":"Feature","id":"LFFF-text-lfff-27630","properties":{"airport":"LFFF","name":"HOP_HSEM","layer":"Labels","category":"Labels","object_type":"Label","style_id":"label.text.label.labels","vsmr_group_ids":[],"geometry_role":"text_label","text-field":"HOP_HSEM"},"geometry":{"type":"Point","coordinates":[4.344444444,47.495555556]}},{"type":"Feature","id":"LFFF-text-lfff-27631","properties":{"airport":"LFFF","name":"HOP_HSES","layer":"Labels","category":"Labels","object_type":"Label","style_id":"label.text.label.labels","vsmr_group_ids":[],"geometry_role":"text_label","text-field":"HOP_HSES"},"geometry":{"type":"Point","coordinates":[3.306388889,48.191944444]}},{"type":"Feature","id":"LFFF-text-lfff-27632","properties":{"airport":"LFFF","name":"HOP_HTOU","layer":"Labels","category":"Labels","object_type":"Label","style_id":"label.text.label.labels","vsmr_group_ids":[],"geometry_role":"text_label","text-field":"HOP_HTOU"},"geometry":{"type":"Point","coordinates":[0.709166667,47.348888889]}},{"type":"Feature","id":"LFFF-text-lfff-27633","properties":{"airport":"LFFF","name":"HOP_HVAC","layer":"Labels","category":"Labels","object_type":"Label","style_id":"label.text.label.labels","vsmr_group_ids":[],"geometry_role":"text_label","text-field":"HOP_HVAC"},"geometry":{"type":"Point","coordinates":[3.499166667,50.360833333]}},{"type":"Feature","id":"LFFF-text-lfff-27634","properties":{"airport":"LFFF","name":"HOP_HVEN","layer":"Labels","category":"Labels","object_type":"Label","style_id":"label.text.label.labels","vsmr_group_ids":[],"geometry_role":"text_label","text-field":"HOP_HVEN"},"geometry":{"type":"Point","coordinates":[1.062777778,47.794166667]}},{"type":"Feature","id":"LFFF-text-lfff-27635","properties":{"airport":"LFFF","name":"HOP_HVER","layer":"Labels","category":"Labels","object_type":"Label","style_id":"label.text.label.labels","vsmr_group_ids":[],"geometry_role":"text_label","text-field":"HOP_HVER"},"geometry":{"type":"Point","coordinates":[0.891666667,48.744444444]}}]}
