{"type":"FeatureCollection","name":"LFFI AVISO","bbox":[-1.186332778,47.405466944,-1.171185833,47.408746944],"metadata":{"schema":"vSMR AVISO","schema_version":2,"geometry_mode":"shared","airport":"LFFI","coordinate_reference_system":"WGS84","coordinate_order":"longitude, latitude","default_color_palette":"dark","color_palettes":["dark","light"],"background_colors":{"dark":"#434A4F","light":"#434A4F"},"runways":[{"ends":["07","25"],"headings":[72,252],"thresholds":[[-1.186332778,47.405466944],[-1.171185833,47.408746944]]}],"saved_active_runways":[],"saved_active_airport_modes":[],"airport_reference":[-1.178888889,47.407221944],"feature_count":0,"style_count":0,"layer_counts":{},"category_counts":{},"geometry_source":"IWantPizzaa/France-Ground-Layouts","geometry_source_url":"https://github.com/IWantPizzaa/France-Ground-Layouts","geometry_license":"GPL-3.0"},"styles":{},"vsmr_groups":[],"features":[]}
