{"type":"FeatureCollection","name":"LFFK AVISO","bbox":[-0.800118889,46.440060833,-0.787555833,46.441366944],"metadata":{"schema":"vSMR AVISO","schema_version":2,"geometry_mode":"shared","airport":"LFFK","coordinate_reference_system":"WGS84","coordinate_order":"longitude, latitude","default_color_palette":"dark","color_palettes":["dark","light"],"background_colors":{"dark":"#434A4F","light":"#434A4F"},"runways":[{"ends":["08R","26L"],"headings":[84,264],"thresholds":[[-0.800071944,46.440060833],[-0.787655833,46.440882778]]},{"ends":["08","26"],"headings":[84,264],"thresholds":[[-0.800118889,46.440527778],[-0.787555833,46.441366944]]}],"saved_active_runways":[],"saved_active_airport_modes":[],"airport_reference":[-0.793888889,46.440832778],"feature_count":2,"style_count":1,"layer_counts":{"Runways":2},"category_counts":{"Runway centerlines":2},"geometry_source":"IWantPizzaa/France-Ground-Layouts","geometry_source_url":"https://github.com/IWantPizzaa/France-Ground-Layouts","geometry_license":"GPL-3.0"},"styles":{"runway.reference":{"name":"Runway centerlines","layer":"Runways","object_type":"Line","paint":{"stroke":"#CCCCCC","stroke-width":2,"stroke-opacity":1},"feature_count":2}},"vsmr_groups":[],"features":[{"type":"Feature","id":"LFFK-90e16ebd03919cf664b0","properties":{"airport":"LFFK","name":"08R/26L","layer":"Runways","category":"Runway centerlines","object_type":"Line","style_id":"runway.reference","source_group":"LFFK Runways","vsmr_group_ids":[],"geometry_role":"runway_centerline"},"geometry":{"type":"LineString","coordinates":[[-0.800071944,46.440060833],[-0.787655833,46.440882778]]}},{"type":"Feature","id":"LFFK-d3e34047f215b46a3327","properties":{"airport":"LFFK","name":"08/26","layer":"Runways","category":"Runway centerlines","object_type":"Line","style_id":"runway.reference","source_group":"LFFK Runways","vsmr_group_ids":[],"geometry_role":"runway_centerline"},"geometry":{"type":"LineString","coordinates":[[-0.800118889,46.440527778],[-0.787555833,46.441366944]]}}]}
