{"type":"FeatureCollection","name":"LFFL AVISO","bbox":[1.630135833,48.513152778,1.640310833,48.521124722],"metadata":{"schema":"vSMR AVISO","schema_version":2,"geometry_mode":"shared","airport":"LFFL","coordinate_reference_system":"WGS84","coordinate_order":"longitude, latitude","default_color_palette":"dark","color_palettes":["dark","light"],"background_colors":{"dark":"#434A4F","light":"#434A4F"},"runways":[{"ends":["18","36"],"headings":[181,1],"thresholds":[[1.638916944,48.521124722],[1.638627778,48.514099722]]},{"ends":["07","25"],"headings":[73,253],"thresholds":[[1.630135833,48.513152778],[1.640310833,48.515052778]]}],"saved_active_runways":[],"saved_active_airport_modes":[],"airport_reference":[1.638610833,48.514721944],"feature_count":2,"style_count":1,"layer_counts":{"Runways":2},"category_counts":{"Runway centerlines":2},"geometry_source":"IWantPizzaa/France-Ground-Layouts","geometry_source_url":"https://github.com/IWantPizzaa/France-Ground-Layouts","geometry_license":"GPL-3.0"},"styles":{"runway.reference":{"name":"Runway centerlines","layer":"Runways","object_type":"Line","paint":{"stroke":"#CCCCCC","stroke-width":2,"stroke-opacity":1},"feature_count":2}},"vsmr_groups":[],"features":[{"type":"Feature","id":"LFFL-a007c9a328c69be4fe29","properties":{"airport":"LFFL","name":"18/36","layer":"Runways","category":"Runway centerlines","object_type":"Line","style_id":"runway.reference","source_group":"LFFL Runways","vsmr_group_ids":[],"geometry_role":"runway_centerline"},"geometry":{"type":"LineString","coordinates":[[1.638916944,48.521124722],[1.638627778,48.514099722]]}},{"type":"Feature","id":"LFFL-4b4455978a1ff546ff15","properties":{"airport":"LFFL","name":"07/25","layer":"Runways","category":"Runway centerlines","object_type":"Line","style_id":"runway.reference","source_group":"LFFL Runways","vsmr_group_ids":[],"geometry_role":"runway_centerline"},"geometry":{"type":"LineString","coordinates":[[1.630135833,48.513152778],[1.640310833,48.515052778]]}}]}
