{"type":"FeatureCollection","name":"LFFN AVISO","bbox":[4.465385833,48.429630833,4.482793889,48.431466944],"metadata":{"schema":"vSMR AVISO","schema_version":2,"geometry_mode":"shared","airport":"LFFN","coordinate_reference_system":"WGS84","coordinate_order":"longitude, latitude","default_color_palette":"dark","color_palettes":["dark","light"],"background_colors":{"dark":"#434A4F","light":"#434A4F"},"runways":[{"ends":["10R","28L"],"headings":[97,277],"thresholds":[[4.465732778,48.430957778],[4.475624722,48.429913889]]},{"ends":["10","28"],"headings":[97,277],"thresholds":[[4.465385833,48.431466944],[4.482793889,48.429630833]]}],"saved_active_runways":[],"saved_active_airport_modes":[],"airport_reference":[4.482221944,48.429721944],"feature_count":2,"style_count":1,"layer_counts":{"Runways":2},"category_counts":{"Runway centerlines":2},"geometry_source":"IWantPizzaa/France-Ground-Layouts","geometry_source_url":"https://github.com/IWantPizzaa/France-Ground-Layouts","geometry_license":"GPL-3.0"},"styles":{"runway.reference":{"name":"Runway centerlines","layer":"Runways","object_type":"Line","paint":{"stroke":"#CCCCCC","stroke-width":2,"stroke-opacity":1},"feature_count":2}},"vsmr_groups":[],"features":[{"type":"Feature","id":"LFFN-15c3e25455a546e6013a","properties":{"airport":"LFFN","name":"10R/28L","layer":"Runways","category":"Runway centerlines","object_type":"Line","style_id":"runway.reference","source_group":"LFFN Runways","vsmr_group_ids":[],"geometry_role":"runway_centerline"},"geometry":{"type":"LineString","coordinates":[[4.465732778,48.430957778],[4.475624722,48.429913889]]}},{"type":"Feature","id":"LFFN-a2560ae11f5eb8149aa9","properties":{"airport":"LFFN","name":"10/28","layer":"Runways","category":"Runway centerlines","object_type":"Line","style_id":"runway.reference","source_group":"LFFN Runways","vsmr_group_ids":[],"geometry_role":"runway_centerline"},"geometry":{"type":"LineString","coordinates":[[4.465385833,48.431466944],[4.482793889,48.429630833]]}}]}
