{"type":"FeatureCollection","name":"LFFT AVISO","bbox":[5.718827778,48.356507778,5.720627778,48.362724722],"metadata":{"schema":"vSMR AVISO","schema_version":2,"geometry_mode":"shared","airport":"LFFT","coordinate_reference_system":"WGS84","coordinate_order":"longitude, latitude","default_color_palette":"dark","color_palettes":["dark","light"],"background_colors":{"dark":"#434A4F","light":"#434A4F"},"runways":[{"ends":["01","19"],"headings":[9,189],"thresholds":[[5.718827778,48.356507778],[5.720627778,48.362724722]]}],"saved_active_runways":[],"saved_active_airport_modes":[],"airport_reference":[5.720277778,48.361666944],"feature_count":0,"style_count":0,"layer_counts":{},"category_counts":{},"geometry_source":"IWantPizzaa/France-Ground-Layouts","geometry_source_url":"https://github.com/IWantPizzaa/France-Ground-Layouts","geometry_license":"GPL-3.0"},"styles":{},"vsmr_groups":[],"features":[]}
