{"type":"FeatureCollection","name":"LFFW AVISO","bbox":[-1.332149722,46.930455833,-1.323110833,46.933152778],"metadata":{"schema":"vSMR AVISO","schema_version":2,"geometry_mode":"shared","airport":"LFFW","coordinate_reference_system":"WGS84","coordinate_order":"longitude, latitude","default_color_palette":"dark","color_palettes":["dark","light"],"background_colors":{"dark":"#434A4F","light":"#434A4F"},"runways":[{"ends":["07","25"],"headings":[66,246],"thresholds":[[-1.332149722,46.930455833],[-1.323110833,46.933152778]]}],"saved_active_runways":[],"saved_active_airport_modes":[],"airport_reference":[-1.327221944,46.932221944],"feature_count":0,"style_count":0,"layer_counts":{},"category_counts":{},"geometry_source":"IWantPizzaa/France-Ground-Layouts","geometry_source_url":"https://github.com/IWantPizzaa/France-Ground-Layouts","geometry_license":"GPL-3.0"},"styles":{},"vsmr_groups":[],"features":[]}
