{"type":"FeatureCollection","name":"LFFX AVISO","bbox":[4.974807778,46.559557778,4.976577778,46.565546944],"metadata":{"schema":"vSMR AVISO","schema_version":2,"geometry_mode":"shared","airport":"LFFX","coordinate_reference_system":"WGS84","coordinate_order":"longitude, latitude","default_color_palette":"dark","color_palettes":["dark","light"],"background_colors":{"dark":"#434A4F","light":"#434A4F"},"runways":[{"ends":["01","19"],"headings":[9,189],"thresholds":[[4.974807778,46.559557778],[4.976577778,46.565546944]]}],"saved_active_runways":[],"saved_active_airport_modes":[],"airport_reference":[4.975277778,46.561388889],"feature_count":1,"style_count":1,"layer_counts":{"Runways":1},"category_counts":{"Runway centerlines":1},"geometry_source":"IWantPizzaa/France-Ground-Layouts","geometry_source_url":"https://github.com/IWantPizzaa/France-Ground-Layouts","geometry_license":"GPL-3.0"},"styles":{"runway.reference":{"name":"Runway centerlines","layer":"Runways","object_type":"Line","paint":{"stroke":"#CCCCCC","stroke-width":2,"stroke-opacity":1},"feature_count":1}},"vsmr_groups":[],"features":[{"type":"Feature","id":"LFFX-5510a4640271c3b16dbf","properties":{"airport":"LFFX","name":"01/19","layer":"Runways","category":"Runway centerlines","object_type":"Line","style_id":"runway.reference","source_group":"LFFX Runways","vsmr_group_ids":[],"geometry_role":"runway_centerline"},"geometry":{"type":"LineString","coordinates":[[4.974807778,46.559557778],[4.976577778,46.565546944]]}}]}
