{"type":"FeatureCollection","name":"LFFY AVISO","bbox":[1.634988889,49.304555833,1.640255833,49.306177778],"metadata":{"schema":"vSMR AVISO","schema_version":2,"geometry_mode":"shared","airport":"LFFY","coordinate_reference_system":"WGS84","coordinate_order":"longitude, latitude","default_color_palette":"dark","color_palettes":["dark","light"],"background_colors":{"dark":"#434A4F","light":"#434A4F"},"runways":[{"ends":["11","29"],"headings":[114,294],"thresholds":[[1.634988889,49.306177778],[1.640255833,49.304555833]]}],"saved_active_runways":[],"saved_active_airport_modes":[],"airport_reference":[1.637777778,49.305277778],"feature_count":1,"style_count":1,"layer_counts":{"Runways":1},"category_counts":{"Runway centerlines":1},"geometry_source":"IWantPizzaa/France-Ground-Layouts","geometry_source_url":"https://github.com/IWantPizzaa/France-Ground-Layouts","geometry_license":"GPL-3.0"},"styles":{"runway.reference":{"name":"Runway centerlines","layer":"Runways","object_type":"Line","paint":{"stroke":"#CCCCCC","stroke-width":2,"stroke-opacity":1},"feature_count":1}},"vsmr_groups":[],"features":[{"type":"Feature","id":"LFFY-66c25da2f62412c93679","properties":{"airport":"LFFY","name":"11/29","layer":"Runways","category":"Runway centerlines","object_type":"Line","style_id":"runway.reference","source_group":"LFFY Runways","vsmr_group_ids":[],"geometry_role":"runway_centerline"},"geometry":{"type":"LineString","coordinates":[[1.634988889,49.306177778],[1.640255833,49.304555833]]}}]}
