{"type":"FeatureCollection","name":"LFFZ AVISO","bbox":[3.759391944,48.707746944,3.767730833,48.711343889],"metadata":{"schema":"vSMR AVISO","schema_version":2,"geometry_mode":"shared","airport":"LFFZ","coordinate_reference_system":"WGS84","coordinate_order":"longitude, latitude","default_color_palette":"dark","color_palettes":["dark","light"],"background_colors":{"dark":"#434A4F","light":"#434A4F"},"runways":[{"ends":["06R","24L"],"headings":[57,237],"thresholds":[[3.759857778,48.707746944],[3.767730833,48.710991944]]},{"ends":["06L","24R"],"headings":[57,237],"thresholds":[[3.759391944,48.708241944],[3.766916944,48.711343889]]}],"saved_active_runways":[],"saved_active_airport_modes":[],"airport_reference":[3.762777778,48.709443889],"feature_count":2,"style_count":1,"layer_counts":{"Runways":2},"category_counts":{"Runway centerlines":2},"geometry_source":"IWantPizzaa/France-Ground-Layouts","geometry_source_url":"https://github.com/IWantPizzaa/France-Ground-Layouts","geometry_license":"GPL-3.0"},"styles":{"runway.reference":{"name":"Runway centerlines","layer":"Runways","object_type":"Line","paint":{"stroke":"#CCCCCC","stroke-width":2,"stroke-opacity":1},"feature_count":2}},"vsmr_groups":[],"features":[{"type":"Feature","id":"LFFZ-80717fa31ef586fb28e6","properties":{"airport":"LFFZ","name":"06R/24L","layer":"Runways","category":"Runway centerlines","object_type":"Line","style_id":"runway.reference","source_group":"LFFZ Runways","vsmr_group_ids":[],"geometry_role":"runway_centerline"},"geometry":{"type":"LineString","coordinates":[[3.759857778,48.707746944],[3.767730833,48.710991944]]}},{"type":"Feature","id":"LFFZ-57ffeea31e5bbd0bfe0d","properties":{"airport":"LFFZ","name":"06L/24R","layer":"Runways","category":"Runway centerlines","object_type":"Line","style_id":"runway.reference","source_group":"LFFZ Runways","vsmr_group_ids":[],"geometry_role":"runway_centerline"},"geometry":{"type":"LineString","coordinates":[[3.759391944,48.708241944],[3.766916944,48.711343889]]}}]}
