{"type":"FeatureCollection","name":"LFGB AVISO","bbox":[7.427613889,47.736810833,7.435502778,47.744882778],"metadata":{"schema":"vSMR AVISO","schema_version":2,"geometry_mode":"shared","airport":"LFGB","coordinate_reference_system":"WGS84","coordinate_order":"longitude, latitude","default_color_palette":"dark","color_palettes":["dark","light"],"background_colors":{"dark":"#434A4F","light":"#434A4F"},"runways":[{"ends":["16","34"],"headings":[159,339],"thresholds":[[7.427613889,47.743921944],[7.429674722,47.739646944]]},{"ends":["02R","20L"],"headings":[19,199],"thresholds":[[7.430630833,47.736810833],[7.435502778,47.744871944]]},{"ends":["02","20"],"headings":[19,199],"thresholds":[[7.429693889,47.737175],[7.434355833,47.744882778]]}],"saved_active_runways":[],"saved_active_airport_modes":[],"airport_reference":[7.429721944,47.737221944],"feature_count":3,"style_count":1,"layer_counts":{"Runways":3},"category_counts":{"Runway centerlines":3},"geometry_source":"IWantPizzaa/France-Ground-Layouts","geometry_source_url":"https://github.com/IWantPizzaa/France-Ground-Layouts","geometry_license":"GPL-3.0"},"styles":{"runway.reference":{"name":"Runway centerlines","layer":"Runways","object_type":"Line","paint":{"stroke":"#CCCCCC","stroke-width":2,"stroke-opacity":1},"feature_count":3}},"vsmr_groups":[],"features":[{"type":"Feature","id":"LFGB-bcfdd29e941bc9777bba","properties":{"airport":"LFGB","name":"16/34","layer":"Runways","category":"Runway centerlines","object_type":"Line","style_id":"runway.reference","source_group":"LFGB Runways","vsmr_group_ids":[],"geometry_role":"runway_centerline"},"geometry":{"type":"LineString","coordinates":[[7.427613889,47.743921944],[7.429674722,47.739646944]]}},{"type":"Feature","id":"LFGB-2d7da8e89d8b8f87fbc0","properties":{"airport":"LFGB","name":"02R/20L","layer":"Runways","category":"Runway centerlines","object_type":"Line","style_id":"runway.reference","source_group":"LFGB Runways","vsmr_group_ids":[],"geometry_role":"runway_centerline"},"geometry":{"type":"LineString","coordinates":[[7.430630833,47.736810833],[7.435502778,47.744871944]]}},{"type":"Feature","id":"LFGB-2523263c2fc2d688e78d","properties":{"airport":"LFGB","name":"02/20","layer":"Runways","category":"Runway centerlines","object_type":"Line","style_id":"runway.reference","source_group":"LFGB Runways","vsmr_group_ids":[],"geometry_role":"runway_centerline"},"geometry":{"type":"LineString","coordinates":[[7.429693889,47.737175],[7.434355833,47.744882778]]}}]}
