{"type":"FeatureCollection","name":"LFHA AVISO","bbox":[3.266316944,45.510780833,3.266907778,45.517196944],"metadata":{"schema":"vSMR AVISO","schema_version":2,"geometry_mode":"shared","airport":"LFHA","coordinate_reference_system":"WGS84","coordinate_order":"longitude, latitude","default_color_palette":"dark","color_palettes":["dark","light"],"background_colors":{"dark":"#434A4F","light":"#434A4F"},"runways":[{"ends":["18","36"],"headings":[175,355],"thresholds":[[3.266316944,45.517196944],[3.266907778,45.510780833]]}],"saved_active_runways":[],"saved_active_airport_modes":[],"airport_reference":[3.266110833,45.513888889],"feature_count":1,"style_count":1,"layer_counts":{"Runways":1},"category_counts":{"Runway centerlines":1},"geometry_source":"IWantPizzaa/France-Ground-Layouts","geometry_source_url":"https://github.com/IWantPizzaa/France-Ground-Layouts","geometry_license":"GPL-3.0"},"styles":{"runway.reference":{"name":"Runway centerlines","layer":"Runways","object_type":"Line","paint":{"stroke":"#CCCCCC","stroke-width":2,"stroke-opacity":1},"feature_count":1}},"vsmr_groups":[],"features":[{"type":"Feature","id":"LFHA-f84f6cdf031f55851af6","properties":{"airport":"LFHA","name":"18/36","layer":"Runways","category":"Runway centerlines","object_type":"Line","style_id":"runway.reference","source_group":"LFHA Runways","vsmr_group_ids":[],"geometry_role":"runway_centerline"},"geometry":{"type":"LineString","coordinates":[[3.266316944,45.517196944],[3.266907778,45.510780833]]}}]}
