{"type":"FeatureCollection","name":"LFHD AVISO","bbox":[4.716493889,44.393225,4.719196944,44.403305833],"metadata":{"schema":"vSMR AVISO","schema_version":2,"geometry_mode":"shared","airport":"LFHD","coordinate_reference_system":"WGS84","coordinate_order":"longitude, latitude","default_color_palette":"dark","color_palettes":["dark","light"],"background_colors":{"dark":"#434A4F","light":"#434A4F"},"runways":[{"ends":["18R","36L"],"headings":[181,1],"thresholds":[[4.717318889,44.403305833],[4.716493889,44.393225]]},{"ends":["18L","36R"],"headings":[181,1],"thresholds":[[4.719196944,44.403216944],[4.718527778,44.395127778]]}],"saved_active_runways":[],"saved_active_airport_modes":[],"airport_reference":[4.716943889,44.397777778],"feature_count":0,"style_count":0,"layer_counts":{},"category_counts":{},"geometry_source":"IWantPizzaa/France-Ground-Layouts","geometry_source_url":"https://github.com/IWantPizzaa/France-Ground-Layouts","geometry_license":"GPL-3.0"},"styles":{},"vsmr_groups":[],"features":[]}
