{"type":"FeatureCollection","name":"LFHE AVISO","bbox":[5.095610833,45.061313889,5.103302778,45.065518889],"metadata":{"schema":"vSMR AVISO","schema_version":2,"geometry_mode":"shared","airport":"LFHE","coordinate_reference_system":"WGS84","coordinate_order":"longitude, latitude","default_color_palette":"dark","color_palettes":["dark","light"],"background_colors":{"dark":"#434A4F","light":"#434A4F"},"runways":[{"ends":["06","24"],"headings":[60,240],"thresholds":[[5.095610833,45.062560833],[5.103302778,45.065418889]]},{"ends":["02","20"],"headings":[19,199],"thresholds":[[5.099596944,45.061313889],[5.101916944,45.065518889]]}],"saved_active_runways":[],"saved_active_airport_modes":[],"airport_reference":[5.101388889,45.064721944],"feature_count":0,"style_count":0,"layer_counts":{},"category_counts":{},"geometry_source":"IWantPizzaa/France-Ground-Layouts","geometry_source_url":"https://github.com/IWantPizzaa/France-Ground-Layouts","geometry_license":"GPL-3.0"},"styles":{},"vsmr_groups":[],"features":[]}
