{"type":"FeatureCollection","name":"LFHH AVISO","bbox":[4.827282778,45.460971944,4.828610833,45.46555],"metadata":{"schema":"vSMR AVISO","schema_version":2,"geometry_mode":"shared","airport":"LFHH","coordinate_reference_system":"WGS84","coordinate_order":"longitude, latitude","default_color_palette":"dark","color_palettes":["dark","light"],"background_colors":{"dark":"#434A4F","light":"#434A4F"},"runways":[{"ends":["01","19"],"headings":[9,189],"thresholds":[[4.827282778,45.460971944],[4.828610833,45.46555]]}],"saved_active_runways":[],"saved_active_airport_modes":[],"airport_reference":[4.827777778,45.462777778],"feature_count":1,"style_count":1,"layer_counts":{"Runways":1},"category_counts":{"Runway centerlines":1},"geometry_source":"IWantPizzaa/France-Ground-Layouts","geometry_source_url":"https://github.com/IWantPizzaa/France-Ground-Layouts","geometry_license":"GPL-3.0"},"styles":{"runway.reference":{"name":"Runway centerlines","layer":"Runways","object_type":"Line","paint":{"stroke":"#CCCCCC","stroke-width":2,"stroke-opacity":1},"feature_count":1}},"vsmr_groups":[],"features":[{"type":"Feature","id":"LFHH-624d986a2c4e012e3d91","properties":{"airport":"LFHH","name":"01/19","layer":"Runways","category":"Runway centerlines","object_type":"Line","style_id":"runway.reference","source_group":"LFHH Runways","vsmr_group_ids":[],"geometry_role":"runway_centerline"},"geometry":{"type":"LineString","coordinates":[[4.827282778,45.460971944],[4.828610833,45.46555]]}}]}
