{"type":"FeatureCollection","name":"LFHJ AVISO","bbox":[4.912835833,45.649110833,4.912868889,45.655427778],"metadata":{"schema":"vSMR AVISO","schema_version":2,"geometry_mode":"shared","airport":"LFHJ","coordinate_reference_system":"WGS84","coordinate_order":"longitude, latitude","default_color_palette":"dark","color_palettes":["dark","light"],"background_colors":{"dark":"#434A4F","light":"#434A4F"},"runways":[{"ends":["18L","36R"],"headings":[178,358],"thresholds":[[4.912868889,45.655427778],[4.912835833,45.649110833]]}],"saved_active_runways":[],"saved_active_airport_modes":[],"airport_reference":[4.912221944,45.652777778],"feature_count":1,"style_count":1,"layer_counts":{"Runways":1},"category_counts":{"Runway centerlines":1},"geometry_source":"IWantPizzaa/France-Ground-Layouts","geometry_source_url":"https://github.com/IWantPizzaa/France-Ground-Layouts","geometry_license":"GPL-3.0"},"styles":{"runway.reference":{"name":"Runway centerlines","layer":"Runways","object_type":"Line","paint":{"stroke":"#CCCCCC","stroke-width":2,"stroke-opacity":1},"feature_count":1}},"vsmr_groups":[],"features":[{"type":"Feature","id":"LFHJ-0c45c24a3c19ce26d899","properties":{"airport":"LFHJ","name":"18L/36R","layer":"Runways","category":"Runway centerlines","object_type":"Line","style_id":"runway.reference","source_group":"LFHJ Runways","vsmr_group_ids":[],"geometry_role":"runway_centerline"},"geometry":{"type":"LineString","coordinates":[[4.912868889,45.655427778],[4.912835833,45.649110833]]}}]}
