{"type":"FeatureCollection","name":"LFHM AVISO","bbox":[6.648421944,45.820016944,6.651413889,45.824471944],"metadata":{"schema":"vSMR AVISO","schema_version":2,"geometry_mode":"shared","airport":"LFHM","coordinate_reference_system":"WGS84","coordinate_order":"longitude, latitude","default_color_palette":"dark","color_palettes":["dark","light"],"background_colors":{"dark":"#434A4F","light":"#434A4F"},"runways":[{"ends":["15","33"],"headings":[153,333],"thresholds":[[6.648421944,45.824471944],[6.651413889,45.820016944]]}],"saved_active_runways":[],"saved_active_airport_modes":[],"airport_reference":[6.648332778,45.824443889],"feature_count":0,"style_count":0,"layer_counts":{},"category_counts":{},"geometry_source":"IWantPizzaa/France-Ground-Layouts","geometry_source_url":"https://github.com/IWantPizzaa/France-Ground-Layouts","geometry_license":"GPL-3.0"},"styles":{},"vsmr_groups":[],"features":[]}
