{"type":"FeatureCollection","name":"LFHO AVISO","bbox":[4.371582778,44.537843889,4.372799722,44.550624722],"metadata":{"schema":"vSMR AVISO","schema_version":2,"geometry_mode":"shared","airport":"LFHO","coordinate_reference_system":"WGS84","coordinate_order":"longitude, latitude","default_color_palette":"dark","color_palettes":["dark","light"],"background_colors":{"dark":"#434A4F","light":"#434A4F"},"runways":[{"ends":["18","36"],"headings":[182,2],"thresholds":[[4.372799722,44.550624722],[4.371582778,44.537843889]]}],"saved_active_runways":[],"saved_active_airport_modes":[],"airport_reference":[4.371666944,44.539443889],"feature_count":0,"style_count":0,"layer_counts":{},"category_counts":{},"geometry_source":"IWantPizzaa/France-Ground-Layouts","geometry_source_url":"https://github.com/IWantPizzaa/France-Ground-Layouts","geometry_license":"GPL-3.0"},"styles":{},"vsmr_groups":[],"features":[]}
