{"type":"FeatureCollection","name":"LFHP AVISO","bbox":[3.756527778,45.074055556,3.769166667,45.086068889],"metadata":{"schema":"vSMR AVISO","schema_version":2,"geometry_mode":"shared","airport":"LFHP","coordinate_reference_system":"WGS84","coordinate_order":"longitude, latitude","default_color_palette":"dark","color_palettes":["dark","light"],"background_colors":{"dark":"#434A4F","light":"#434A4F"},"runways":[{"ends":["15R","33L"],"headings":[149,329],"thresholds":[[3.758930833,45.083674722],[3.763766944,45.077496944]]},{"ends":["15","33"],"headings":[149,329],"thresholds":[[3.758421944,45.086068889],[3.767005833,45.075102778]]}],"saved_active_runways":[],"saved_active_airport_modes":[],"airport_reference":[3.763332778,45.079721944],"feature_count":4,"style_count":3,"layer_counts":{"Guidance lines":2,"Runways":2},"category_counts":{"Grass runways":1,"Runway centerlines":2,"Runways":1},"geometry_source":"IWantPizzaa/France-Ground-Layouts","geometry_source_url":"https://github.com/IWantPizzaa/France-Ground-Layouts","geometry_license":"GPL-3.0"},"styles":{"line.runwayconcrete.555555":{"name":"Runways","layer":"Guidance lines","object_type":"Line","paint":{"stroke":"#111318","stroke-opacity":1,"stroke-width":1,"palette-overrides":{"light":{"stroke":"#555555"}}},"feature_count":1},"line.runwaygrass.008000":{"name":"Grass runways","layer":"Guidance lines","object_type":"Line","paint":{"stroke":"#859A77","stroke-opacity":1,"stroke-width":1,"palette-overrides":{"light":{"stroke":"#008000"}}},"feature_count":1},"runway.reference":{"name":"Runway centerlines","layer":"Runways","object_type":"Line","paint":{"stroke":"#CCCCCC","stroke-width":2,"stroke-opacity":1},"feature_count":2}},"vsmr_groups":[],"features":[{"type":"Feature","id":"LFHP-60f0741370d4482fbd78","properties":{"airport":"LFHP","name":"LFHP Groundlayout Le Puy","layer":"Guidance lines","category":"Runways","object_type":"Line","style_id":"line.runwayconcrete.555555","source_group":"LFHP Groundlayout Le Puy","vsmr_group_ids":[],"geometry_role":"linework"},"geometry":{"type":"MultiLineString","coordinates":[[[3.761055556,45.086027778],[3.769166667,45.075722222]],[[3.757138889,45.084361111],[3.765222222,45.074055556]],[[3.761055556,45.086027778],[3.757138889,45.084361111]],[[3.769166667,45.075722222],[3.765222222,45.074055556]]]}},{"type":"Feature","id":"LFHP-b0880cb6f7a00b81e8c0","properties":{"airport":"LFHP","name":"LFHP Groundlayout Le Puy","layer":"Guidance lines","category":"Grass runways","object_type":"Line","style_id":"line.runwaygrass.008000","source_group":"LFHP Groundlayout Le Puy","vsmr_group_ids":[],"geometry_role":"linework"},"geometry":{"type":"MultiLineString","coordinates":[[[3.760472222,45.084638889],[3.764777778,45.079138889]],[[3.756527778,45.082972222],[3.760833333,45.077472222]],[[3.760472222,45.084638889],[3.756527778,45.082972222]],[[3.764777778,45.079138889],[3.760833333,45.077472222]]]}},{"type":"Feature","id":"LFHP-a84f5953c98410bd8f95","properties":{"airport":"LFHP","name":"15R/33L","layer":"Runways","category":"Runway centerlines","object_type":"Line","style_id":"runway.reference","source_group":"LFHP Runways","vsmr_group_ids":[],"geometry_role":"runway_centerline"},"geometry":{"type":"LineString","coordinates":[[3.758930833,45.083674722],[3.763766944,45.077496944]]}},{"type":"Feature","id":"LFHP-1fe957d7c7f5439f1ab1","properties":{"airport":"LFHP","name":"15/33","layer":"Runways","category":"Runway centerlines","object_type":"Line","style_id":"runway.reference","source_group":"LFHP Runways","vsmr_group_ids":[],"geometry_role":"runway_centerline"},"geometry":{"type":"LineString","coordinates":[[3.758421944,45.086068889],[3.767005833,45.075102778]]}}]}
