{"type":"FeatureCollection","name":"LFHQ AVISO","bbox":[2.991491944,45.069852778,2.994127778,45.081518889],"metadata":{"schema":"vSMR AVISO","schema_version":2,"geometry_mode":"shared","airport":"LFHQ","coordinate_reference_system":"WGS84","coordinate_order":"longitude, latitude","default_color_palette":"dark","color_palettes":["dark","light"],"background_colors":{"dark":"#434A4F","light":"#434A4F"},"runways":[{"ends":["01","19"],"headings":[7,187],"thresholds":[[2.991491944,45.069852778],[2.994127778,45.081518889]]}],"saved_active_runways":[],"saved_active_airport_modes":[],"airport_reference":[2.9925,45.075],"feature_count":0,"style_count":0,"layer_counts":{},"category_counts":{},"geometry_source":"IWantPizzaa/France-Ground-Layouts","geometry_source_url":"https://github.com/IWantPizzaa/France-Ground-Layouts","geometry_license":"GPL-3.0"},"styles":{},"vsmr_groups":[],"features":[]}
