{"type":"FeatureCollection","name":"LFHR AVISO","bbox":[3.358196944,45.317666944,3.363291944,45.323966944],"metadata":{"schema":"vSMR AVISO","schema_version":2,"geometry_mode":"shared","airport":"LFHR","coordinate_reference_system":"WGS84","coordinate_order":"longitude, latitude","default_color_palette":"dark","color_palettes":["dark","light"],"background_colors":{"dark":"#434A4F","light":"#434A4F"},"runways":[{"ends":["15R","33L"],"headings":[152,332],"thresholds":[[3.358196944,45.323966944],[3.362760833,45.317666944]]},{"ends":["15L","33R"],"headings":[152,332],"thresholds":[[3.359321944,45.323685833],[3.363291944,45.318205833]]}],"saved_active_runways":[],"saved_active_airport_modes":[],"airport_reference":[3.358332778,45.323888889],"feature_count":2,"style_count":1,"layer_counts":{"Runways":2},"category_counts":{"Runway centerlines":2},"geometry_source":"IWantPizzaa/France-Ground-Layouts","geometry_source_url":"https://github.com/IWantPizzaa/France-Ground-Layouts","geometry_license":"GPL-3.0"},"styles":{"runway.reference":{"name":"Runway centerlines","layer":"Runways","object_type":"Line","paint":{"stroke":"#CCCCCC","stroke-width":2,"stroke-opacity":1},"feature_count":2}},"vsmr_groups":[],"features":[{"type":"Feature","id":"LFHR-d6dc3f95f46c0808fa99","properties":{"airport":"LFHR","name":"15R/33L","layer":"Runways","category":"Runway centerlines","object_type":"Line","style_id":"runway.reference","source_group":"LFHR Runways","vsmr_group_ids":[],"geometry_role":"runway_centerline"},"geometry":{"type":"LineString","coordinates":[[3.358196944,45.323966944],[3.362760833,45.317666944]]}},{"type":"Feature","id":"LFHR-4775f8f73d81d3b3d473","properties":{"airport":"LFHR","name":"15L/33R","layer":"Runways","category":"Runway centerlines","object_type":"Line","style_id":"runway.reference","source_group":"LFHR Runways","vsmr_group_ids":[],"geometry_role":"runway_centerline"},"geometry":{"type":"LineString","coordinates":[[3.359321944,45.323685833],[3.363291944,45.318205833]]}}]}
