{"type":"FeatureCollection","name":"LFHV AVISO","bbox":[4.634818889,45.914307778,4.635796944,45.922377778],"metadata":{"schema":"vSMR AVISO","schema_version":2,"geometry_mode":"shared","airport":"LFHV","coordinate_reference_system":"WGS84","coordinate_order":"longitude, latitude","default_color_palette":"dark","color_palettes":["dark","light"],"background_colors":{"dark":"#434A4F","light":"#434A4F"},"runways":[{"ends":["18L","36R"],"headings":[179,359],"thresholds":[[4.635796944,45.922360833],[4.635643889,45.914441944]]},{"ends":["18","36"],"headings":[179,359],"thresholds":[[4.634980833,45.922377778],[4.634818889,45.914307778]]}],"saved_active_runways":[],"saved_active_airport_modes":[],"airport_reference":[4.634999722,45.92],"feature_count":2,"style_count":1,"layer_counts":{"Runways":2},"category_counts":{"Runway centerlines":2},"geometry_source":"IWantPizzaa/France-Ground-Layouts","geometry_source_url":"https://github.com/IWantPizzaa/France-Ground-Layouts","geometry_license":"GPL-3.0"},"styles":{"runway.reference":{"name":"Runway centerlines","layer":"Runways","object_type":"Line","paint":{"stroke":"#CCCCCC","stroke-width":2,"stroke-opacity":1},"feature_count":2}},"vsmr_groups":[],"features":[{"type":"Feature","id":"LFHV-594296aadb218c3d883a","properties":{"airport":"LFHV","name":"18L/36R","layer":"Runways","category":"Runway centerlines","object_type":"Line","style_id":"runway.reference","source_group":"LFHV Runways","vsmr_group_ids":[],"geometry_role":"runway_centerline"},"geometry":{"type":"LineString","coordinates":[[4.635796944,45.922360833],[4.635643889,45.914441944]]}},{"type":"Feature","id":"LFHV-bd50e5b8caaca1839616","properties":{"airport":"LFHV","name":"18/36","layer":"Runways","category":"Runway centerlines","object_type":"Line","style_id":"runway.reference","source_group":"LFHV Runways","vsmr_group_ids":[],"geometry_role":"runway_centerline"},"geometry":{"type":"LineString","coordinates":[[4.634980833,45.922377778],[4.634818889,45.914307778]]}}]}
