{"type":"FeatureCollection","name":"LFHW AVISO","bbox":[4.712971944,46.138880833,4.714738889,46.143275],"metadata":{"schema":"vSMR AVISO","schema_version":2,"geometry_mode":"shared","airport":"LFHW","coordinate_reference_system":"WGS84","coordinate_order":"longitude, latitude","default_color_palette":"dark","color_palettes":["dark","light"],"background_colors":{"dark":"#434A4F","light":"#434A4F"},"runways":[{"ends":["16","34"],"headings":[163,343],"thresholds":[[4.712971944,46.143275],[4.714738889,46.138880833]]}],"saved_active_runways":[],"saved_active_airport_modes":[],"airport_reference":[4.713888889,46.141110833],"feature_count":1,"style_count":1,"layer_counts":{"Runways":1},"category_counts":{"Runway centerlines":1},"geometry_source":"IWantPizzaa/France-Ground-Layouts","geometry_source_url":"https://github.com/IWantPizzaa/France-Ground-Layouts","geometry_license":"GPL-3.0"},"styles":{"runway.reference":{"name":"Runway centerlines","layer":"Runways","object_type":"Line","paint":{"stroke":"#CCCCCC","stroke-width":2,"stroke-opacity":1},"feature_count":1}},"vsmr_groups":[],"features":[{"type":"Feature","id":"LFHW-d4a8ecb93a78d8ad7101","properties":{"airport":"LFHW","name":"16/34","layer":"Runways","category":"Runway centerlines","object_type":"Line","style_id":"runway.reference","source_group":"LFHW Runways","vsmr_group_ids":[],"geometry_role":"runway_centerline"},"geometry":{"type":"LineString","coordinates":[[4.712971944,46.143275],[4.714738889,46.138880833]]}}]}
