{"type":"FeatureCollection","name":"LFIF AVISO","bbox":[2.738043889,43.822035833,2.749485833,43.826968889],"metadata":{"schema":"vSMR AVISO","schema_version":2,"geometry_mode":"shared","airport":"LFIF","coordinate_reference_system":"WGS84","coordinate_order":"longitude, latitude","default_color_palette":"dark","color_palettes":["dark","light"],"background_colors":{"dark":"#434A4F","light":"#434A4F"},"runways":[{"ends":["12R","30L"],"headings":[117,297],"thresholds":[[2.741007778,43.825280833],[2.749185833,43.822035833]]},{"ends":["12","30"],"headings":[117,297],"thresholds":[[2.738043889,43.826968889],[2.749485833,43.822427778]]}],"saved_active_runways":[],"saved_active_airport_modes":[],"airport_reference":[2.747221944,43.822777778],"feature_count":2,"style_count":1,"layer_counts":{"Runways":2},"category_counts":{"Runway centerlines":2},"geometry_source":"IWantPizzaa/France-Ground-Layouts","geometry_source_url":"https://github.com/IWantPizzaa/France-Ground-Layouts","geometry_license":"GPL-3.0"},"styles":{"runway.reference":{"name":"Runway centerlines","layer":"Runways","object_type":"Line","paint":{"stroke":"#CCCCCC","stroke-width":2,"stroke-opacity":1},"feature_count":2}},"vsmr_groups":[],"features":[{"type":"Feature","id":"LFIF-8ac85243bb4626f753d8","properties":{"airport":"LFIF","name":"12R/30L","layer":"Runways","category":"Runway centerlines","object_type":"Line","style_id":"runway.reference","source_group":"LFIF Runways","vsmr_group_ids":[],"geometry_role":"runway_centerline"},"geometry":{"type":"LineString","coordinates":[[2.741007778,43.825280833],[2.749185833,43.822035833]]}},{"type":"Feature","id":"LFIF-4d6fdd82ffc2517bfa51","properties":{"airport":"LFIF","name":"12/30","layer":"Runways","category":"Runway centerlines","object_type":"Line","style_id":"runway.reference","source_group":"LFIF Runways","vsmr_group_ids":[],"geometry_role":"runway_centerline"},"geometry":{"type":"LineString","coordinates":[[2.738043889,43.826968889],[2.749485833,43.822427778]]}}]}
