{"type":"FeatureCollection","name":"LFIP AVISO","bbox":[0.433918889,42.796593889,0.439493889,42.796885833],"metadata":{"schema":"vSMR AVISO","schema_version":2,"geometry_mode":"shared","airport":"LFIP","coordinate_reference_system":"WGS84","coordinate_order":"longitude, latitude","default_color_palette":"dark","color_palettes":["dark","light"],"background_colors":{"dark":"#434A4F","light":"#434A4F"},"runways":[{"ends":["09","27"],"headings":[93,273],"thresholds":[[0.433918889,42.796885833],[0.439493889,42.796593889]]}],"saved_active_runways":[],"saved_active_airport_modes":[],"airport_reference":[0.433888889,42.796943889],"feature_count":0,"style_count":0,"layer_counts":{},"category_counts":{},"geometry_source":"IWantPizzaa/France-Ground-Layouts","geometry_source_url":"https://github.com/IWantPizzaa/France-Ground-Layouts","geometry_license":"GPL-3.0"},"styles":{},"vsmr_groups":[],"features":[]}
