{"type":"FeatureCollection","name":"LFIS AVISO","bbox":[1.733877778,50.880232778,1.738138889,50.884932778],"metadata":{"schema":"vSMR AVISO","schema_version":2,"geometry_mode":"shared","airport":"LFIS","coordinate_reference_system":"WGS84","coordinate_order":"longitude, latitude","default_color_palette":"dark","color_palettes":["dark","light"],"background_colors":{"dark":"#434A4F","light":"#434A4F"},"runways":[{"ends":["03","21"],"headings":[29,209],"thresholds":[[1.733877778,50.880232778],[1.738138889,50.884932778]]}],"saved_active_runways":[],"saved_active_airport_modes":[],"airport_reference":[1.734721944,50.881666944],"feature_count":1,"style_count":1,"layer_counts":{"Runways":1},"category_counts":{"Runway centerlines":1},"geometry_source":"IWantPizzaa/France-Ground-Layouts","geometry_source_url":"https://github.com/IWantPizzaa/France-Ground-Layouts","geometry_license":"GPL-3.0"},"styles":{"runway.reference":{"name":"Runway centerlines","layer":"Runways","object_type":"Line","paint":{"stroke":"#CCCCCC","stroke-width":2,"stroke-opacity":1},"feature_count":1}},"vsmr_groups":[],"features":[{"type":"Feature","id":"LFIS-c67d72394f2493f10672","properties":{"airport":"LFIS","name":"03/21","layer":"Runways","category":"Runway centerlines","object_type":"Line","style_id":"runway.reference","source_group":"LFIS Runways","vsmr_group_ids":[],"geometry_role":"runway_centerline"},"geometry":{"type":"LineString","coordinates":[[1.733877778,50.880232778],[1.738138889,50.884932778]]}}]}
