{"type":"FeatureCollection","name":"LFIT AVISO","bbox":[1.720355833,43.607902778,1.733360833,43.613221944],"metadata":{"schema":"vSMR AVISO","schema_version":2,"geometry_mode":"shared","airport":"LFIT","coordinate_reference_system":"WGS84","coordinate_order":"longitude, latitude","default_color_palette":"dark","color_palettes":["dark","light"],"background_colors":{"dark":"#434A4F","light":"#434A4F"},"runways":[{"ends":["12R","30L"],"headings":[119,299],"thresholds":[[1.720355833,43.612793889],[1.727913889,43.609630833]]},{"ends":["12L","30R"],"headings":[119,299],"thresholds":[[1.720674722,43.613221944],[1.733360833,43.607902778]]}],"saved_active_runways":[],"saved_active_airport_modes":[],"airport_reference":[1.724166944,43.611110833],"feature_count":2,"style_count":1,"layer_counts":{"Runways":2},"category_counts":{"Runway centerlines":2},"geometry_source":"IWantPizzaa/France-Ground-Layouts","geometry_source_url":"https://github.com/IWantPizzaa/France-Ground-Layouts","geometry_license":"GPL-3.0"},"styles":{"runway.reference":{"name":"Runway centerlines","layer":"Runways","object_type":"Line","paint":{"stroke":"#CCCCCC","stroke-width":2,"stroke-opacity":1},"feature_count":2}},"vsmr_groups":[],"features":[{"type":"Feature","id":"LFIT-aeb63d377cca5be1915d","properties":{"airport":"LFIT","name":"12R/30L","layer":"Runways","category":"Runway centerlines","object_type":"Line","style_id":"runway.reference","source_group":"LFIT Runways","vsmr_group_ids":[],"geometry_role":"runway_centerline"},"geometry":{"type":"LineString","coordinates":[[1.720355833,43.612793889],[1.727913889,43.609630833]]}},{"type":"Feature","id":"LFIT-68190953a787c9033a4e","properties":{"airport":"LFIT","name":"12L/30R","layer":"Runways","category":"Runway centerlines","object_type":"Line","style_id":"runway.reference","source_group":"LFIT Runways","vsmr_group_ids":[],"geometry_role":"runway_centerline"},"geometry":{"type":"LineString","coordinates":[[1.720674722,43.613221944],[1.733360833,43.607902778]]}}]}
