{"type":"FeatureCollection","name":"LFIY AVISO","bbox":[-0.529077778,45.964725,-0.519688889,45.965682778],"metadata":{"schema":"vSMR AVISO","schema_version":2,"geometry_mode":"shared","airport":"LFIY","coordinate_reference_system":"WGS84","coordinate_order":"longitude, latitude","default_color_palette":"dark","color_palettes":["dark","light"],"background_colors":{"dark":"#434A4F","light":"#434A4F"},"runways":[{"ends":["10","28"],"headings":[97,277],"thresholds":[[-0.529077778,45.965682778],[-0.519688889,45.964725]]}],"saved_active_runways":[],"saved_active_airport_modes":[],"airport_reference":[-0.524443889,45.965277778],"feature_count":1,"style_count":1,"layer_counts":{"Runways":1},"category_counts":{"Runway centerlines":1},"geometry_source":"IWantPizzaa/France-Ground-Layouts","geometry_source_url":"https://github.com/IWantPizzaa/France-Ground-Layouts","geometry_license":"GPL-3.0"},"styles":{"runway.reference":{"name":"Runway centerlines","layer":"Runways","object_type":"Line","paint":{"stroke":"#CCCCCC","stroke-width":2,"stroke-opacity":1},"feature_count":1}},"vsmr_groups":[],"features":[{"type":"Feature","id":"LFIY-b51105ee2f21f9eb1382","properties":{"airport":"LFIY","name":"10/28","layer":"Runways","category":"Runway centerlines","object_type":"Line","style_id":"runway.reference","source_group":"LFIY Runways","vsmr_group_ids":[],"geometry_role":"runway_centerline"},"geometry":{"type":"LineString","coordinates":[[-0.529077778,45.965682778],[-0.519688889,45.964725]]}}]}
