{"type":"FeatureCollection","name":"LFJB AVISO","bbox":[-0.702402778,46.898218889,-0.692563889,46.907768889],"metadata":{"schema":"vSMR AVISO","schema_version":2,"geometry_mode":"shared","airport":"LFJB","coordinate_reference_system":"WGS84","coordinate_order":"longitude, latitude","default_color_palette":"dark","color_palettes":["dark","light"],"background_colors":{"dark":"#434A4F","light":"#434A4F"},"runways":[{"ends":["04","22"],"headings":[35,215],"thresholds":[[-0.702402778,46.898218889],[-0.692563889,46.907768889]]}],"saved_active_runways":[],"saved_active_airport_modes":[],"airport_reference":[-0.6975,46.903055833],"feature_count":0,"style_count":0,"layer_counts":{},"category_counts":{},"geometry_source":"IWantPizzaa/France-Ground-Layouts","geometry_source_url":"https://github.com/IWantPizzaa/France-Ground-Layouts","geometry_license":"GPL-3.0"},"styles":{},"vsmr_groups":[],"features":[]}
