{"type":"FeatureCollection","name":"LFJY AVISO","bbox":[5.861113889,49.019452778,5.887110833,49.031463889],"metadata":{"schema":"vSMR AVISO","schema_version":2,"geometry_mode":"shared","airport":"LFJY","coordinate_reference_system":"WGS84","coordinate_order":"longitude, latitude","default_color_palette":"dark","color_palettes":["dark","light"],"background_colors":{"dark":"#434A4F","light":"#434A4F"},"runways":[{"ends":["05R","23L"],"headings":[48,228],"thresholds":[[5.865027778,49.019452778],[5.887110833,49.031463889]]},{"ends":["05L","23R"],"headings":[48,228],"thresholds":[[5.861113889,49.021202778],[5.868055833,49.024974722]]},{"ends":["05C","23C"],"headings":[48,228],"thresholds":[[5.861755833,49.02015],[5.869752778,49.024496944]]}],"saved_active_runways":[],"saved_active_airport_modes":[],"airport_reference":[5.876110833,49.025555833],"feature_count":3,"style_count":1,"layer_counts":{"Runways":3},"category_counts":{"Runway centerlines":3},"geometry_source":"IWantPizzaa/France-Ground-Layouts","geometry_source_url":"https://github.com/IWantPizzaa/France-Ground-Layouts","geometry_license":"GPL-3.0"},"styles":{"runway.reference":{"name":"Runway centerlines","layer":"Runways","object_type":"Line","paint":{"stroke":"#CCCCCC","stroke-width":2,"stroke-opacity":1},"feature_count":3}},"vsmr_groups":[],"features":[{"type":"Feature","id":"LFJY-c518041d9d54f78b7c73","properties":{"airport":"LFJY","name":"05R/23L","layer":"Runways","category":"Runway centerlines","object_type":"Line","style_id":"runway.reference","source_group":"LFJY Runways","vsmr_group_ids":[],"geometry_role":"runway_centerline"},"geometry":{"type":"LineString","coordinates":[[5.865027778,49.019452778],[5.887110833,49.031463889]]}},{"type":"Feature","id":"LFJY-5419ed3b3d645d3d9f2f","properties":{"airport":"LFJY","name":"05L/23R","layer":"Runways","category":"Runway centerlines","object_type":"Line","style_id":"runway.reference","source_group":"LFJY Runways","vsmr_group_ids":[],"geometry_role":"runway_centerline"},"geometry":{"type":"LineString","coordinates":[[5.861113889,49.021202778],[5.868055833,49.024974722]]}},{"type":"Feature","id":"LFJY-996322668440e95ac65d","properties":{"airport":"LFJY","name":"05C/23C","layer":"Runways","category":"Runway centerlines","object_type":"Line","style_id":"runway.reference","source_group":"LFJY Runways","vsmr_group_ids":[],"geometry_role":"runway_centerline"},"geometry":{"type":"LineString","coordinates":[[5.861755833,49.02015],[5.869752778,49.024496944]]}}]}
