{"type":"FeatureCollection","name":"LFKD AVISO","bbox":[6.799974722,45.250866944,6.802143889,45.256088889],"metadata":{"schema":"vSMR AVISO","schema_version":2,"geometry_mode":"shared","airport":"LFKD","coordinate_reference_system":"WGS84","coordinate_order":"longitude, latitude","default_color_palette":"dark","color_palettes":["dark","light"],"background_colors":{"dark":"#434A4F","light":"#434A4F"},"runways":[{"ends":["01","19"],"headings":[13,193],"thresholds":[[6.799974722,45.250866944],[6.802143889,45.256088889]]}],"saved_active_runways":[],"saved_active_airport_modes":[],"airport_reference":[6.801110833,45.253888889],"feature_count":0,"style_count":0,"layer_counts":{},"category_counts":{},"geometry_source":"IWantPizzaa/France-Ground-Layouts","geometry_source_url":"https://github.com/IWantPizzaa/France-Ground-Layouts","geometry_license":"GPL-3.0"},"styles":{},"vsmr_groups":[],"features":[]}
