{"type":"FeatureCollection","name":"LFKE AVISO","bbox":[5.307093889,45.024016944,5.311652778,45.028418889],"metadata":{"schema":"vSMR AVISO","schema_version":2,"geometry_mode":"shared","airport":"LFKE","coordinate_reference_system":"WGS84","coordinate_order":"longitude, latitude","default_color_palette":"dark","color_palettes":["dark","light"],"background_colors":{"dark":"#434A4F","light":"#434A4F"},"runways":[{"ends":["14","32"],"headings":[141,321],"thresholds":[[5.307093889,45.028418889],[5.311652778,45.024016944]]}],"saved_active_runways":[],"saved_active_airport_modes":[],"airport_reference":[5.309166944,45.026388889],"feature_count":1,"style_count":1,"layer_counts":{"Runways":1},"category_counts":{"Runway centerlines":1},"geometry_source":"IWantPizzaa/France-Ground-Layouts","geometry_source_url":"https://github.com/IWantPizzaa/France-Ground-Layouts","geometry_license":"GPL-3.0"},"styles":{"runway.reference":{"name":"Runway centerlines","layer":"Runways","object_type":"Line","paint":{"stroke":"#CCCCCC","stroke-width":2,"stroke-opacity":1},"feature_count":1}},"vsmr_groups":[],"features":[{"type":"Feature","id":"LFKE-936b5a17f2442e7b67b1","properties":{"airport":"LFKE","name":"14/32","layer":"Runways","category":"Runway centerlines","object_type":"Line","style_id":"runway.reference","source_group":"LFKE Runways","vsmr_group_ids":[],"geometry_role":"runway_centerline"},"geometry":{"type":"LineString","coordinates":[[5.307093889,45.028418889],[5.311652778,45.024016944]]}}]}
