{"type":"FeatureCollection","name":"LFKG AVISO","bbox":[9.399807778,42.048821944,9.400485833,42.056016944],"metadata":{"schema":"vSMR AVISO","schema_version":2,"geometry_mode":"shared","airport":"LFKG","coordinate_reference_system":"WGS84","coordinate_order":"longitude, latitude","default_color_palette":"dark","color_palettes":["dark","light"],"background_colors":{"dark":"#434A4F","light":"#434A4F"},"runways":[{"ends":["18","36"],"headings":[181,1],"thresholds":[[9.400485833,42.056016944],[9.399807778,42.048821944]]}],"saved_active_runways":[],"saved_active_airport_modes":[],"airport_reference":[9.400277778,42.054443889],"feature_count":1,"style_count":1,"layer_counts":{"Runways":1},"category_counts":{"Runway centerlines":1},"geometry_source":"IWantPizzaa/France-Ground-Layouts","geometry_source_url":"https://github.com/IWantPizzaa/France-Ground-Layouts","geometry_license":"GPL-3.0"},"styles":{"runway.reference":{"name":"Runway centerlines","layer":"Runways","object_type":"Line","paint":{"stroke":"#CCCCCC","stroke-width":2,"stroke-opacity":1},"feature_count":1}},"vsmr_groups":[],"features":[{"type":"Feature","id":"LFKG-ed7467f9539edfbddae2","properties":{"airport":"LFKG","name":"18/36","layer":"Runways","category":"Runway centerlines","object_type":"Line","style_id":"runway.reference","source_group":"LFKG Runways","vsmr_group_ids":[],"geometry_role":"runway_centerline"},"geometry":{"type":"LineString","coordinates":[[9.400485833,42.056016944],[9.399807778,42.048821944]]}}]}
