{"type":"FeatureCollection","name":"LFKH AVISO","bbox":[5.677999722,45.513982778,5.678938889,45.516130833],"metadata":{"schema":"vSMR AVISO","schema_version":2,"geometry_mode":"shared","airport":"LFKH","coordinate_reference_system":"WGS84","coordinate_order":"longitude, latitude","default_color_palette":"dark","color_palettes":["dark","light"],"background_colors":{"dark":"#434A4F","light":"#434A4F"},"runways":[{"ends":["02","20"],"headings":[15,195],"thresholds":[[5.677999722,45.513982778],[5.678938889,45.516130833]]}],"saved_active_runways":[],"saved_active_airport_modes":[],"airport_reference":[5.679443889,45.515832778],"feature_count":0,"style_count":0,"layer_counts":{},"category_counts":{},"geometry_source":"IWantPizzaa/France-Ground-Layouts","geometry_source_url":"https://github.com/IWantPizzaa/France-Ground-Layouts","geometry_license":"GPL-3.0"},"styles":{},"vsmr_groups":[],"features":[]}
