{"type":"FeatureCollection","name":"LFKM AVISO","bbox":[4.303991944,45.6036,4.306621944,45.607902778],"metadata":{"schema":"vSMR AVISO","schema_version":2,"geometry_mode":"shared","airport":"LFKM","coordinate_reference_system":"WGS84","coordinate_order":"longitude, latitude","default_color_palette":"dark","color_palettes":["dark","light"],"background_colors":{"dark":"#434A4F","light":"#434A4F"},"runways":[{"ends":["16","34"],"headings":[155,335],"thresholds":[[4.303991944,45.607902778],[4.306621944,45.6036]]}],"saved_active_runways":[],"saved_active_airport_modes":[],"airport_reference":[4.304999722,45.606388889],"feature_count":0,"style_count":0,"layer_counts":{},"category_counts":{},"geometry_source":"IWantPizzaa/France-Ground-Layouts","geometry_source_url":"https://github.com/IWantPizzaa/France-Ground-Layouts","geometry_license":"GPL-3.0"},"styles":{},"vsmr_groups":[],"features":[]}
