{"type":"FeatureCollection","name":"LFKR AVISO","bbox":[6.275030833,45.373638889,6.278607778,45.379971944],"metadata":{"schema":"vSMR AVISO","schema_version":2,"geometry_mode":"shared","airport":"LFKR","coordinate_reference_system":"WGS84","coordinate_order":"longitude, latitude","default_color_palette":"dark","color_palettes":["dark","light"],"background_colors":{"dark":"#434A4F","light":"#434A4F"},"runways":[{"ends":["16","34"],"headings":[156,336],"thresholds":[[6.275030833,45.379971944],[6.278607778,45.373638889]]}],"saved_active_runways":[],"saved_active_airport_modes":[],"airport_reference":[6.277777778,45.375],"feature_count":1,"style_count":1,"layer_counts":{"Runways":1},"category_counts":{"Runway centerlines":1},"geometry_source":"IWantPizzaa/France-Ground-Layouts","geometry_source_url":"https://github.com/IWantPizzaa/France-Ground-Layouts","geometry_license":"GPL-3.0"},"styles":{"runway.reference":{"name":"Runway centerlines","layer":"Runways","object_type":"Line","paint":{"stroke":"#CCCCCC","stroke-width":2,"stroke-opacity":1},"feature_count":1}},"vsmr_groups":[],"features":[{"type":"Feature","id":"LFKR-d72e80c873abb2897613","properties":{"airport":"LFKR","name":"16/34","layer":"Runways","category":"Runway centerlines","object_type":"Line","style_id":"runway.reference","source_group":"LFKR Runways","vsmr_group_ids":[],"geometry_role":"runway_centerline"},"geometry":{"type":"LineString","coordinates":[[6.275030833,45.379971944],[6.278607778,45.373638889]]}}]}
