{"type":"FeatureCollection","name":"LFKT AVISO","bbox":[9.186727778,42.289402778,9.194243889,42.293457778],"metadata":{"schema":"vSMR AVISO","schema_version":2,"geometry_mode":"shared","airport":"LFKT","coordinate_reference_system":"WGS84","coordinate_order":"longitude, latitude","default_color_palette":"dark","color_palettes":["dark","light"],"background_colors":{"dark":"#434A4F","light":"#434A4F"},"runways":[{"ends":["12","30"],"headings":[123,303],"thresholds":[[9.186727778,42.293457778],[9.194243889,42.289402778]]}],"saved_active_runways":[],"saved_active_airport_modes":[],"airport_reference":[9.1925,42.290277778],"feature_count":0,"style_count":0,"layer_counts":{},"category_counts":{},"geometry_source":"IWantPizzaa/France-Ground-Layouts","geometry_source_url":"https://github.com/IWantPizzaa/France-Ground-Layouts","geometry_license":"GPL-3.0"},"styles":{},"vsmr_groups":[],"features":[]}
