{"type":"FeatureCollection","name":"LFLA AVISO","bbox":[3.494027778,47.843805556,3.500666667,47.857888889],"metadata":{"schema":"vSMR AVISO","schema_version":2,"geometry_mode":"shared","airport":"LFLA","coordinate_reference_system":"WGS84","coordinate_order":"longitude, latitude","default_color_palette":"dark","color_palettes":["dark","light"],"background_colors":{"dark":"#434A4F","light":"#434A4F"},"runways":[{"ends":["18","36"],"headings":[184,4],"thresholds":[[3.498205833,47.857743889],[3.496249722,47.844032778]]}],"saved_active_runways":[],"saved_active_airport_modes":[],"airport_reference":[3.496666944,47.846388889],"feature_count":2,"style_count":2,"layer_counts":{"Guidance lines":1,"Runways":1},"category_counts":{"Runway centerlines":1,"Runways":1},"geometry_source":"IWantPizzaa/France-Ground-Layouts","geometry_source_url":"https://github.com/IWantPizzaa/France-Ground-Layouts","geometry_license":"GPL-3.0"},"styles":{"line.runwayconcrete.555555":{"name":"Runways","layer":"Guidance lines","object_type":"Line","paint":{"stroke":"#111318","stroke-opacity":1,"stroke-width":1,"palette-overrides":{"light":{"stroke":"#555555"}}},"feature_count":1},"runway.reference":{"name":"Runway centerlines","layer":"Runways","object_type":"Line","paint":{"stroke":"#CCCCCC","stroke-width":2,"stroke-opacity":1},"feature_count":1}},"vsmr_groups":[],"features":[{"type":"Feature","id":"LFLA-d8c4a46a55e52c996702","properties":{"airport":"LFLA","name":"LFLA Groundlayout Auxerres Branches","layer":"Guidance lines","category":"Runways","object_type":"Line","style_id":"line.runwayconcrete.555555","source_group":"LFLA Groundlayout Auxerres Branches","vsmr_group_ids":[],"geometry_role":"linework"},"geometry":{"type":"MultiLineString","coordinates":[[[3.494027778,47.844194444],[3.496138889,47.857888889]],[[3.498555556,47.843805556],[3.500666667,47.8575]],[[3.494027778,47.844194444],[3.498555556,47.843805556]],[[3.496138889,47.857888889],[3.500666667,47.8575],[3.498555556,47.843805556]],[[3.496138889,47.857888889],[3.494027778,47.844194444]],[[3.500666667,47.8575],[3.496138889,47.857888889]],[[3.498555556,47.843805556],[3.494027778,47.844194444]]]}},{"type":"Feature","id":"LFLA-a5fad127f3624caeb6a6","properties":{"airport":"LFLA","name":"18/36","layer":"Runways","category":"Runway centerlines","object_type":"Line","style_id":"runway.reference","source_group":"LFLA Runways","vsmr_group_ids":[],"geometry_role":"runway_centerline"},"geometry":{"type":"LineString","coordinates":[[3.498205833,47.857743889],[3.496249722,47.844032778]]}}]}
