{"type":"FeatureCollection","name":"LFLE AVISO","bbox":[5.971916944,45.557135833,5.979818889,45.564343889],"metadata":{"schema":"vSMR AVISO","schema_version":2,"geometry_mode":"shared","airport":"LFLE","coordinate_reference_system":"WGS84","coordinate_order":"longitude, latitude","default_color_palette":"dark","color_palettes":["dark","light"],"background_colors":{"dark":"#434A4F","light":"#434A4F"},"runways":[{"ends":["14L","32R"],"headings":[141,321],"thresholds":[[5.973116944,45.563941944],[5.979818889,45.557463889]]},{"ends":["14","32"],"headings":[141,321],"thresholds":[[5.971916944,45.564343889],[5.979355833,45.557135833]]}],"saved_active_runways":[],"saved_active_airport_modes":[],"airport_reference":[5.975832778,45.560555833],"feature_count":2,"style_count":1,"layer_counts":{"Runways":2},"category_counts":{"Runway centerlines":2},"geometry_source":"IWantPizzaa/France-Ground-Layouts","geometry_source_url":"https://github.com/IWantPizzaa/France-Ground-Layouts","geometry_license":"GPL-3.0"},"styles":{"runway.reference":{"name":"Runway centerlines","layer":"Runways","object_type":"Line","paint":{"stroke":"#CCCCCC","stroke-width":2,"stroke-opacity":1},"feature_count":2}},"vsmr_groups":[],"features":[{"type":"Feature","id":"LFLE-9f06c994029a3a935f06","properties":{"airport":"LFLE","name":"14L/32R","layer":"Runways","category":"Runway centerlines","object_type":"Line","style_id":"runway.reference","source_group":"LFLE Runways","vsmr_group_ids":[],"geometry_role":"runway_centerline"},"geometry":{"type":"LineString","coordinates":[[5.973116944,45.563941944],[5.979818889,45.557463889]]}},{"type":"Feature","id":"LFLE-e01ca351609c0c65ac4b","properties":{"airport":"LFLE","name":"14/32","layer":"Runways","category":"Runway centerlines","object_type":"Line","style_id":"runway.reference","source_group":"LFLE Runways","vsmr_group_ids":[],"geometry_role":"runway_centerline"},"geometry":{"type":"LineString","coordinates":[[5.971916944,45.564343889],[5.979355833,45.557135833]]}}]}
