{"type":"FeatureCollection","name":"LFLH AVISO","bbox":[4.814361111,46.821196944,4.824444444,46.833305556],"metadata":{"schema":"vSMR AVISO","schema_version":2,"geometry_mode":"shared","airport":"LFLH","coordinate_reference_system":"WGS84","coordinate_order":"longitude, latitude","default_color_palette":"dark","color_palettes":["dark","light"],"background_colors":{"dark":"#434A4F","light":"#434A4F"},"runways":[{"ends":["17L","35R"],"headings":[168,348],"thresholds":[[4.820666944,46.832555833],[4.822555833,46.825027778]]},{"ends":["17","35"],"headings":[169,349],"thresholds":[[4.816157778,46.832013889],[4.818768889,46.821196944]]}],"saved_active_runways":[],"saved_active_airport_modes":[],"airport_reference":[4.816943889,46.828332778],"feature_count":4,"style_count":3,"layer_counts":{"Guidance lines":2,"Runways":2},"category_counts":{"Grass runways":1,"Runway centerlines":2,"Runways":1},"geometry_source":"IWantPizzaa/France-Ground-Layouts","geometry_source_url":"https://github.com/IWantPizzaa/France-Ground-Layouts","geometry_license":"GPL-3.0"},"styles":{"line.runwayconcrete.555555":{"name":"Runways","layer":"Guidance lines","object_type":"Line","paint":{"stroke":"#111318","stroke-opacity":1,"stroke-width":1,"palette-overrides":{"light":{"stroke":"#555555"}}},"feature_count":1},"line.runwaygrass.008000":{"name":"Grass runways","layer":"Guidance lines","object_type":"Line","paint":{"stroke":"#859A77","stroke-opacity":1,"stroke-width":1,"palette-overrides":{"light":{"stroke":"#008000"}}},"feature_count":1},"runway.reference":{"name":"Runway centerlines","layer":"Runways","object_type":"Line","paint":{"stroke":"#CCCCCC","stroke-width":2,"stroke-opacity":1},"feature_count":2}},"vsmr_groups":[],"features":[{"type":"Feature","id":"LFLH-19e4b6370c17b34e9996","properties":{"airport":"LFLH","name":"LFLH Groundlayout Chalon","layer":"Guidance lines","category":"Runways","object_type":"Line","style_id":"line.runwayconcrete.555555","source_group":"LFLH Groundlayout Chalon","vsmr_group_ids":[],"geometry_role":"linework"},"geometry":{"type":"MultiLineString","coordinates":[[[4.822527778,46.833305556],[4.824444444,46.825805556]],[[4.818055556,46.832694444],[4.819972222,46.825194444]],[[4.822527778,46.833305556],[4.818055556,46.832694444]],[[4.824444444,46.825805556],[4.819972222,46.825194444]]]}},{"type":"Feature","id":"LFLH-a9f7c73bf1d8c0effff6","properties":{"airport":"LFLH","name":"LFLH Groundlayout Chalon","layer":"Guidance lines","category":"Grass runways","object_type":"Line","style_id":"line.runwaygrass.008000","source_group":"LFLH Groundlayout Chalon","vsmr_group_ids":[],"geometry_role":"linework"},"geometry":{"type":"MultiLineString","coordinates":[[[4.818833333,46.830694444],[4.820944444,46.821777778]],[[4.814361111,46.830111111],[4.816472222,46.821222222]],[[4.818833333,46.830694444],[4.814361111,46.830111111]],[[4.820944444,46.821777778],[4.816472222,46.821222222]]]}},{"type":"Feature","id":"LFLH-309a7e0c4855e508e2b1","properties":{"airport":"LFLH","name":"17L/35R","layer":"Runways","category":"Runway centerlines","object_type":"Line","style_id":"runway.reference","source_group":"LFLH Runways","vsmr_group_ids":[],"geometry_role":"runway_centerline"},"geometry":{"type":"LineString","coordinates":[[4.820666944,46.832555833],[4.822555833,46.825027778]]}},{"type":"Feature","id":"LFLH-a49050450064c8ccff65","properties":{"airport":"LFLH","name":"17/35","layer":"Runways","category":"Runway centerlines","object_type":"Line","style_id":"runway.reference","source_group":"LFLH Runways","vsmr_group_ids":[],"geometry_role":"runway_centerline"},"geometry":{"type":"LineString","coordinates":[[4.816157778,46.832013889],[4.818768889,46.821196944]]}}]}
