{"type":"FeatureCollection","name":"LFLI AVISO","bbox":[6.263202778,46.190071944,6.273646944,46.193832778],"metadata":{"schema":"vSMR AVISO","schema_version":2,"geometry_mode":"shared","airport":"LFLI","coordinate_reference_system":"WGS84","coordinate_order":"longitude, latitude","default_color_palette":"dark","color_palettes":["dark","light"],"background_colors":{"dark":"#434A4F","light":"#434A4F"},"runways":[{"ends":["12","30"],"headings":[115,295],"thresholds":[[6.263202778,46.193832778],[6.273646944,46.190071944]]}],"saved_active_runways":[],"saved_active_airport_modes":[],"airport_reference":[6.268332778,46.191943889],"feature_count":1,"style_count":1,"layer_counts":{"Runways":1},"category_counts":{"Runway centerlines":1},"geometry_source":"IWantPizzaa/France-Ground-Layouts","geometry_source_url":"https://github.com/IWantPizzaa/France-Ground-Layouts","geometry_license":"GPL-3.0"},"styles":{"runway.reference":{"name":"Runway centerlines","layer":"Runways","object_type":"Line","paint":{"stroke":"#CCCCCC","stroke-width":2,"stroke-opacity":1},"feature_count":1}},"vsmr_groups":[],"features":[{"type":"Feature","id":"LFLI-b22be99e847d5b654e81","properties":{"airport":"LFLI","name":"12/30","layer":"Runways","category":"Runway centerlines","object_type":"Line","style_id":"runway.reference","source_group":"LFLI Runways","vsmr_group_ids":[],"geometry_role":"runway_centerline"},"geometry":{"type":"LineString","coordinates":[[6.263202778,46.193832778],[6.273646944,46.190071944]]}}]}
