{"type":"FeatureCollection","name":"LFLM AVISO","bbox":[4.795275,46.289941944,4.796771944,46.299716944],"metadata":{"schema":"vSMR AVISO","schema_version":2,"geometry_mode":"shared","airport":"LFLM","coordinate_reference_system":"WGS84","coordinate_order":"longitude, latitude","default_color_palette":"dark","color_palettes":["dark","light"],"background_colors":{"dark":"#434A4F","light":"#434A4F"},"runways":[{"ends":["17","35"],"headings":[172,352],"thresholds":[[4.795275,46.299716944],[4.796771944,46.289941944]]}],"saved_active_runways":[],"saved_active_airport_modes":[],"airport_reference":[4.795832778,46.295832778],"feature_count":1,"style_count":1,"layer_counts":{"Runways":1},"category_counts":{"Runway centerlines":1},"geometry_source":"IWantPizzaa/France-Ground-Layouts","geometry_source_url":"https://github.com/IWantPizzaa/France-Ground-Layouts","geometry_license":"GPL-3.0"},"styles":{"runway.reference":{"name":"Runway centerlines","layer":"Runways","object_type":"Line","paint":{"stroke":"#CCCCCC","stroke-width":2,"stroke-opacity":1},"feature_count":1}},"vsmr_groups":[],"features":[{"type":"Feature","id":"LFLM-f7bd0be2a397247c3776","properties":{"airport":"LFLM","name":"17/35","layer":"Runways","category":"Runway centerlines","object_type":"Line","style_id":"runway.reference","source_group":"LFLM Runways","vsmr_group_ids":[],"geometry_role":"runway_centerline"},"geometry":{"type":"LineString","coordinates":[[4.795275,46.299716944],[4.796771944,46.289941944]]}}]}
