{"type":"FeatureCollection","name":"LFLQ AVISO","bbox":[4.736438889,44.575291944,4.741875,44.585388889],"metadata":{"schema":"vSMR AVISO","schema_version":2,"geometry_mode":"shared","airport":"LFLQ","coordinate_reference_system":"WGS84","coordinate_order":"longitude, latitude","default_color_palette":"dark","color_palettes":["dark","light"],"background_colors":{"dark":"#434A4F","light":"#434A4F"},"runways":[{"ends":["02","20"],"headings":[19,199],"thresholds":[[4.736438889,44.575291944],[4.741875,44.585388889]]}],"saved_active_runways":[],"saved_active_airport_modes":[],"airport_reference":[4.739166944,44.580277778],"feature_count":1,"style_count":1,"layer_counts":{"Runways":1},"category_counts":{"Runway centerlines":1},"geometry_source":"IWantPizzaa/France-Ground-Layouts","geometry_source_url":"https://github.com/IWantPizzaa/France-Ground-Layouts","geometry_license":"GPL-3.0"},"styles":{"runway.reference":{"name":"Runway centerlines","layer":"Runways","object_type":"Line","paint":{"stroke":"#CCCCCC","stroke-width":2,"stroke-opacity":1},"feature_count":1}},"vsmr_groups":[],"features":[{"type":"Feature","id":"LFLQ-fa1e925f488927f4caa2","properties":{"airport":"LFLQ","name":"02/20","layer":"Runways","category":"Runway centerlines","object_type":"Line","style_id":"runway.reference","source_group":"LFLQ Runways","vsmr_group_ids":[],"geometry_role":"runway_centerline"},"geometry":{"type":"LineString","coordinates":[[4.736438889,44.575291944],[4.741875,44.585388889]]}}]}
