{"type":"FeatureCollection","name":"LFLR AVISO","bbox":[4.824985833,45.247774722,4.828021944,45.255971944],"metadata":{"schema":"vSMR AVISO","schema_version":2,"geometry_mode":"shared","airport":"LFLR","coordinate_reference_system":"WGS84","coordinate_order":"longitude, latitude","default_color_palette":"dark","color_palettes":["dark","light"],"background_colors":{"dark":"#434A4F","light":"#434A4F"},"runways":[{"ends":["01R","19L"],"headings":[5,185],"thresholds":[[4.826566944,45.247774722],[4.828021944,45.255830833]]},{"ends":["01L","19R"],"headings":[5,185],"thresholds":[[4.824985833,45.247918889],[4.826441944,45.255971944]]}],"saved_active_runways":[],"saved_active_airport_modes":[],"airport_reference":[4.824721944,45.255],"feature_count":2,"style_count":1,"layer_counts":{"Runways":2},"category_counts":{"Runway centerlines":2},"geometry_source":"IWantPizzaa/France-Ground-Layouts","geometry_source_url":"https://github.com/IWantPizzaa/France-Ground-Layouts","geometry_license":"GPL-3.0"},"styles":{"runway.reference":{"name":"Runway centerlines","layer":"Runways","object_type":"Line","paint":{"stroke":"#CCCCCC","stroke-width":2,"stroke-opacity":1},"feature_count":2}},"vsmr_groups":[],"features":[{"type":"Feature","id":"LFLR-745c57d051534b24cdd4","properties":{"airport":"LFLR","name":"01R/19L","layer":"Runways","category":"Runway centerlines","object_type":"Line","style_id":"runway.reference","source_group":"LFLR Runways","vsmr_group_ids":[],"geometry_role":"runway_centerline"},"geometry":{"type":"LineString","coordinates":[[4.826566944,45.247774722],[4.828021944,45.255830833]]}},{"type":"Feature","id":"LFLR-657562368bdb336f7e35","properties":{"airport":"LFLR","name":"01L/19R","layer":"Runways","category":"Runway centerlines","object_type":"Line","style_id":"runway.reference","source_group":"LFLR Runways","vsmr_group_ids":[],"geometry_role":"runway_centerline"},"geometry":{"type":"LineString","coordinates":[[4.824985833,45.247918889],[4.826441944,45.255971944]]}}]}
