{"type":"FeatureCollection","name":"LFME AVISO","bbox":[4.415602778,43.851280833,4.416796944,43.855935833],"metadata":{"schema":"vSMR AVISO","schema_version":2,"geometry_mode":"shared","airport":"LFME","coordinate_reference_system":"WGS84","coordinate_order":"longitude, latitude","default_color_palette":"dark","color_palettes":["dark","light"],"background_colors":{"dark":"#434A4F","light":"#434A4F"},"runways":[{"ends":["18R","36L"],"headings":[176,356],"thresholds":[[4.415602778,43.855905833],[4.415868889,43.851280833]]},{"ends":["18L","36R"],"headings":[176,356],"thresholds":[[4.416532778,43.855935833],[4.416796944,43.851293889]]}],"saved_active_runways":[],"saved_active_airport_modes":[],"airport_reference":[4.414443889,43.853055833],"feature_count":2,"style_count":1,"layer_counts":{"Runways":2},"category_counts":{"Runway centerlines":2},"geometry_source":"IWantPizzaa/France-Ground-Layouts","geometry_source_url":"https://github.com/IWantPizzaa/France-Ground-Layouts","geometry_license":"GPL-3.0"},"styles":{"runway.reference":{"name":"Runway centerlines","layer":"Runways","object_type":"Line","paint":{"stroke":"#CCCCCC","stroke-width":2,"stroke-opacity":1},"feature_count":2}},"vsmr_groups":[],"features":[{"type":"Feature","id":"LFME-718aca849fd5eb2d3b5c","properties":{"airport":"LFME","name":"18R/36L","layer":"Runways","category":"Runway centerlines","object_type":"Line","style_id":"runway.reference","source_group":"LFME Runways","vsmr_group_ids":[],"geometry_role":"runway_centerline"},"geometry":{"type":"LineString","coordinates":[[4.415602778,43.855905833],[4.415868889,43.851280833]]}},{"type":"Feature","id":"LFME-16106f965aa86ec27d73","properties":{"airport":"LFME","name":"18L/36R","layer":"Runways","category":"Runway centerlines","object_type":"Line","style_id":"runway.reference","source_group":"LFME Runways","vsmr_group_ids":[],"geometry_role":"runway_centerline"},"geometry":{"type":"LineString","coordinates":[[4.416532778,43.855935833],[4.416796944,43.851293889]]}}]}
