{"type":"FeatureCollection","name":"LFMF AVISO","bbox":[6.693460833,43.608338889,6.701071944,43.613280833],"metadata":{"schema":"vSMR AVISO","schema_version":2,"geometry_mode":"shared","airport":"LFMF","coordinate_reference_system":"WGS84","coordinate_order":"longitude, latitude","default_color_palette":"dark","color_palettes":["dark","light"],"background_colors":{"dark":"#434A4F","light":"#434A4F"},"runways":[{"ends":["14","32"],"headings":[137,317],"thresholds":[[6.695885833,43.613280833],[6.701071944,43.608807778]]},{"ends":["10R","28L"],"headings":[98,278],"thresholds":[[6.693460833,43.609321944],[6.700577778,43.608338889]]},{"ends":["10L","28R"],"headings":[98,278],"thresholds":[[6.693713889,43.610291944],[6.700502778,43.609355833]]}],"saved_active_runways":[],"saved_active_airport_modes":[],"airport_reference":[6.701666944,43.608055833],"feature_count":3,"style_count":1,"layer_counts":{"Runways":3},"category_counts":{"Runway centerlines":3},"geometry_source":"IWantPizzaa/France-Ground-Layouts","geometry_source_url":"https://github.com/IWantPizzaa/France-Ground-Layouts","geometry_license":"GPL-3.0"},"styles":{"runway.reference":{"name":"Runway centerlines","layer":"Runways","object_type":"Line","paint":{"stroke":"#CCCCCC","stroke-width":2,"stroke-opacity":1},"feature_count":3}},"vsmr_groups":[],"features":[{"type":"Feature","id":"LFMF-a75733c8b11f999804e6","properties":{"airport":"LFMF","name":"14/32","layer":"Runways","category":"Runway centerlines","object_type":"Line","style_id":"runway.reference","source_group":"LFMF Runways","vsmr_group_ids":[],"geometry_role":"runway_centerline"},"geometry":{"type":"LineString","coordinates":[[6.695885833,43.613280833],[6.701071944,43.608807778]]}},{"type":"Feature","id":"LFMF-c7919c4047addac5c6e2","properties":{"airport":"LFMF","name":"10R/28L","layer":"Runways","category":"Runway centerlines","object_type":"Line","style_id":"runway.reference","source_group":"LFMF Runways","vsmr_group_ids":[],"geometry_role":"runway_centerline"},"geometry":{"type":"LineString","coordinates":[[6.693460833,43.609321944],[6.700577778,43.608338889]]}},{"type":"Feature","id":"LFMF-98a3f79044ce528516a8","properties":{"airport":"LFMF","name":"10L/28R","layer":"Runways","category":"Runway centerlines","object_type":"Line","style_id":"runway.reference","source_group":"LFMF Runways","vsmr_group_ids":[],"geometry_role":"runway_centerline"},"geometry":{"type":"LineString","coordinates":[[6.693713889,43.610291944],[6.700502778,43.609355833]]}}]}
