{"type":"FeatureCollection","name":"LFMG AVISO","bbox":[1.984521944,43.406127778,1.991791944,43.409813889],"metadata":{"schema":"vSMR AVISO","schema_version":2,"geometry_mode":"shared","airport":"LFMG","coordinate_reference_system":"WGS84","coordinate_order":"longitude, latitude","default_color_palette":"dark","color_palettes":["dark","light"],"background_colors":{"dark":"#434A4F","light":"#434A4F"},"runways":[{"ends":["18","36"],"headings":[182,2],"thresholds":[[1.991030833,43.409813889],[1.990868889,43.407335833]]},{"ends":["12","30"],"headings":[119,299],"thresholds":[[1.984521944,43.408338889],[1.989838889,43.406127778]]},{"ends":["03","21"],"headings":[32,212],"thresholds":[[1.989243889,43.406555833],[1.991791944,43.409427778]]}],"saved_active_runways":[],"saved_active_airport_modes":[],"airport_reference":[1.989166944,43.406388889],"feature_count":3,"style_count":1,"layer_counts":{"Runways":3},"category_counts":{"Runway centerlines":3},"geometry_source":"IWantPizzaa/France-Ground-Layouts","geometry_source_url":"https://github.com/IWantPizzaa/France-Ground-Layouts","geometry_license":"GPL-3.0"},"styles":{"runway.reference":{"name":"Runway centerlines","layer":"Runways","object_type":"Line","paint":{"stroke":"#CCCCCC","stroke-width":2,"stroke-opacity":1},"feature_count":3}},"vsmr_groups":[],"features":[{"type":"Feature","id":"LFMG-c0ca2ae2f58ad9404875","properties":{"airport":"LFMG","name":"18/36","layer":"Runways","category":"Runway centerlines","object_type":"Line","style_id":"runway.reference","source_group":"LFMG Runways","vsmr_group_ids":[],"geometry_role":"runway_centerline"},"geometry":{"type":"LineString","coordinates":[[1.991030833,43.409813889],[1.990868889,43.407335833]]}},{"type":"Feature","id":"LFMG-0fbee2ad36f2c1674c42","properties":{"airport":"LFMG","name":"12/30","layer":"Runways","category":"Runway centerlines","object_type":"Line","style_id":"runway.reference","source_group":"LFMG Runways","vsmr_group_ids":[],"geometry_role":"runway_centerline"},"geometry":{"type":"LineString","coordinates":[[1.984521944,43.408338889],[1.989838889,43.406127778]]}},{"type":"Feature","id":"LFMG-acd6a7a0d3ee49742940","properties":{"airport":"LFMG","name":"03/21","layer":"Runways","category":"Runway centerlines","object_type":"Line","style_id":"runway.reference","source_group":"LFMG Runways","vsmr_group_ids":[],"geometry_role":"runway_centerline"},"geometry":{"type":"LineString","coordinates":[[1.989243889,43.406555833],[1.991791944,43.409427778]]}}]}
