{"type":"FeatureCollection","name":"LFNC AVISO","bbox":[6.597441944,44.697746944,6.600860833,44.704171944],"metadata":{"schema":"vSMR AVISO","schema_version":2,"geometry_mode":"shared","airport":"LFNC","coordinate_reference_system":"WGS84","coordinate_order":"longitude, latitude","default_color_palette":"dark","color_palettes":["dark","light"],"background_colors":{"dark":"#434A4F","light":"#434A4F"},"runways":[{"ends":["16L","34R"],"headings":[159,339],"thresholds":[[6.59825,44.704055833],[6.600860833,44.698721944]]},{"ends":["16","34"],"headings":[159,339],"thresholds":[[6.597441944,44.704171944],[6.600588889,44.697746944]]}],"saved_active_runways":[],"saved_active_airport_modes":[],"airport_reference":[6.599166944,44.700555833],"feature_count":2,"style_count":1,"layer_counts":{"Runways":2},"category_counts":{"Runway centerlines":2},"geometry_source":"IWantPizzaa/France-Ground-Layouts","geometry_source_url":"https://github.com/IWantPizzaa/France-Ground-Layouts","geometry_license":"GPL-3.0"},"styles":{"runway.reference":{"name":"Runway centerlines","layer":"Runways","object_type":"Line","paint":{"stroke":"#CCCCCC","stroke-width":2,"stroke-opacity":1},"feature_count":2}},"vsmr_groups":[],"features":[{"type":"Feature","id":"LFNC-765af9a1a1cdeff22d17","properties":{"airport":"LFNC","name":"16L/34R","layer":"Runways","category":"Runway centerlines","object_type":"Line","style_id":"runway.reference","source_group":"LFNC Runways","vsmr_group_ids":[],"geometry_role":"runway_centerline"},"geometry":{"type":"LineString","coordinates":[[6.59825,44.704055833],[6.600860833,44.698721944]]}},{"type":"Feature","id":"LFNC-b563ffa7e49c9c755e32","properties":{"airport":"LFNC","name":"16/34","layer":"Runways","category":"Runway centerlines","object_type":"Line","style_id":"runway.reference","source_group":"LFNC Runways","vsmr_group_ids":[],"geometry_role":"runway_centerline"},"geometry":{"type":"LineString","coordinates":[[6.597441944,44.704171944],[6.600588889,44.697746944]]}}]}
