{"type":"FeatureCollection","name":"LFNF AVISO","bbox":[5.778707778,43.734566944,5.787707778,43.743466944],"metadata":{"schema":"vSMR AVISO","schema_version":2,"geometry_mode":"shared","airport":"LFNF","coordinate_reference_system":"WGS84","coordinate_order":"longitude, latitude","default_color_palette":"dark","color_palettes":["dark","light"],"background_colors":{"dark":"#434A4F","light":"#434A4F"},"runways":[{"ends":["16","34"],"headings":[159,339],"thresholds":[[5.781771944,43.742202778],[5.784518889,43.736502778]]},{"ends":["10","28"],"headings":[100,280],"thresholds":[[5.778707778,43.735925],[5.787707778,43.734566944]]},{"ends":["02","20"],"headings":[21,201],"thresholds":[[5.781121944,43.735421944],[5.785743889,43.743466944]]}],"saved_active_runways":[],"saved_active_airport_modes":[],"airport_reference":[5.783055833,43.736388889],"feature_count":3,"style_count":1,"layer_counts":{"Runways":3},"category_counts":{"Runway centerlines":3},"geometry_source":"IWantPizzaa/France-Ground-Layouts","geometry_source_url":"https://github.com/IWantPizzaa/France-Ground-Layouts","geometry_license":"GPL-3.0"},"styles":{"runway.reference":{"name":"Runway centerlines","layer":"Runways","object_type":"Line","paint":{"stroke":"#CCCCCC","stroke-width":2,"stroke-opacity":1},"feature_count":3}},"vsmr_groups":[],"features":[{"type":"Feature","id":"LFNF-9a125590cd54d61ef7d0","properties":{"airport":"LFNF","name":"16/34","layer":"Runways","category":"Runway centerlines","object_type":"Line","style_id":"runway.reference","source_group":"LFNF Runways","vsmr_group_ids":[],"geometry_role":"runway_centerline"},"geometry":{"type":"LineString","coordinates":[[5.781771944,43.742202778],[5.784518889,43.736502778]]}},{"type":"Feature","id":"LFNF-ca270f7853d7090f4fd8","properties":{"airport":"LFNF","name":"10/28","layer":"Runways","category":"Runway centerlines","object_type":"Line","style_id":"runway.reference","source_group":"LFNF Runways","vsmr_group_ids":[],"geometry_role":"runway_centerline"},"geometry":{"type":"LineString","coordinates":[[5.778707778,43.735925],[5.787707778,43.734566944]]}},{"type":"Feature","id":"LFNF-3bf690a9af6770e4f3e4","properties":{"airport":"LFNF","name":"02/20","layer":"Runways","category":"Runway centerlines","object_type":"Line","style_id":"runway.reference","source_group":"LFNF Runways","vsmr_group_ids":[],"geometry_role":"runway_centerline"},"geometry":{"type":"LineString","coordinates":[[5.781121944,43.735421944],[5.785743889,43.743466944]]}}]}
