{"type":"FeatureCollection","name":"LFNG AVISO","bbox":[4.067499722,43.606905833,4.073480833,43.612788889],"metadata":{"schema":"vSMR AVISO","schema_version":2,"geometry_mode":"shared","airport":"LFNG","coordinate_reference_system":"WGS84","coordinate_order":"longitude, latitude","default_color_palette":"dark","color_palettes":["dark","light"],"background_colors":{"dark":"#434A4F","light":"#434A4F"},"runways":[{"ends":["14","32"],"headings":[142,322],"thresholds":[[4.067499722,43.612788889],[4.073480833,43.606905833]]}],"saved_active_runways":[],"saved_active_airport_modes":[],"airport_reference":[4.070277778,43.610277778],"feature_count":1,"style_count":1,"layer_counts":{"Runways":1},"category_counts":{"Runway centerlines":1},"geometry_source":"IWantPizzaa/France-Ground-Layouts","geometry_source_url":"https://github.com/IWantPizzaa/France-Ground-Layouts","geometry_license":"GPL-3.0"},"styles":{"runway.reference":{"name":"Runway centerlines","layer":"Runways","object_type":"Line","paint":{"stroke":"#CCCCCC","stroke-width":2,"stroke-opacity":1},"feature_count":1}},"vsmr_groups":[],"features":[{"type":"Feature","id":"LFNG-4ba20f87a2940e3e1785","properties":{"airport":"LFNG","name":"14/32","layer":"Runways","category":"Runway centerlines","object_type":"Line","style_id":"runway.reference","source_group":"LFNG Runways","vsmr_group_ids":[],"geometry_role":"runway_centerline"},"geometry":{"type":"LineString","coordinates":[[4.067499722,43.612788889],[4.073480833,43.606905833]]}}]}
