{"type":"FeatureCollection","name":"LFNJ AVISO","bbox":[5.733741944,44.512005833,5.741749722,44.520049722],"metadata":{"schema":"vSMR AVISO","schema_version":2,"geometry_mode":"shared","airport":"LFNJ","coordinate_reference_system":"WGS84","coordinate_order":"longitude, latitude","default_color_palette":"dark","color_palettes":["dark","light"],"background_colors":{"dark":"#434A4F","light":"#434A4F"},"runways":[{"ends":["18","36"],"headings":[182,2],"thresholds":[[5.736432778,44.520049722],[5.735668889,44.512005833]]},{"ends":["10","28"],"headings":[102,282],"thresholds":[[5.733741944,44.518174722],[5.741749722,44.516824722]]}],"saved_active_runways":[],"saved_active_airport_modes":[],"airport_reference":[5.736110833,44.517777778],"feature_count":2,"style_count":1,"layer_counts":{"Runways":2},"category_counts":{"Runway centerlines":2},"geometry_source":"IWantPizzaa/France-Ground-Layouts","geometry_source_url":"https://github.com/IWantPizzaa/France-Ground-Layouts","geometry_license":"GPL-3.0"},"styles":{"runway.reference":{"name":"Runway centerlines","layer":"Runways","object_type":"Line","paint":{"stroke":"#CCCCCC","stroke-width":2,"stroke-opacity":1},"feature_count":2}},"vsmr_groups":[],"features":[{"type":"Feature","id":"LFNJ-102456cd5e48fa3b036b","properties":{"airport":"LFNJ","name":"18/36","layer":"Runways","category":"Runway centerlines","object_type":"Line","style_id":"runway.reference","source_group":"LFNJ Runways","vsmr_group_ids":[],"geometry_role":"runway_centerline"},"geometry":{"type":"LineString","coordinates":[[5.736432778,44.520049722],[5.735668889,44.512005833]]}},{"type":"Feature","id":"LFNJ-1c2c360402981b8169f9","properties":{"airport":"LFNJ","name":"10/28","layer":"Runways","category":"Runway centerlines","object_type":"Line","style_id":"runway.reference","source_group":"LFNJ Runways","vsmr_group_ids":[],"geometry_role":"runway_centerline"},"geometry":{"type":"LineString","coordinates":[[5.733741944,44.518174722],[5.741749722,44.516824722]]}}]}
