{"type":"FeatureCollection","name":"LFNL AVISO","bbox":[3.779810833,43.799021944,3.783885833,43.800907778],"metadata":{"schema":"vSMR AVISO","schema_version":2,"geometry_mode":"shared","airport":"LFNL","coordinate_reference_system":"WGS84","coordinate_order":"longitude, latitude","default_color_palette":"dark","color_palettes":["dark","light"],"background_colors":{"dark":"#434A4F","light":"#434A4F"},"runways":[{"ends":["12R","30L"],"headings":[118,298],"thresholds":[[3.779810833,43.800507778],[3.783438889,43.799021944]]},{"ends":["12L","30R"],"headings":[118,298],"thresholds":[[3.780246944,43.800907778],[3.783885833,43.799399722]]}],"saved_active_runways":[],"saved_active_airport_modes":[],"airport_reference":[3.781666944,43.800277778],"feature_count":2,"style_count":1,"layer_counts":{"Runways":2},"category_counts":{"Runway centerlines":2},"geometry_source":"IWantPizzaa/France-Ground-Layouts","geometry_source_url":"https://github.com/IWantPizzaa/France-Ground-Layouts","geometry_license":"GPL-3.0"},"styles":{"runway.reference":{"name":"Runway centerlines","layer":"Runways","object_type":"Line","paint":{"stroke":"#CCCCCC","stroke-width":2,"stroke-opacity":1},"feature_count":2}},"vsmr_groups":[],"features":[{"type":"Feature","id":"LFNL-e33a9f78943b12ebc28c","properties":{"airport":"LFNL","name":"12R/30L","layer":"Runways","category":"Runway centerlines","object_type":"Line","style_id":"runway.reference","source_group":"LFNL Runways","vsmr_group_ids":[],"geometry_role":"runway_centerline"},"geometry":{"type":"LineString","coordinates":[[3.779810833,43.800507778],[3.783438889,43.799021944]]}},{"type":"Feature","id":"LFNL-b5e4dd7f40d90a5e08ba","properties":{"airport":"LFNL","name":"12L/30R","layer":"Runways","category":"Runway centerlines","object_type":"Line","style_id":"runway.reference","source_group":"LFNL Runways","vsmr_group_ids":[],"geometry_role":"runway_centerline"},"geometry":{"type":"LineString","coordinates":[[3.780246944,43.800907778],[3.783885833,43.799399722]]}}]}
