{"type":"FeatureCollection","name":"LFNN AVISO","bbox":[3.048638889,43.1935,3.054721944,43.194610833],"metadata":{"schema":"vSMR AVISO","schema_version":2,"geometry_mode":"shared","airport":"LFNN","coordinate_reference_system":"WGS84","coordinate_order":"longitude, latitude","default_color_palette":"dark","color_palettes":["dark","light"],"background_colors":{"dark":"#434A4F","light":"#434A4F"},"runways":[{"ends":["10","28"],"headings":[103,283],"thresholds":[[3.048638889,43.194610833],[3.054721944,43.1935]]}],"saved_active_runways":[],"saved_active_airport_modes":[],"airport_reference":[3.051666944,43.194166944],"feature_count":1,"style_count":1,"layer_counts":{"Runways":1},"category_counts":{"Runway centerlines":1},"geometry_source":"IWantPizzaa/France-Ground-Layouts","geometry_source_url":"https://github.com/IWantPizzaa/France-Ground-Layouts","geometry_license":"GPL-3.0"},"styles":{"runway.reference":{"name":"Runway centerlines","layer":"Runways","object_type":"Line","paint":{"stroke":"#CCCCCC","stroke-width":2,"stroke-opacity":1},"feature_count":1}},"vsmr_groups":[],"features":[{"type":"Feature","id":"LFNN-6ff5772e5de3db4c8e01","properties":{"airport":"LFNN","name":"10/28","layer":"Runways","category":"Runway centerlines","object_type":"Line","style_id":"runway.reference","source_group":"LFNN Runways","vsmr_group_ids":[],"geometry_role":"runway_centerline"},"geometry":{"type":"LineString","coordinates":[[3.048638889,43.194610833],[3.054721944,43.1935]]}}]}
