{"type":"FeatureCollection","name":"LFNO AVISO","bbox":[3.456646944,44.281668889,3.465868889,44.287077778],"metadata":{"schema":"vSMR AVISO","schema_version":2,"geometry_mode":"shared","airport":"LFNO","coordinate_reference_system":"WGS84","coordinate_order":"longitude, latitude","default_color_palette":"dark","color_palettes":["dark","light"],"background_colors":{"dark":"#434A4F","light":"#434A4F"},"runways":[{"ends":["14","32"],"headings":[138,318],"thresholds":[[3.457452778,44.287077778],[3.462666944,44.282588889]]},{"ends":["08","26"],"headings":[84,264],"thresholds":[[3.456646944,44.284999722],[3.464574722,44.285416944]]},{"ends":["03","21"],"headings":[25,205],"thresholds":[[3.462896944,44.281668889],[3.465868889,44.285896944]]}],"saved_active_runways":[],"saved_active_airport_modes":[],"airport_reference":[3.465555833,44.285555833],"feature_count":3,"style_count":1,"layer_counts":{"Runways":3},"category_counts":{"Runway centerlines":3},"geometry_source":"IWantPizzaa/France-Ground-Layouts","geometry_source_url":"https://github.com/IWantPizzaa/France-Ground-Layouts","geometry_license":"GPL-3.0"},"styles":{"runway.reference":{"name":"Runway centerlines","layer":"Runways","object_type":"Line","paint":{"stroke":"#CCCCCC","stroke-width":2,"stroke-opacity":1},"feature_count":3}},"vsmr_groups":[],"features":[{"type":"Feature","id":"LFNO-fc168c7fc785948f6395","properties":{"airport":"LFNO","name":"14/32","layer":"Runways","category":"Runway centerlines","object_type":"Line","style_id":"runway.reference","source_group":"LFNO Runways","vsmr_group_ids":[],"geometry_role":"runway_centerline"},"geometry":{"type":"LineString","coordinates":[[3.457452778,44.287077778],[3.462666944,44.282588889]]}},{"type":"Feature","id":"LFNO-49f75f0ec992e5d428da","properties":{"airport":"LFNO","name":"08/26","layer":"Runways","category":"Runway centerlines","object_type":"Line","style_id":"runway.reference","source_group":"LFNO Runways","vsmr_group_ids":[],"geometry_role":"runway_centerline"},"geometry":{"type":"LineString","coordinates":[[3.456646944,44.284999722],[3.464574722,44.285416944]]}},{"type":"Feature","id":"LFNO-f0512531e54e766e6016","properties":{"airport":"LFNO","name":"03/21","layer":"Runways","category":"Runway centerlines","object_type":"Line","style_id":"runway.reference","source_group":"LFNO Runways","vsmr_group_ids":[],"geometry_role":"runway_centerline"},"geometry":{"type":"LineString","coordinates":[[3.462896944,44.281668889],[3.465868889,44.285896944]]}}]}
