{"type":"FeatureCollection","name":"LFNQ AVISO","bbox":[2.117182778,42.539827778,2.123874722,42.546135833],"metadata":{"schema":"vSMR AVISO","schema_version":2,"geometry_mode":"shared","airport":"LFNQ","coordinate_reference_system":"WGS84","coordinate_order":"longitude, latitude","default_color_palette":"dark","color_palettes":["dark","light"],"background_colors":{"dark":"#434A4F","light":"#434A4F"},"runways":[{"ends":["14","32"],"headings":[141,321],"thresholds":[[2.117182778,42.546135833],[2.123874722,42.539827778]]}],"saved_active_runways":[],"saved_active_airport_modes":[],"airport_reference":[2.12,42.543332778],"feature_count":0,"style_count":0,"layer_counts":{},"category_counts":{},"geometry_source":"IWantPizzaa/France-Ground-Layouts","geometry_source_url":"https://github.com/IWantPizzaa/France-Ground-Layouts","geometry_license":"GPL-3.0"},"styles":{},"vsmr_groups":[],"features":[]}
