{"type":"FeatureCollection","name":"LFNR AVISO","bbox":[5.17415,43.532988889,5.184913889,43.5384],"metadata":{"schema":"vSMR AVISO","schema_version":2,"geometry_mode":"shared","airport":"LFNR","coordinate_reference_system":"WGS84","coordinate_order":"longitude, latitude","default_color_palette":"dark","color_palettes":["dark","light"],"background_colors":{"dark":"#434A4F","light":"#434A4F"},"runways":[{"ends":["16","34"],"headings":[158,338],"thresholds":[[5.176549722,43.5384],[5.179338889,43.532988889]]},{"ends":["08","26"],"headings":[83,263],"thresholds":[[5.17415,43.536463889],[5.184913889,43.537116944]]}],"saved_active_runways":[],"saved_active_airport_modes":[],"airport_reference":[5.1775,43.536666944],"feature_count":2,"style_count":1,"layer_counts":{"Runways":2},"category_counts":{"Runway centerlines":2},"geometry_source":"IWantPizzaa/France-Ground-Layouts","geometry_source_url":"https://github.com/IWantPizzaa/France-Ground-Layouts","geometry_license":"GPL-3.0"},"styles":{"runway.reference":{"name":"Runway centerlines","layer":"Runways","object_type":"Line","paint":{"stroke":"#CCCCCC","stroke-width":2,"stroke-opacity":1},"feature_count":2}},"vsmr_groups":[],"features":[{"type":"Feature","id":"LFNR-0f4df6e84e76f561a004","properties":{"airport":"LFNR","name":"16/34","layer":"Runways","category":"Runway centerlines","object_type":"Line","style_id":"runway.reference","source_group":"LFNR Runways","vsmr_group_ids":[],"geometry_role":"runway_centerline"},"geometry":{"type":"LineString","coordinates":[[5.176549722,43.5384],[5.179338889,43.532988889]]}},{"type":"Feature","id":"LFNR-f11eef36565e16dbd14a","properties":{"airport":"LFNR","name":"08/26","layer":"Runways","category":"Runway centerlines","object_type":"Line","style_id":"runway.reference","source_group":"LFNR Runways","vsmr_group_ids":[],"geometry_role":"runway_centerline"},"geometry":{"type":"LineString","coordinates":[[5.17415,43.536463889],[5.184913889,43.537116944]]}}]}
