{"type":"FeatureCollection","name":"LFNT AVISO","bbox":[4.752582778,43.992177778,4.759430833,44.000982778],"metadata":{"schema":"vSMR AVISO","schema_version":2,"geometry_mode":"shared","airport":"LFNT","coordinate_reference_system":"WGS84","coordinate_order":"longitude, latitude","default_color_palette":"dark","color_palettes":["dark","light"],"background_colors":{"dark":"#434A4F","light":"#434A4F"},"runways":[{"ends":["16R","34L"],"headings":[163,343],"thresholds":[[4.752582778,44.000982778],[4.755791944,43.992177778]]},{"ends":["16L","34R"],"headings":[164,344],"thresholds":[[4.758505833,43.996796944],[4.759268889,43.994688889]]},{"ends":["12","30"],"headings":[121,301],"thresholds":[[4.752843889,43.999866944],[4.759430833,43.996782778]]}],"saved_active_runways":[],"saved_active_airport_modes":[],"airport_reference":[4.754443889,43.996110833],"feature_count":3,"style_count":1,"layer_counts":{"Runways":3},"category_counts":{"Runway centerlines":3},"geometry_source":"IWantPizzaa/France-Ground-Layouts","geometry_source_url":"https://github.com/IWantPizzaa/France-Ground-Layouts","geometry_license":"GPL-3.0"},"styles":{"runway.reference":{"name":"Runway centerlines","layer":"Runways","object_type":"Line","paint":{"stroke":"#CCCCCC","stroke-width":2,"stroke-opacity":1},"feature_count":3}},"vsmr_groups":[],"features":[{"type":"Feature","id":"LFNT-8ff1d3c3d9b67ca51e61","properties":{"airport":"LFNT","name":"16R/34L","layer":"Runways","category":"Runway centerlines","object_type":"Line","style_id":"runway.reference","source_group":"LFNT Runways","vsmr_group_ids":[],"geometry_role":"runway_centerline"},"geometry":{"type":"LineString","coordinates":[[4.752582778,44.000982778],[4.755791944,43.992177778]]}},{"type":"Feature","id":"LFNT-91b5b214984a46c8f637","properties":{"airport":"LFNT","name":"16L/34R","layer":"Runways","category":"Runway centerlines","object_type":"Line","style_id":"runway.reference","source_group":"LFNT Runways","vsmr_group_ids":[],"geometry_role":"runway_centerline"},"geometry":{"type":"LineString","coordinates":[[4.758505833,43.996796944],[4.759268889,43.994688889]]}},{"type":"Feature","id":"LFNT-b5523b41dc12f0fc6b8a","properties":{"airport":"LFNT","name":"12/30","layer":"Runways","category":"Runway centerlines","object_type":"Line","style_id":"runway.reference","source_group":"LFNT Runways","vsmr_group_ids":[],"geometry_role":"runway_centerline"},"geometry":{"type":"LineString","coordinates":[[4.752843889,43.999866944],[4.759430833,43.996782778]]}}]}
