{"type":"FeatureCollection","name":"LFNW AVISO","bbox":[2.051843889,42.907921944,2.057688889,42.912799722],"metadata":{"schema":"vSMR AVISO","schema_version":2,"geometry_mode":"shared","airport":"LFNW","coordinate_reference_system":"WGS84","coordinate_order":"longitude, latitude","default_color_palette":"dark","color_palettes":["dark","light"],"background_colors":{"dark":"#434A4F","light":"#434A4F"},"runways":[{"ends":["14","32"],"headings":[137,317],"thresholds":[[2.051843889,42.912799722],[2.057688889,42.907921944]]}],"saved_active_runways":[],"saved_active_airport_modes":[],"airport_reference":[2.054721944,42.910277778],"feature_count":0,"style_count":0,"layer_counts":{},"category_counts":{},"geometry_source":"IWantPizzaa/France-Ground-Layouts","geometry_source_url":"https://github.com/IWantPizzaa/France-Ground-Layouts","geometry_license":"GPL-3.0"},"styles":{},"vsmr_groups":[],"features":[]}
