{"type":"FeatureCollection","name":"LFNX AVISO","bbox":[3.1442,43.635477778,3.145541944,43.643860833],"metadata":{"schema":"vSMR AVISO","schema_version":2,"geometry_mode":"shared","airport":"LFNX","coordinate_reference_system":"WGS84","coordinate_order":"longitude, latitude","default_color_palette":"dark","color_palettes":["dark","light"],"background_colors":{"dark":"#434A4F","light":"#434A4F"},"runways":[{"ends":["17","35"],"headings":[172,352],"thresholds":[[3.1442,43.643860833],[3.145541944,43.635477778]]}],"saved_active_runways":[],"saved_active_airport_modes":[],"airport_reference":[3.144721944,43.639721944],"feature_count":1,"style_count":1,"layer_counts":{"Runways":1},"category_counts":{"Runway centerlines":1},"geometry_source":"IWantPizzaa/France-Ground-Layouts","geometry_source_url":"https://github.com/IWantPizzaa/France-Ground-Layouts","geometry_license":"GPL-3.0"},"styles":{"runway.reference":{"name":"Runway centerlines","layer":"Runways","object_type":"Line","paint":{"stroke":"#CCCCCC","stroke-width":2,"stroke-opacity":1},"feature_count":1}},"vsmr_groups":[],"features":[{"type":"Feature","id":"LFNX-a9460ee4e8a5dda39f65","properties":{"airport":"LFNX","name":"17/35","layer":"Runways","category":"Runway centerlines","object_type":"Line","style_id":"runway.reference","source_group":"LFNX Runways","vsmr_group_ids":[],"geometry_role":"runway_centerline"},"geometry":{"type":"LineString","coordinates":[[3.1442,43.643860833],[3.145541944,43.635477778]]}}]}
