{"type":"FeatureCollection","name":"LFNZ AVISO","bbox":[4.89445,43.766199722,4.894705833,43.775196944],"metadata":{"schema":"vSMR AVISO","schema_version":2,"geometry_mode":"shared","airport":"LFNZ","coordinate_reference_system":"WGS84","coordinate_order":"longitude, latitude","default_color_palette":"dark","color_palettes":["dark","light"],"background_colors":{"dark":"#434A4F","light":"#434A4F"},"runways":[{"ends":["18","36"],"headings":[176,356],"thresholds":[[4.89445,43.775196944],[4.894705833,43.766199722]]}],"saved_active_runways":[],"saved_active_airport_modes":[],"airport_reference":[4.894443889,43.770832778],"feature_count":1,"style_count":1,"layer_counts":{"Runways":1},"category_counts":{"Runway centerlines":1},"geometry_source":"IWantPizzaa/France-Ground-Layouts","geometry_source_url":"https://github.com/IWantPizzaa/France-Ground-Layouts","geometry_license":"GPL-3.0"},"styles":{"runway.reference":{"name":"Runway centerlines","layer":"Runways","object_type":"Line","paint":{"stroke":"#CCCCCC","stroke-width":2,"stroke-opacity":1},"feature_count":1}},"vsmr_groups":[],"features":[{"type":"Feature","id":"LFNZ-62cf66cdebd04dbb76bb","properties":{"airport":"LFNZ","name":"18/36","layer":"Runways","category":"Runway centerlines","object_type":"Line","style_id":"runway.reference","source_group":"LFNZ Runways","vsmr_group_ids":[],"geometry_role":"runway_centerline"},"geometry":{"type":"LineString","coordinates":[[4.89445,43.775196944],[4.894705833,43.766199722]]}}]}
