{"type":"FeatureCollection","name":"LFOF AVISO","bbox":[0.105488889,48.445938889,0.110557778,48.447671944],"metadata":{"schema":"vSMR AVISO","schema_version":2,"geometry_mode":"shared","airport":"LFOF","coordinate_reference_system":"WGS84","coordinate_order":"longitude, latitude","default_color_palette":"dark","color_palettes":["dark","light"],"background_colors":{"dark":"#434A4F","light":"#434A4F"},"runways":[{"ends":["07R","25L"],"headings":[68,248],"thresholds":[[0.105488889,48.445938889],[0.110191944,48.447107778]]},{"ends":["07L","25R"],"headings":[68,248],"thresholds":[[0.105871944,48.446505833],[0.110557778,48.447671944]]}],"saved_active_runways":[],"saved_active_airport_modes":[],"airport_reference":[0.108332778,48.446666944],"feature_count":2,"style_count":1,"layer_counts":{"Runways":2},"category_counts":{"Runway centerlines":2},"geometry_source":"IWantPizzaa/France-Ground-Layouts","geometry_source_url":"https://github.com/IWantPizzaa/France-Ground-Layouts","geometry_license":"GPL-3.0"},"styles":{"runway.reference":{"name":"Runway centerlines","layer":"Runways","object_type":"Line","paint":{"stroke":"#CCCCCC","stroke-width":2,"stroke-opacity":1},"feature_count":2}},"vsmr_groups":[],"features":[{"type":"Feature","id":"LFOF-6baa581b3b3e410cbebd","properties":{"airport":"LFOF","name":"07R/25L","layer":"Runways","category":"Runway centerlines","object_type":"Line","style_id":"runway.reference","source_group":"LFOF Runways","vsmr_group_ids":[],"geometry_role":"runway_centerline"},"geometry":{"type":"LineString","coordinates":[[0.105488889,48.445938889],[0.110191944,48.447107778]]}},{"type":"Feature","id":"LFOF-83c1f91bbdf9b9845d2b","properties":{"airport":"LFOF","name":"07L/25R","layer":"Runways","category":"Runway centerlines","object_type":"Line","style_id":"runway.reference","source_group":"LFOF Runways","vsmr_group_ids":[],"geometry_role":"runway_centerline"},"geometry":{"type":"LineString","coordinates":[[0.105871944,48.446505833],[0.110557778,48.447671944]]}}]}
