{"type":"FeatureCollection","name":"LFOG AVISO","bbox":[-0.597583333,48.747972222,-0.588722222,48.753722222],"metadata":{"schema":"vSMR AVISO","schema_version":2,"geometry_mode":"shared","airport":"LFOG","coordinate_reference_system":"WGS84","coordinate_order":"longitude, latitude","default_color_palette":"dark","color_palettes":["dark","light"],"background_colors":{"dark":"#434A4F","light":"#434A4F"},"runways":[{"ends":["05","23"],"headings":[54,234],"thresholds":[[-0.597243889,48.748485833],[-0.590632778,48.751655833]]}],"saved_active_runways":[],"saved_active_airport_modes":[],"airport_reference":[-0.594721944,48.749721944],"feature_count":2,"style_count":2,"layer_counts":{"Guidance lines":1,"Runways":1},"category_counts":{"Runway centerlines":1,"Runways":1},"geometry_source":"IWantPizzaa/France-Ground-Layouts","geometry_source_url":"https://github.com/IWantPizzaa/France-Ground-Layouts","geometry_license":"GPL-3.0"},"styles":{"line.runwayconcrete.555555":{"name":"Runways","layer":"Guidance lines","object_type":"Line","paint":{"stroke":"#111318","stroke-opacity":1,"stroke-width":1,"palette-overrides":{"light":{"stroke":"#555555"}}},"feature_count":1},"runway.reference":{"name":"Runway centerlines","layer":"Runways","object_type":"Line","paint":{"stroke":"#CCCCCC","stroke-width":2,"stroke-opacity":1},"feature_count":1}},"vsmr_groups":[],"features":[{"type":"Feature","id":"LFOG-31c0a4d7fe07878b1cd7","properties":{"airport":"LFOG","name":"LFOG Groundlayout Flers saint Paul","layer":"Guidance lines","category":"Runways","object_type":"Line","style_id":"line.runwayconcrete.555555","source_group":"LFOG Groundlayout Flers saint Paul","vsmr_group_ids":[],"geometry_role":"linework"},"geometry":{"type":"MultiLineString","coordinates":[[[-0.597583333,48.750833333],[-0.591083333,48.753722222]],[[-0.595222222,48.747972222],[-0.588722222,48.750888889]],[[-0.597583333,48.750833333],[-0.595222222,48.747972222]],[[-0.591083333,48.753722222],[-0.588722222,48.750888889]]]}},{"type":"Feature","id":"LFOG-c5b3782759192129a40c","properties":{"airport":"LFOG","name":"05/23","layer":"Runways","category":"Runway centerlines","object_type":"Line","style_id":"runway.reference","source_group":"LFOG Runways","vsmr_group_ids":[],"geometry_role":"runway_centerline"},"geometry":{"type":"LineString","coordinates":[[-0.597243889,48.748485833],[-0.590632778,48.751655833]]}}]}
