{"type":"FeatureCollection","name":"LFOM AVISO","bbox":[-1.511685833,49.201124722,-1.496307778,49.206107778],"metadata":{"schema":"vSMR AVISO","schema_version":2,"geometry_mode":"shared","airport":"LFOM","coordinate_reference_system":"WGS84","coordinate_order":"longitude, latitude","default_color_palette":"dark","color_palettes":["dark","light"],"background_colors":{"dark":"#434A4F","light":"#434A4F"},"runways":[{"ends":["06","24"],"headings":[64,244],"thresholds":[[-1.511685833,49.201124722],[-1.496307778,49.206107778]]}],"saved_active_runways":[],"saved_active_airport_modes":[],"airport_reference":[-1.504721944,49.203332778],"feature_count":0,"style_count":0,"layer_counts":{},"category_counts":{},"geometry_source":"IWantPizzaa/France-Ground-Layouts","geometry_source_url":"https://github.com/IWantPizzaa/France-Ground-Layouts","geometry_license":"GPL-3.0"},"styles":{},"vsmr_groups":[],"features":[]}
