{"type":"FeatureCollection","name":"LFOR AVISO","bbox":[1.523888889,48.458888889,1.523888889,48.458888889],"metadata":{"schema":"vSMR AVISO","schema_version":2,"geometry_mode":"shared","airport":"LFOR","coordinate_reference_system":"WGS84","coordinate_order":"longitude, latitude","default_color_palette":"dark","color_palettes":["dark","light"],"background_colors":{"dark":"#434A4F","light":"#434A4F"},"runways":[],"saved_active_runways":[],"saved_active_airport_modes":[],"airport_reference":[1.523888889,48.458888889],"feature_count":1,"style_count":1,"layer_counts":{"Reference points":1},"category_counts":{"Airport reference":1},"geometry_source":"IWantPizzaa/France-Ground-Layouts","geometry_source_url":"https://github.com/IWantPizzaa/France-Ground-Layouts","geometry_license":"GPL-3.0"},"styles":{"airport.reference":{"name":"Airport reference","layer":"Reference points","object_type":"Label","paint":{"text-color":"#CCCCCC","text-size":12,"text-halo-width":1},"feature_count":1}},"vsmr_groups":[],"features":[{"type":"Feature","id":"LFOR-369fc2ac1b55cd6dc8be","properties":{"airport":"LFOR","name":"LFOR","layer":"Reference points","category":"Airport reference","object_type":"Label","style_id":"airport.reference","source_group":"LFOR","vsmr_group_ids":[],"geometry_role":"airport_reference_point","text-field":"LFOR"},"geometry":{"type":"Point","coordinates":[1.523888889,48.458888889]}}]}
