{"type":"FeatureCollection","name":"LFPM AVISO","bbox":[2.665888889,48.602805556,2.688388889,48.615833333],"metadata":{"schema":"vSMR AVISO","schema_version":2,"geometry_mode":"shared","airport":"LFPM","coordinate_reference_system":"WGS84","coordinate_order":"longitude, latitude","default_color_palette":"dark","color_palettes":["dark","light"],"background_colors":{"dark":"#434A4F","light":"#434A4F"},"runways":[{"ends":["10","28"],"headings":[103,283],"thresholds":[[2.663285833,48.606477778],[2.688205833,48.602507778]]},{"ends":["01","19"],"headings":[12,192],"thresholds":[[2.671077778,48.606163889],[2.674974722,48.617582778]]}],"saved_active_runways":[],"saved_active_airport_modes":[],"airport_reference":[2.670832778,48.605277778],"feature_count":30,"style_count":2,"layer_counts":{"Labels":30},"category_counts":{"Gates":11,"Taxiways":19},"geometry_source":"local GNG/KMZ","geometry_source_url":"","geometry_license":"GPL-3.0"},"styles":{"label.gates":{"name":"Gates","layer":"Labels","object_type":"Label","paint":{"text-color":"#CCCCCC","text-font":"Arial","text-size":12,"text-halo-color":"#000000","text-halo-width":1,"text-anchor":"center","zoomLevel":9},"feature_count":11},"label.taxiways":{"name":"Taxiways","layer":"Labels","object_type":"Label","paint":{"text-color":"#CCCCCC","text-font":"Arial","text-size":12,"text-halo-color":"#000000","text-halo-width":1,"text-anchor":"center","zoomLevel":7},"feature_count":19}},"vsmr_groups":[{"id":"stands-and-gates","name":"Stands & gates","visible":true,"accent":"#D4BD39"}],"features":[{"type":"Feature","id":"LFPM-1eb12824be1da4d69ffb","properties":{"airport":"LFPM","name":"1","layer":"Labels","category":"Gates","object_type":"Label","style_id":"label.gates","source_group":"LFPM Gates","vsmr_group_ids":["stands-and-gates"],"geometry_role":"text_label","text-field":"1"},"geometry":{"type":"Point","coordinates":[2.666055556,48.611083333]}},{"type":"Feature","id":"LFPM-556e8ab07dd4a1e1fdce","properties":{"airport":"LFPM","name":"2","layer":"Labels","category":"Gates","object_type":"Label","style_id":"label.gates","source_group":"LFPM Gates","vsmr_group_ids":["stands-and-gates"],"geometry_role":"text_label","text-field":"2"},"geometry":{"type":"Point","coordinates":[2.666194444,48.611361111]}},{"type":"Feature","id":"LFPM-ef8dfaebc23f6cc2d458","properties":{"airport":"LFPM","name":"3","layer":"Labels","category":"Gates","object_type":"Label","style_id":"label.gates","source_group":"LFPM Gates","vsmr_group_ids":["stands-and-gates"],"geometry_role":"text_label","text-field":"3"},"geometry":{"type":"Point","coordinates":[2.666277778,48.611666667]}},{"type":"Feature","id":"LFPM-441363eb932c39dff226","properties":{"airport":"LFPM","name":"4","layer":"Labels","category":"Gates","object_type":"Label","style_id":"label.gates","source_group":"LFPM Gates","vsmr_group_ids":["stands-and-gates"],"geometry_role":"text_label","text-field":"4"},"geometry":{"type":"Point","coordinates":[2.666444444,48.612111111]}},{"type":"Feature","id":"LFPM-16d049a166a891521e82","properties":{"airport":"LFPM","name":"5","layer":"Labels","category":"Gates","object_type":"Label","style_id":"label.gates","source_group":"LFPM Gates","vsmr_group_ids":["stands-and-gates"],"geometry_role":"text_label","text-field":"5"},"geometry":{"type":"Point","coordinates":[2.666527778,48.612305556]}},{"type":"Feature","id":"LFPM-87ae2e7e899cf647d82a","properties":{"airport":"LFPM","name":"6","layer":"Labels","category":"Gates","object_type":"Label","style_id":"label.gates","source_group":"LFPM Gates","vsmr_group_ids":["stands-and-gates"],"geometry_role":"text_label","text-field":"6"},"geometry":{"type":"Point","coordinates":[2.666583333,48.6125]}},{"type":"Feature","id":"LFPM-80da8f4d09a276243472","properties":{"airport":"LFPM","name":"7","layer":"Labels","category":"Gates","object_type":"Label","style_id":"label.gates","source_group":"LFPM Gates","vsmr_group_ids":["stands-and-gates"],"geometry_role":"text_label","text-field":"7"},"geometry":{"type":"Point","coordinates":[2.666972222,48.613361111]}},{"type":"Feature","id":"LFPM-19973761e04ca5ad1e9d","properties":{"airport":"LFPM","name":"8","layer":"Labels","category":"Gates","object_type":"Label","style_id":"label.gates","source_group":"LFPM Gates","vsmr_group_ids":["stands-and-gates"],"geometry_role":"text_label","text-field":"8"},"geometry":{"type":"Point","coordinates":[2.667222222,48.614055556]}},{"type":"Feature","id":"LFPM-2778e93527e35973a3cf","properties":{"airport":"LFPM","name":"9","layer":"Labels","category":"Gates","object_type":"Label","style_id":"label.gates","source_group":"LFPM Gates","vsmr_group_ids":["stands-and-gates"],"geometry_role":"text_label","text-field":"9"},"geometry":{"type":"Point","coordinates":[2.667694444,48.615083333]}},{"type":"Feature","id":"LFPM-5bed39c134cf22f9922e","properties":{"airport":"LFPM","name":"10","layer":"Labels","category":"Gates","object_type":"Label","style_id":"label.gates","source_group":"LFPM Gates","vsmr_group_ids":["stands-and-gates"],"geometry_role":"text_label","text-field":"10"},"geometry":{"type":"Point","coordinates":[2.667833333,48.615444444]}},{"type":"Feature","id":"LFPM-89b279730d0017f45209","properties":{"airport":"LFPM","name":"11","layer":"Labels","category":"Gates","object_type":"Label","style_id":"label.gates","source_group":"LFPM Gates","vsmr_group_ids":["stands-and-gates"],"geometry_role":"text_label","text-field":"11"},"geometry":{"type":"Point","coordinates":[2.668,48.615833333]}},{"type":"Feature","id":"LFPM-e1005a4001213a835416","properties":{"airport":"LFPM","name":"Z","layer":"Labels","category":"Taxiways","object_type":"Label","style_id":"label.taxiways","source_group":"LFPM Taxiways","vsmr_group_ids":[],"geometry_role":"text_label","text-field":"Z"},"geometry":{"type":"Point","coordinates":[2.677694444,48.608277778]}},{"type":"Feature","id":"LFPM-5dfc0f010cfdfcfe17ff","properties":{"airport":"LFPM","name":"W","layer":"Labels","category":"Taxiways","object_type":"Label","style_id":"label.taxiways","source_group":"LFPM Taxiways","vsmr_group_ids":[],"geometry_role":"text_label","text-field":"W"},"geometry":{"type":"Point","coordinates":[2.665888889,48.606305556]}},{"type":"Feature","id":"LFPM-962ad702a3ad27b52c10","properties":{"airport":"LFPM","name":"W","layer":"Labels","category":"Taxiways","object_type":"Label","style_id":"label.taxiways","source_group":"LFPM Taxiways","vsmr_group_ids":[],"geometry_role":"text_label","text-field":"W"},"geometry":{"type":"Point","coordinates":[2.666361111,48.607611111]}},{"type":"Feature","id":"LFPM-2f944539b1d495039167","properties":{"airport":"LFPM","name":"W","layer":"Labels","category":"Taxiways","object_type":"Label","style_id":"label.taxiways","source_group":"LFPM Taxiways","vsmr_group_ids":[],"geometry_role":"text_label","text-field":"W"},"geometry":{"type":"Point","coordinates":[2.667083333,48.609666667]}},{"type":"Feature","id":"LFPM-123f91db9198898d9a7b","properties":{"airport":"LFPM","name":"Z","layer":"Labels","category":"Taxiways","object_type":"Label","style_id":"label.taxiways","source_group":"LFPM Taxiways","vsmr_group_ids":[],"geometry_role":"text_label","text-field":"Z"},"geometry":{"type":"Point","coordinates":[2.687972222,48.602805556]}},{"type":"Feature","id":"LFPM-5084b72c6c3075b63688","properties":{"airport":"LFPM","name":"Z","layer":"Labels","category":"Taxiways","object_type":"Label","style_id":"label.taxiways","source_group":"LFPM Taxiways","vsmr_group_ids":[],"geometry_role":"text_label","text-field":"Z"},"geometry":{"type":"Point","coordinates":[2.688388889,48.604027778]}},{"type":"Feature","id":"LFPM-8b2d8b13b48d802af42e","properties":{"airport":"LFPM","name":"Z","layer":"Labels","category":"Taxiways","object_type":"Label","style_id":"label.taxiways","source_group":"LFPM Taxiways","vsmr_group_ids":[],"geometry_role":"text_label","text-field":"Z"},"geometry":{"type":"Point","coordinates":[2.68475,48.606666667]}},{"type":"Feature","id":"LFPM-cc5fae6b0c34ccb1aaad","properties":{"airport":"LFPM","name":"Z","layer":"Labels","category":"Taxiways","object_type":"Label","style_id":"label.taxiways","source_group":"LFPM Taxiways","vsmr_group_ids":[],"geometry_role":"text_label","text-field":"Z"},"geometry":{"type":"Point","coordinates":[2.680666667,48.608666667]}},{"type":"Feature","id":"LFPM-65f6c8a937558975c58a","properties":{"airport":"LFPM","name":"T","layer":"Labels","category":"Taxiways","object_type":"Label","style_id":"label.taxiways","source_group":"LFPM Taxiways","vsmr_group_ids":[],"geometry_role":"text_label","text-field":"T"},"geometry":{"type":"Point","coordinates":[2.674472222,48.606361111]}},{"type":"Feature","id":"LFPM-ec0c3bf5a175f21d0232","properties":{"airport":"LFPM","name":"T","layer":"Labels","category":"Taxiways","object_type":"Label","style_id":"label.taxiways","source_group":"LFPM Taxiways","vsmr_group_ids":[],"geometry_role":"text_label","text-field":"T"},"geometry":{"type":"Point","coordinates":[2.674027778,48.605]}},{"type":"Feature","id":"LFPM-06166331ddc3dbfd87cc","properties":{"airport":"LFPM","name":"C","layer":"Labels","category":"Taxiways","object_type":"Label","style_id":"label.taxiways","source_group":"LFPM Taxiways","vsmr_group_ids":[],"geometry_role":"text_label","text-field":"C"},"geometry":{"type":"Point","coordinates":[2.673444444,48.607694444]}},{"type":"Feature","id":"LFPM-b48da636a014599d7cb9","properties":{"airport":"LFPM","name":"C","layer":"Labels","category":"Taxiways","object_type":"Label","style_id":"label.taxiways","source_group":"LFPM Taxiways","vsmr_group_ids":[],"geometry_role":"text_label","text-field":"C"},"geometry":{"type":"Point","coordinates":[2.671722222,48.607944444]}},{"type":"Feature","id":"LFPM-052b2b087336caaaa6bb","properties":{"airport":"LFPM","name":"D","layer":"Labels","category":"Taxiways","object_type":"Label","style_id":"label.taxiways","source_group":"LFPM Taxiways","vsmr_group_ids":[],"geometry_role":"text_label","text-field":"D"},"geometry":{"type":"Point","coordinates":[2.671138889,48.608027778]}},{"type":"Feature","id":"LFPM-02c9ff89809653e48164","properties":{"airport":"LFPM","name":"D","layer":"Labels","category":"Taxiways","object_type":"Label","style_id":"label.taxiways","source_group":"LFPM Taxiways","vsmr_group_ids":[],"geometry_role":"text_label","text-field":"D"},"geometry":{"type":"Point","coordinates":[2.668777778,48.608361111]}},{"type":"Feature","id":"LFPM-478db6cf8b79a382c841","properties":{"airport":"LFPM","name":"J","layer":"Labels","category":"Taxiways","object_type":"Label","style_id":"label.taxiways","source_group":"LFPM Taxiways","vsmr_group_ids":[],"geometry_role":"text_label","text-field":"J"},"geometry":{"type":"Point","coordinates":[2.669833333,48.612694444]}},{"type":"Feature","id":"LFPM-30b707f0a4b82493da90","properties":{"airport":"LFPM","name":"J","layer":"Labels","category":"Taxiways","object_type":"Label","style_id":"label.taxiways","source_group":"LFPM Taxiways","vsmr_group_ids":[],"geometry_role":"text_label","text-field":"J"},"geometry":{"type":"Point","coordinates":[2.672,48.612833333]}},{"type":"Feature","id":"LFPM-a8d5324b4a63122f5c7d","properties":{"airport":"LFPM","name":"J","layer":"Labels","category":"Taxiways","object_type":"Label","style_id":"label.taxiways","source_group":"LFPM Taxiways","vsmr_group_ids":[],"geometry_role":"text_label","text-field":"J"},"geometry":{"type":"Point","coordinates":[2.672805556,48.612888889]}},{"type":"Feature","id":"LFPM-c8d36483b6b21def75f6","properties":{"airport":"LFPM","name":"J","layer":"Labels","category":"Taxiways","object_type":"Label","style_id":"label.taxiways","source_group":"LFPM Taxiways","vsmr_group_ids":[],"geometry_role":"text_label","text-field":"J"},"geometry":{"type":"Point","coordinates":[2.673444444,48.612944444]}},{"type":"Feature","id":"LFPM-af02a53557e798c7712d","properties":{"airport":"LFPM","name":"J","layer":"Labels","category":"Taxiways","object_type":"Label","style_id":"label.taxiways","source_group":"LFPM Taxiways","vsmr_group_ids":[],"geometry_role":"text_label","text-field":"J"},"geometry":{"type":"Point","coordinates":[2.675194444,48.613055556]}}]}
