{"type":"FeatureCollection","name":"LFQA AVISO","bbox":[4.151972222,49.205361111,4.163333333,49.211666667],"metadata":{"schema":"vSMR AVISO","schema_version":2,"geometry_mode":"shared","airport":"LFQA","coordinate_reference_system":"WGS84","coordinate_order":"longitude, latitude","default_color_palette":"dark","color_palettes":["dark","light"],"background_colors":{"dark":"#434A4F","light":"#434A4F"},"runways":[{"ends":["07R","25L"],"headings":[65,245],"thresholds":[[4.152271944,49.206902778],[4.161793889,49.209635833]]},{"ends":["07","25"],"headings":[65,245],"thresholds":[[4.152266944,49.207446944],[4.160207778,49.209730833]]}],"saved_active_runways":[],"saved_active_airport_modes":[],"airport_reference":[4.156666944,49.208610833],"feature_count":4,"style_count":3,"layer_counts":{"Guidance lines":2,"Runways":2},"category_counts":{"Grass runways":1,"Runway centerlines":2,"Runways":1},"geometry_source":"IWantPizzaa/France-Ground-Layouts","geometry_source_url":"https://github.com/IWantPizzaa/France-Ground-Layouts","geometry_license":"GPL-3.0"},"styles":{"line.runwayconcrete.555555":{"name":"Runways","layer":"Guidance lines","object_type":"Line","paint":{"stroke":"#111318","stroke-opacity":1,"stroke-width":1,"palette-overrides":{"light":{"stroke":"#555555"}}},"feature_count":1},"line.runwaygrass.008000":{"name":"Grass runways","layer":"Guidance lines","object_type":"Line","paint":{"stroke":"#859A77","stroke-opacity":1,"stroke-width":1,"palette-overrides":{"light":{"stroke":"#008000"}}},"feature_count":1},"runway.reference":{"name":"Runway centerlines","layer":"Runways","object_type":"Line","paint":{"stroke":"#CCCCCC","stroke-width":2,"stroke-opacity":1},"feature_count":2}},"vsmr_groups":[],"features":[{"type":"Feature","id":"LFQA-e3eac71f998da9c1b933","properties":{"airport":"LFQA","name":"LFQA Groundlayout Reims Prunay","layer":"Guidance lines","category":"Runways","object_type":"Line","style_id":"line.runwayconcrete.555555","source_group":"LFQA Groundlayout Reims Prunay","vsmr_group_ids":[],"geometry_role":"linework"},"geometry":{"type":"MultiLineString","coordinates":[[[4.152083333,49.209055556],[4.161277778,49.211666667]],[[4.153722222,49.205944444],[4.162916667,49.208555556]],[[4.152083333,49.209055556],[4.153722222,49.205944444]],[[4.161277778,49.211666667],[4.162916667,49.208555556]]]}},{"type":"Feature","id":"LFQA-7a3cfa0ad20d00b1dc92","properties":{"airport":"LFQA","name":"LFQA Groundlayout Reims Prunay","layer":"Guidance lines","category":"Grass runways","object_type":"Line","style_id":"line.runwaygrass.008000","source_group":"LFQA Groundlayout Reims Prunay","vsmr_group_ids":[],"geometry_role":"linework"},"geometry":{"type":"MultiLineString","coordinates":[[[4.151972222,49.208444444],[4.161666667,49.21125]],[[4.153638889,49.205361111],[4.163333333,49.208138889]],[[4.151972222,49.208444444],[4.153638889,49.205361111]],[[4.161666667,49.21125],[4.163333333,49.208138889]]]}},{"type":"Feature","id":"LFQA-aff40c5141feeb4850de","properties":{"airport":"LFQA","name":"07R/25L","layer":"Runways","category":"Runway centerlines","object_type":"Line","style_id":"runway.reference","source_group":"LFQA Runways","vsmr_group_ids":[],"geometry_role":"runway_centerline"},"geometry":{"type":"LineString","coordinates":[[4.152271944,49.206902778],[4.161793889,49.209635833]]}},{"type":"Feature","id":"LFQA-a60b103aa9dca277474e","properties":{"airport":"LFQA","name":"07/25","layer":"Runways","category":"Runway centerlines","object_type":"Line","style_id":"runway.reference","source_group":"LFQA Runways","vsmr_group_ids":[],"geometry_role":"runway_centerline"},"geometry":{"type":"LineString","coordinates":[[4.152266944,49.207446944],[4.160207778,49.209730833]]}}]}
