{"type":"FeatureCollection","name":"LFQC AVISO","bbox":[6.542221944,48.593610833,6.542221944,48.593610833],"metadata":{"schema":"vSMR AVISO","schema_version":2,"geometry_mode":"shared","airport":"LFQC","coordinate_reference_system":"WGS84","coordinate_order":"longitude, latitude","default_color_palette":"dark","color_palettes":["dark","light"],"background_colors":{"dark":"#434A4F","light":"#434A4F"},"runways":[],"saved_active_runways":[],"saved_active_airport_modes":[],"airport_reference":[6.542221944,48.593610833],"feature_count":1,"style_count":1,"layer_counts":{"Reference points":1},"category_counts":{"Airport reference":1},"geometry_source":"IWantPizzaa/France-Ground-Layouts","geometry_source_url":"https://github.com/IWantPizzaa/France-Ground-Layouts","geometry_license":"GPL-3.0"},"styles":{"airport.reference":{"name":"Airport reference","layer":"Reference points","object_type":"Label","paint":{"text-color":"#CCCCCC","text-size":12,"text-halo-width":1},"feature_count":1}},"vsmr_groups":[],"features":[{"type":"Feature","id":"LFQC-4637b948062b089afb18","properties":{"airport":"LFQC","name":"LFQC","layer":"Reference points","category":"Airport reference","object_type":"Label","style_id":"airport.reference","source_group":"LFQC","vsmr_group_ids":[],"geometry_role":"airport_reference_point","text-field":"LFQC"},"geometry":{"type":"Point","coordinates":[6.542221944,48.593610833]}}]}
