{"type":"FeatureCollection","name":"LFQG AVISO","bbox":[3.10475,46.999166667,3.120055556,47.00725],"metadata":{"schema":"vSMR AVISO","schema_version":2,"geometry_mode":"shared","airport":"LFQG","coordinate_reference_system":"WGS84","coordinate_order":"longitude, latitude","default_color_palette":"dark","color_palettes":["dark","light"],"background_colors":{"dark":"#434A4F","light":"#434A4F"},"runways":[{"ends":["12L","30R"],"headings":[121,301],"thresholds":[[3.109277778,47.005046944],[3.117946944,47.001338889]]},{"ends":["12","30"],"headings":[121,301],"thresholds":[[3.105916944,47.005791944],[3.118088889,47.000593889]]}],"saved_active_runways":[],"saved_active_airport_modes":[],"airport_reference":[3.110832778,47.003610833],"feature_count":4,"style_count":3,"layer_counts":{"Guidance lines":2,"Runways":2},"category_counts":{"Grass runways":1,"Runway centerlines":2,"Runways":1},"geometry_source":"IWantPizzaa/France-Ground-Layouts","geometry_source_url":"https://github.com/IWantPizzaa/France-Ground-Layouts","geometry_license":"GPL-3.0"},"styles":{"line.runwayconcrete.555555":{"name":"Runways","layer":"Guidance lines","object_type":"Line","paint":{"stroke":"#111318","stroke-opacity":1,"stroke-width":1,"palette-overrides":{"light":{"stroke":"#555555"}}},"feature_count":1},"line.runwaygrass.008000":{"name":"Grass runways","layer":"Guidance lines","object_type":"Line","paint":{"stroke":"#859A77","stroke-opacity":1,"stroke-width":1,"palette-overrides":{"light":{"stroke":"#008000"}}},"feature_count":1},"runway.reference":{"name":"Runway centerlines","layer":"Runways","object_type":"Line","paint":{"stroke":"#CCCCCC","stroke-width":2,"stroke-opacity":1},"feature_count":2}},"vsmr_groups":[],"features":[{"type":"Feature","id":"LFQG-9a7e050bda46deb7e253","properties":{"airport":"LFQG","name":"LFQG Groundlayout Nevers","layer":"Guidance lines","category":"Runways","object_type":"Line","style_id":"line.runwayconcrete.555555","source_group":"LFQG Groundlayout Nevers","vsmr_group_ids":[],"geometry_role":"linework"},"geometry":{"type":"MultiLineString","coordinates":[[[3.107055556,47.00725],[3.11925,47.002027778]],[[3.10475,47.004361111],[3.116944444,46.999166667]],[[3.107055556,47.00725],[3.10475,47.004361111]],[[3.11925,47.002027778],[3.116944444,46.999166667]]]}},{"type":"Feature","id":"LFQG-cb42b45d734ae983e024","properties":{"airport":"LFQG","name":"LFQG Groundlayout Nevers","layer":"Guidance lines","category":"Grass runways","object_type":"Line","style_id":"line.runwaygrass.008000","source_group":"LFQG Groundlayout Nevers","vsmr_group_ids":[],"geometry_role":"linework"},"geometry":{"type":"MultiLineString","coordinates":[[[3.10975,47.006722222],[3.120055556,47.002222222]],[[3.107444444,47.003861111],[3.11775,46.999361111]],[[3.10975,47.006722222],[3.107444444,47.003861111]],[[3.120055556,47.002222222],[3.11775,46.999361111]]]}},{"type":"Feature","id":"LFQG-51f4116fb69d0f9b931a","properties":{"airport":"LFQG","name":"12L/30R","layer":"Runways","category":"Runway centerlines","object_type":"Line","style_id":"runway.reference","source_group":"LFQG Runways","vsmr_group_ids":[],"geometry_role":"runway_centerline"},"geometry":{"type":"LineString","coordinates":[[3.109277778,47.005046944],[3.117946944,47.001338889]]}},{"type":"Feature","id":"LFQG-e19394fb5a06b479bf68","properties":{"airport":"LFQG","name":"12/30","layer":"Runways","category":"Runway centerlines","object_type":"Line","style_id":"runway.reference","source_group":"LFQG Runways","vsmr_group_ids":[],"geometry_role":"runway_centerline"},"geometry":{"type":"LineString","coordinates":[[3.105916944,47.005791944],[3.118088889,47.000593889]]}}]}
