{"type":"FeatureCollection","name":"LFRW AVISO","bbox":[-1.408143889,48.658802778,-1.400716944,48.665941944],"metadata":{"schema":"vSMR AVISO","schema_version":2,"geometry_mode":"shared","airport":"LFRW","coordinate_reference_system":"WGS84","coordinate_order":"longitude, latitude","default_color_palette":"dark","color_palettes":["dark","light"],"background_colors":{"dark":"#434A4F","light":"#434A4F"},"runways":[{"ends":["14","32"],"headings":[136,316],"thresholds":[[-1.408143889,48.662424722],[-1.403010833,48.658802778]]},{"ends":["03","21"],"headings":[33,213],"thresholds":[[-1.407316944,48.659355833],[-1.400716944,48.665941944]]}],"saved_active_runways":[],"saved_active_airport_modes":[],"airport_reference":[-1.405832778,48.660832778],"feature_count":0,"style_count":0,"layer_counts":{},"category_counts":{},"geometry_source":"IWantPizzaa/France-Ground-Layouts","geometry_source_url":"https://github.com/IWantPizzaa/France-Ground-Layouts","geometry_license":"GPL-3.0"},"styles":{},"vsmr_groups":[],"features":[]}
