{"type":"FeatureCollection","name":"LFSC AVISO","bbox":[7.393111111,47.910777778,7.4085,47.932166667],"metadata":{"schema":"vSMR AVISO","schema_version":2,"geometry_mode":"shared","airport":"LFSC","coordinate_reference_system":"WGS84","coordinate_order":"longitude, latitude","default_color_palette":"dark","color_palettes":["dark","light"],"background_colors":{"dark":"#434A4F","light":"#434A4F"},"runways":[],"saved_active_runways":[],"saved_active_airport_modes":[],"feature_count":19,"style_count":1,"layer_counts":{"Labels":19},"category_counts":{"Taxiways":19},"geometry_source":"local GNG/KMZ","geometry_source_url":"","geometry_license":"GPL-3.0"},"styles":{"label.taxiways":{"name":"Taxiways","layer":"Labels","object_type":"Label","paint":{"text-color":"#CCCCCC","text-font":"Arial","text-size":12,"text-halo-color":"#000000","text-halo-width":1,"text-anchor":"center","zoomLevel":7},"feature_count":19}},"vsmr_groups":[],"features":[{"type":"Feature","id":"LFSC-937871e1932063705e87","properties":{"airport":"LFSC","name":"4W","layer":"Labels","category":"Taxiways","object_type":"Label","style_id":"label.taxiways","source_group":"LFSC Taxiways","vsmr_group_ids":[],"geometry_role":"text_label","text-field":"4W"},"geometry":{"type":"Point","coordinates":[7.396055556,47.911472222]}},{"type":"Feature","id":"LFSC-92dd9907269430eb0439","properties":{"airport":"LFSC","name":"4W","layer":"Labels","category":"Taxiways","object_type":"Label","style_id":"label.taxiways","source_group":"LFSC Taxiways","vsmr_group_ids":[],"geometry_role":"text_label","text-field":"4W"},"geometry":{"type":"Point","coordinates":[7.397055556,47.91125]}},{"type":"Feature","id":"LFSC-aa74b0dc9ada5b167246","properties":{"airport":"LFSC","name":"1W","layer":"Labels","category":"Taxiways","object_type":"Label","style_id":"label.taxiways","source_group":"LFSC Taxiways","vsmr_group_ids":[],"geometry_role":"text_label","text-field":"1W"},"geometry":{"type":"Point","coordinates":[7.404,47.932166667]}},{"type":"Feature","id":"LFSC-03a6ba7e91d07c705713","properties":{"airport":"LFSC","name":"1W","layer":"Labels","category":"Taxiways","object_type":"Label","style_id":"label.taxiways","source_group":"LFSC Taxiways","vsmr_group_ids":[],"geometry_role":"text_label","text-field":"1W"},"geometry":{"type":"Point","coordinates":[7.404972222,47.932027778]}},{"type":"Feature","id":"LFSC-5a862860ab394fd30327","properties":{"airport":"LFSC","name":"A(S)","layer":"Labels","category":"Taxiways","object_type":"Label","style_id":"label.taxiways","source_group":"LFSC Taxiways","vsmr_group_ids":[],"geometry_role":"text_label","text-field":"A(S)"},"geometry":{"type":"Point","coordinates":[7.398888889,47.91425]}},{"type":"Feature","id":"LFSC-2cf0f0a01397938a209b","properties":{"airport":"LFSC","name":"3W","layer":"Labels","category":"Taxiways","object_type":"Label","style_id":"label.taxiways","source_group":"LFSC Taxiways","vsmr_group_ids":[],"geometry_role":"text_label","text-field":"3W"},"geometry":{"type":"Point","coordinates":[7.398361111,47.917666667]}},{"type":"Feature","id":"LFSC-1f9d7c2507a2457ad790","properties":{"airport":"LFSC","name":"3W","layer":"Labels","category":"Taxiways","object_type":"Label","style_id":"label.taxiways","source_group":"LFSC Taxiways","vsmr_group_ids":[],"geometry_role":"text_label","text-field":"3W"},"geometry":{"type":"Point","coordinates":[7.399361111,47.9175]}},{"type":"Feature","id":"LFSC-c39fbfa1d0b33c94528e","properties":{"airport":"LFSC","name":"2W","layer":"Labels","category":"Taxiways","object_type":"Label","style_id":"label.taxiways","source_group":"LFSC Taxiways","vsmr_group_ids":[],"geometry_role":"text_label","text-field":"2W"},"geometry":{"type":"Point","coordinates":[7.401444444,47.925833333]}},{"type":"Feature","id":"LFSC-79597075400ed7e842cc","properties":{"airport":"LFSC","name":"2W","layer":"Labels","category":"Taxiways","object_type":"Label","style_id":"label.taxiways","source_group":"LFSC Taxiways","vsmr_group_ids":[],"geometry_role":"text_label","text-field":"2W"},"geometry":{"type":"Point","coordinates":[7.402416667,47.925638889]}},{"type":"Feature","id":"LFSC-aa8d1c93bc029e34e2c6","properties":{"airport":"LFSC","name":"5","layer":"Labels","category":"Taxiways","object_type":"Label","style_id":"label.taxiways","source_group":"LFSC Taxiways","vsmr_group_ids":[],"geometry_role":"text_label","text-field":"5"},"geometry":{"type":"Point","coordinates":[7.395388889,47.911583333]}},{"type":"Feature","id":"LFSC-980ec5ca898b201d2e18","properties":{"airport":"LFSC","name":"5","layer":"Labels","category":"Taxiways","object_type":"Label","style_id":"label.taxiways","source_group":"LFSC Taxiways","vsmr_group_ids":[],"geometry_role":"text_label","text-field":"5"},"geometry":{"type":"Point","coordinates":[7.393111111,47.911944444]}},{"type":"Feature","id":"LFSC-c6b90a9e70ec9e2ec166","properties":{"airport":"LFSC","name":"1E","layer":"Labels","category":"Taxiways","object_type":"Label","style_id":"label.taxiways","source_group":"LFSC Taxiways","vsmr_group_ids":[],"geometry_role":"text_label","text-field":"1E"},"geometry":{"type":"Point","coordinates":[7.405833333,47.931861111]}},{"type":"Feature","id":"LFSC-48144a258887c7a5af52","properties":{"airport":"LFSC","name":"1E","layer":"Labels","category":"Taxiways","object_type":"Label","style_id":"label.taxiways","source_group":"LFSC Taxiways","vsmr_group_ids":[],"geometry_role":"text_label","text-field":"1E"},"geometry":{"type":"Point","coordinates":[7.406333333,47.931666667]}},{"type":"Feature","id":"LFSC-a174f7794e09221082a4","properties":{"airport":"LFSC","name":"1E","layer":"Labels","category":"Taxiways","object_type":"Label","style_id":"label.taxiways","source_group":"LFSC Taxiways","vsmr_group_ids":[],"geometry_role":"text_label","text-field":"1E"},"geometry":{"type":"Point","coordinates":[7.4085,47.931277778]}},{"type":"Feature","id":"LFSC-89d4096a52543de3312c","properties":{"airport":"LFSC","name":"4E","layer":"Labels","category":"Taxiways","object_type":"Label","style_id":"label.taxiways","source_group":"LFSC Taxiways","vsmr_group_ids":[],"geometry_role":"text_label","text-field":"4E"},"geometry":{"type":"Point","coordinates":[7.399611111,47.910777778]}},{"type":"Feature","id":"LFSC-6d0944e4cba548c2d525","properties":{"airport":"LFSC","name":"2E","layer":"Labels","category":"Taxiways","object_type":"Label","style_id":"label.taxiways","source_group":"LFSC Taxiways","vsmr_group_ids":[],"geometry_role":"text_label","text-field":"2E"},"geometry":{"type":"Point","coordinates":[7.404444444,47.92525]}},{"type":"Feature","id":"LFSC-b327c716acdb40003e5c","properties":{"airport":"LFSC","name":"3E","layer":"Labels","category":"Taxiways","object_type":"Label","style_id":"label.taxiways","source_group":"LFSC Taxiways","vsmr_group_ids":[],"geometry_role":"text_label","text-field":"3E"},"geometry":{"type":"Point","coordinates":[7.401444444,47.917111111]}},{"type":"Feature","id":"LFSC-b8b02299ec7e7d8a01e8","properties":{"airport":"LFSC","name":"A(C)","layer":"Labels","category":"Taxiways","object_type":"Label","style_id":"label.taxiways","source_group":"LFSC Taxiways","vsmr_group_ids":[],"geometry_role":"text_label","text-field":"A(C)"},"geometry":{"type":"Point","coordinates":[7.401583333,47.921444444]}},{"type":"Feature","id":"LFSC-abb1c2f8b048aabfeee0","properties":{"airport":"LFSC","name":"A(N)","layer":"Labels","category":"Taxiways","object_type":"Label","style_id":"label.taxiways","source_group":"LFSC Taxiways","vsmr_group_ids":[],"geometry_role":"text_label","text-field":"A(N)"},"geometry":{"type":"Point","coordinates":[7.404305556,47.928722222]}}]}
