{"type":"FeatureCollection","name":"LFSM AVISO","bbox":[6.785538889,47.485925,6.797210833,47.487755833],"metadata":{"schema":"vSMR AVISO","schema_version":2,"geometry_mode":"shared","airport":"LFSM","coordinate_reference_system":"WGS84","coordinate_order":"longitude, latitude","default_color_palette":"dark","color_palettes":["dark","light"],"background_colors":{"dark":"#434A4F","light":"#434A4F"},"runways":[{"ends":["08L","26R"],"headings":[77,257],"thresholds":[[6.785538889,47.48635],[6.796725,47.487755833]]},{"ends":["08","26"],"headings":[77,257],"thresholds":[[6.785618889,47.485925],[6.797210833,47.487382778]]}],"saved_active_runways":[],"saved_active_airport_modes":[],"airport_reference":[6.791388889,47.486666944],"feature_count":2,"style_count":1,"layer_counts":{"Runways":2},"category_counts":{"Runway centerlines":2},"geometry_source":"IWantPizzaa/France-Ground-Layouts","geometry_source_url":"https://github.com/IWantPizzaa/France-Ground-Layouts","geometry_license":"GPL-3.0"},"styles":{"runway.reference":{"name":"Runway centerlines","layer":"Runways","object_type":"Line","paint":{"stroke":"#CCCCCC","stroke-width":2,"stroke-opacity":1},"feature_count":2}},"vsmr_groups":[],"features":[{"type":"Feature","id":"LFSM-a7f90358b7dc5859d123","properties":{"airport":"LFSM","name":"08L/26R","layer":"Runways","category":"Runway centerlines","object_type":"Line","style_id":"runway.reference","source_group":"LFSM Runways","vsmr_group_ids":[],"geometry_role":"runway_centerline"},"geometry":{"type":"LineString","coordinates":[[6.785538889,47.48635],[6.796725,47.487755833]]}},{"type":"Feature","id":"LFSM-0bafb476fa923d4d656d","properties":{"airport":"LFSM","name":"08/26","layer":"Runways","category":"Runway centerlines","object_type":"Line","style_id":"runway.reference","source_group":"LFSM Runways","vsmr_group_ids":[],"geometry_role":"runway_centerline"},"geometry":{"type":"LineString","coordinates":[[6.785618889,47.485925],[6.797210833,47.487382778]]}}]}
