{"type":"FeatureCollection","name":"LFTA AVISO","bbox":[-1.427960833,46.360191944,-1.426610833,46.367327778],"metadata":{"schema":"vSMR AVISO","schema_version":2,"geometry_mode":"shared","airport":"LFTA","coordinate_reference_system":"WGS84","coordinate_order":"longitude, latitude","default_color_palette":"dark","color_palettes":["dark","light"],"background_colors":{"dark":"#434A4F","light":"#434A4F"},"runways":[{"ends":["17","35"],"headings":[172,352],"thresholds":[[-1.427960833,46.367327778],[-1.426610833,46.360191944]]}],"saved_active_runways":[],"saved_active_airport_modes":[],"airport_reference":[-1.427499722,46.365555833],"feature_count":1,"style_count":1,"layer_counts":{"Runways":1},"category_counts":{"Runway centerlines":1},"geometry_source":"IWantPizzaa/France-Ground-Layouts","geometry_source_url":"https://github.com/IWantPizzaa/France-Ground-Layouts","geometry_license":"GPL-3.0"},"styles":{"runway.reference":{"name":"Runway centerlines","layer":"Runways","object_type":"Line","paint":{"stroke":"#CCCCCC","stroke-width":2,"stroke-opacity":1},"feature_count":1}},"vsmr_groups":[],"features":[{"type":"Feature","id":"LFTA-fa759a0e16dcf8bb74b5","properties":{"airport":"LFTA","name":"17/35","layer":"Runways","category":"Runway centerlines","object_type":"Line","style_id":"runway.reference","source_group":"LFTA Runways","vsmr_group_ids":[],"geometry_role":"runway_centerline"},"geometry":{"type":"LineString","coordinates":[[-1.427960833,46.367327778],[-1.426610833,46.360191944]]}}]}
