{"type":"FeatureCollection","name":"LFTM AVISO","bbox":[5.726975,44.454349722,5.727257778,44.458841944],"metadata":{"schema":"vSMR AVISO","schema_version":2,"geometry_mode":"shared","airport":"LFTM","coordinate_reference_system":"WGS84","coordinate_order":"longitude, latitude","default_color_palette":"dark","color_palettes":["dark","light"],"background_colors":{"dark":"#434A4F","light":"#434A4F"},"runways":[{"ends":["18","36"],"headings":[181,1],"thresholds":[[5.727257778,44.458841944],[5.726975,44.454349722]]}],"saved_active_runways":[],"saved_active_airport_modes":[],"airport_reference":[5.727221944,44.457221944],"feature_count":1,"style_count":1,"layer_counts":{"Runways":1},"category_counts":{"Runway centerlines":1},"geometry_source":"IWantPizzaa/France-Ground-Layouts","geometry_source_url":"https://github.com/IWantPizzaa/France-Ground-Layouts","geometry_license":"GPL-3.0"},"styles":{"runway.reference":{"name":"Runway centerlines","layer":"Runways","object_type":"Line","paint":{"stroke":"#CCCCCC","stroke-width":2,"stroke-opacity":1},"feature_count":1}},"vsmr_groups":[],"features":[{"type":"Feature","id":"LFTM-cd3c3ce407027ab00366","properties":{"airport":"LFTM","name":"18/36","layer":"Runways","category":"Runway centerlines","object_type":"Line","style_id":"runway.reference","source_group":"LFTM Runways","vsmr_group_ids":[],"geometry_role":"runway_centerline"},"geometry":{"type":"LineString","coordinates":[[5.727257778,44.458841944],[5.726975,44.454349722]]}}]}
