{"type":"FeatureCollection","name":"LFTP AVISO","bbox":[6.161041944,43.866725,6.168746944,43.869993889],"metadata":{"schema":"vSMR AVISO","schema_version":2,"geometry_mode":"shared","airport":"LFTP","coordinate_reference_system":"WGS84","coordinate_order":"longitude, latitude","default_color_palette":"dark","color_palettes":["dark","light"],"background_colors":{"dark":"#434A4F","light":"#434A4F"},"runways":[{"ends":["16","34"],"headings":[158,338],"thresholds":[[6.162205833,43.869891944],[6.163818889,43.866725]]},{"ends":["07","25"],"headings":[74,254],"thresholds":[[6.161041944,43.868610833],[6.168746944,43.869993889]]}],"saved_active_runways":[],"saved_active_airport_modes":[],"airport_reference":[6.162777778,43.868888889],"feature_count":2,"style_count":1,"layer_counts":{"Runways":2},"category_counts":{"Runway centerlines":2},"geometry_source":"IWantPizzaa/France-Ground-Layouts","geometry_source_url":"https://github.com/IWantPizzaa/France-Ground-Layouts","geometry_license":"GPL-3.0"},"styles":{"runway.reference":{"name":"Runway centerlines","layer":"Runways","object_type":"Line","paint":{"stroke":"#CCCCCC","stroke-width":2,"stroke-opacity":1},"feature_count":2}},"vsmr_groups":[],"features":[{"type":"Feature","id":"LFTP-4509a69a2970c6765a69","properties":{"airport":"LFTP","name":"16/34","layer":"Runways","category":"Runway centerlines","object_type":"Line","style_id":"runway.reference","source_group":"LFTP Runways","vsmr_group_ids":[],"geometry_role":"runway_centerline"},"geometry":{"type":"LineString","coordinates":[[6.162205833,43.869891944],[6.163818889,43.866725]]}},{"type":"Feature","id":"LFTP-31ceaad6aebd54a219bb","properties":{"airport":"LFTP","name":"07/25","layer":"Runways","category":"Runway centerlines","object_type":"Line","style_id":"runway.reference","source_group":"LFTP Runways","vsmr_group_ids":[],"geometry_role":"runway_centerline"},"geometry":{"type":"LineString","coordinates":[[6.161041944,43.868610833],[6.168746944,43.869993889]]}}]}
