{"type":"FeatureCollection","name":"LFYR AVISO","bbox":[1.686138889,47.312402778,1.696005833,47.320013889],"metadata":{"schema":"vSMR AVISO","schema_version":2,"geometry_mode":"shared","airport":"LFYR","coordinate_reference_system":"WGS84","coordinate_order":"longitude, latitude","default_color_palette":"dark","color_palettes":["dark","light"],"background_colors":{"dark":"#434A4F","light":"#434A4F"},"runways":[{"ends":["04R","22L"],"headings":[44,224],"thresholds":[[1.687055833,47.312402778],[1.696005833,47.318421944]]},{"ends":["04L","22R"],"headings":[44,224],"thresholds":[[1.686138889,47.314943889],[1.693652778,47.320013889]]}],"saved_active_runways":[],"saved_active_airport_modes":[],"airport_reference":[1.688888889,47.320832778],"feature_count":2,"style_count":1,"layer_counts":{"Runways":2},"category_counts":{"Runway centerlines":2},"geometry_source":"IWantPizzaa/France-Ground-Layouts","geometry_source_url":"https://github.com/IWantPizzaa/France-Ground-Layouts","geometry_license":"GPL-3.0"},"styles":{"runway.reference":{"name":"Runway centerlines","layer":"Runways","object_type":"Line","paint":{"stroke":"#CCCCCC","stroke-width":2,"stroke-opacity":1},"feature_count":2}},"vsmr_groups":[],"features":[{"type":"Feature","id":"LFYR-4c6312c52934e7497577","properties":{"airport":"LFYR","name":"04R/22L","layer":"Runways","category":"Runway centerlines","object_type":"Line","style_id":"runway.reference","source_group":"LFYR Runways","vsmr_group_ids":[],"geometry_role":"runway_centerline"},"geometry":{"type":"LineString","coordinates":[[1.687055833,47.312402778],[1.696005833,47.318421944]]}},{"type":"Feature","id":"LFYR-0291a731d641abf02949","properties":{"airport":"LFYR","name":"04L/22R","layer":"Runways","category":"Runway centerlines","object_type":"Line","style_id":"runway.reference","source_group":"LFYR Runways","vsmr_group_ids":[],"geometry_role":"runway_centerline"},"geometry":{"type":"LineString","coordinates":[[1.686138889,47.314943889],[1.693652778,47.320013889]]}}]}
