{"type":"FeatureCollection","name":"LFYS AVISO","bbox":[2.001930833,42.444802778,2.010646944,42.447093889],"metadata":{"schema":"vSMR AVISO","schema_version":2,"geometry_mode":"shared","airport":"LFYS","coordinate_reference_system":"WGS84","coordinate_order":"longitude, latitude","default_color_palette":"dark","color_palettes":["dark","light"],"background_colors":{"dark":"#434A4F","light":"#434A4F"},"runways":[{"ends":["07","25"],"headings":[69,249],"thresholds":[[2.001930833,42.444802778],[2.010646944,42.447093889]]}],"saved_active_runways":[],"saved_active_airport_modes":[],"airport_reference":[2.010832778,42.447221944],"feature_count":1,"style_count":1,"layer_counts":{"Runways":1},"category_counts":{"Runway centerlines":1},"geometry_source":"IWantPizzaa/France-Ground-Layouts","geometry_source_url":"https://github.com/IWantPizzaa/France-Ground-Layouts","geometry_license":"GPL-3.0"},"styles":{"runway.reference":{"name":"Runway centerlines","layer":"Runways","object_type":"Line","paint":{"stroke":"#CCCCCC","stroke-width":2,"stroke-opacity":1},"feature_count":1}},"vsmr_groups":[],"features":[{"type":"Feature","id":"LFYS-449e0f9272055e92df80","properties":{"airport":"LFYS","name":"07/25","layer":"Runways","category":"Runway centerlines","object_type":"Line","style_id":"runway.reference","source_group":"LFYS Runways","vsmr_group_ids":[],"geometry_role":"runway_centerline"},"geometry":{"type":"LineString","coordinates":[[2.001930833,42.444802778],[2.010646944,42.447093889]]}}]}
