{"type":"FeatureCollection","name":"LFBY AVISO","bbox":[-1.396111111,43.49,-0.785555556,43.853888889],"metadata":{"schema":"vSMR AVISO","schema_version":2,"geometry_mode":"shared","airport":"LFBY","coordinate_reference_system":"WGS84","coordinate_order":"longitude, latitude","default_color_palette":"dark","color_palettes":["dark","light"],"background_colors":{"dark":"#434A4F","light":"#434A4F"},"runways":[{"ends":["07","25"],"headings":[73,253],"thresholds":[[-1.071525,43.688591944],[-1.066668889,43.689577778]]}],"saved_active_runways":[],"saved_active_airport_modes":[],"airport_reference":[-1.068888889,43.689166944],"feature_count":12,"style_count":2,"layer_counts":{"Guidance lines":1,"Labels":11},"category_counts":{"Points VFR":11,"Runways":1},"geometry_source":"local GNG/KMZ","geometry_source_url":"","geometry_license":"GPL-3.0"},"styles":{"line.runwayconcrete.555555":{"name":"Runways","layer":"Guidance lines","object_type":"Line","paint":{"stroke":"#111318","stroke-opacity":1,"stroke-width":1,"palette-overrides":{"light":{"stroke":"#555555"}}},"feature_count":1},"label.points-vfr":{"name":"Points VFR","layer":"Labels","object_type":"Label","paint":{"text-color":"#CCCCCC","text-font":"Arial","text-size":12,"text-halo-color":"#000000","text-halo-width":1,"text-anchor":"center","zoomLevel":7},"feature_count":11}},"vsmr_groups":[],"features":[{"type":"Feature","id":"LFBY-c946d1c779d68c12c87a","properties":{"airport":"LFBY","name":"LFBY Groundlayout","layer":"Guidance lines","category":"Runways","object_type":"Line","style_id":"line.runwayconcrete.555555","source_group":"LFBY Groundlayout","vsmr_group_ids":[],"geometry_role":"linework"},"geometry":{"type":"MultiLineString","coordinates":[[[-1.070916667,43.687],[-1.064805556,43.688194444]],[[-1.072083333,43.690222222],[-1.070916667,43.687]],[[-1.066,43.691416667],[-1.064805556,43.688194444]]]}},{"type":"Feature","id":"LFBY-63e1b50f0dc9092721fd","properties":{"airport":"LFBY","name":"NE","layer":"Labels","category":"Points VFR","object_type":"Label","style_id":"label.points-vfr","source_group":"LFBY Points VFR","vsmr_group_ids":[],"geometry_role":"text_label","text-field":"NE"},"geometry":{"type":"Point","coordinates":[-0.918888889,43.853888889]}},{"type":"Feature","id":"LFBY-064c1978e3639ca0ba79","properties":{"airport":"LFBY","name":"NG","layer":"Labels","category":"Points VFR","object_type":"Label","style_id":"label.points-vfr","source_group":"LFBY Points VFR","vsmr_group_ids":[],"geometry_role":"text_label","text-field":"NG"},"geometry":{"type":"Point","coordinates":[-0.966666667,43.823611111]}},{"type":"Feature","id":"LFBY-727ef78d5350ca3c4ca4","properties":{"airport":"LFBY","name":"NEA","layer":"Labels","category":"Points VFR","object_type":"Label","style_id":"label.points-vfr","source_group":"LFBY Points VFR","vsmr_group_ids":[],"geometry_role":"text_label","text-field":"NEA"},"geometry":{"type":"Point","coordinates":[-1.009444444,43.757222222]}},{"type":"Feature","id":"LFBY-431136fa37f05156f320","properties":{"airport":"LFBY","name":"N","layer":"Labels","category":"Points VFR","object_type":"Label","style_id":"label.points-vfr","source_group":"LFBY Points VFR","vsmr_group_ids":[],"geometry_role":"text_label","text-field":"N"},"geometry":{"type":"Point","coordinates":[-1.106666667,43.733888889]}},{"type":"Feature","id":"LFBY-4b3290ef59e7666b6459","properties":{"airport":"LFBY","name":"N2","layer":"Labels","category":"Points VFR","object_type":"Label","style_id":"label.points-vfr","source_group":"LFBY Points VFR","vsmr_group_ids":[],"geometry_role":"text_label","text-field":"N2"},"geometry":{"type":"Point","coordinates":[-1.073055556,43.698055556]}},{"type":"Feature","id":"LFBY-2bc3c998b88d88b76cca","properties":{"airport":"LFBY","name":"W","layer":"Labels","category":"Points VFR","object_type":"Label","style_id":"label.points-vfr","source_group":"LFBY Points VFR","vsmr_group_ids":[],"geometry_role":"text_label","text-field":"W"},"geometry":{"type":"Point","coordinates":[-1.396111111,43.629722222]}},{"type":"Feature","id":"LFBY-51cfffde354180822b6a","properties":{"airport":"LFBY","name":"S","layer":"Labels","category":"Points VFR","object_type":"Label","style_id":"label.points-vfr","source_group":"LFBY Points VFR","vsmr_group_ids":[],"geometry_role":"text_label","text-field":"S"},"geometry":{"type":"Point","coordinates":[-1.103611111,43.634166667]}},{"type":"Feature","id":"LFBY-35fd0fb3b040d50a0874","properties":{"airport":"LFBY","name":"E","layer":"Labels","category":"Points VFR","object_type":"Label","style_id":"label.points-vfr","source_group":"LFBY Points VFR","vsmr_group_ids":[],"geometry_role":"text_label","text-field":"E"},"geometry":{"type":"Point","coordinates":[-1.013888889,43.645277778]}},{"type":"Feature","id":"LFBY-b1c93cfb1c86eff9f810","properties":{"airport":"LFBY","name":"SEA","layer":"Labels","category":"Points VFR","object_type":"Label","style_id":"label.points-vfr","source_group":"LFBY Points VFR","vsmr_group_ids":[],"geometry_role":"text_label","text-field":"SEA"},"geometry":{"type":"Point","coordinates":[-0.909722222,43.524166667]}},{"type":"Feature","id":"LFBY-8340225111b8572fcb79","properties":{"airport":"LFBY","name":"SE","layer":"Labels","category":"Points VFR","object_type":"Label","style_id":"label.points-vfr","source_group":"LFBY Points VFR","vsmr_group_ids":[],"geometry_role":"text_label","text-field":"SE"},"geometry":{"type":"Point","coordinates":[-0.785555556,43.49]}},{"type":"Feature","id":"LFBY-6c68063ed6f580db7839","properties":{"airport":"LFBY","name":"BG","layer":"Labels","category":"Points VFR","object_type":"Label","style_id":"label.points-vfr","source_group":"LFBY Points VFR","vsmr_group_ids":[],"geometry_role":"text_label","text-field":"BG"},"geometry":{"type":"Point","coordinates":[-1.195,43.546666667]}}]}
