{"type":"FeatureCollection","name":"LFCH AVISO","bbox":[-1.220277778,44.586111111,-1.005555556,44.643611111],"metadata":{"schema":"vSMR AVISO","schema_version":2,"geometry_mode":"shared","airport":"LFCH","coordinate_reference_system":"WGS84","coordinate_order":"longitude, latitude","default_color_palette":"dark","color_palettes":["dark","light"],"background_colors":{"dark":"#434A4F","light":"#434A4F"},"runways":[{"ends":["07R","25L"],"headings":[72,252],"thresholds":[[-1.119955833,44.594099722],[-1.109093889,44.596546944]]},{"ends":["07","25"],"headings":[72,252],"thresholds":[[-1.119202778,44.594707778],[-1.108427778,44.597135833]]}],"saved_active_runways":[],"saved_active_airport_modes":[],"airport_reference":[-1.113888889,44.596943889],"feature_count":7,"style_count":3,"layer_counts":{"Guidance lines":2,"Labels":5},"category_counts":{"Grass runways":1,"Points VFR":5,"Runways":1},"geometry_source":"local GNG/KMZ","geometry_source_url":"","geometry_license":"GPL-3.0"},"styles":{"line.runwayconcrete.555555":{"name":"Runways","layer":"Guidance lines","object_type":"Line","paint":{"stroke":"#111318","stroke-opacity":1,"stroke-width":1,"palette-overrides":{"light":{"stroke":"#555555"}}},"feature_count":1},"line.runwaygrass.008000":{"name":"Grass runways","layer":"Guidance lines","object_type":"Line","paint":{"stroke":"#859A77","stroke-opacity":1,"stroke-width":1,"palette-overrides":{"light":{"stroke":"#008000"}}},"feature_count":1},"label.points-vfr":{"name":"Points VFR","layer":"Labels","object_type":"Label","paint":{"text-color":"#CCCCCC","text-font":"Arial","text-size":12,"text-halo-color":"#000000","text-halo-width":1,"text-anchor":"center","zoomLevel":7},"feature_count":5}},"vsmr_groups":[],"features":[{"type":"Feature","id":"LFCH-588627ce85f5b4cd2c90","properties":{"airport":"LFCH","name":"LFCH Groundlayout","layer":"Guidance lines","category":"Runways","object_type":"Line","style_id":"line.runwayconcrete.555555","source_group":"LFCH Groundlayout","vsmr_group_ids":[],"geometry_role":"linework"},"geometry":{"type":"MultiLineString","coordinates":[[[-1.116583333,44.593888889],[-1.106861111,44.595583333]],[[-1.117638889,44.597111111],[-1.116583333,44.593888889]],[[-1.107916667,44.598833333],[-1.106861111,44.595583333]]]}},{"type":"Feature","id":"LFCH-553fa6d0095c085e07a8","properties":{"airport":"LFCH","name":"LFCH Groundlayout","layer":"Guidance lines","category":"Grass runways","object_type":"Line","style_id":"line.runwaygrass.008000","source_group":"LFCH Groundlayout","vsmr_group_ids":[],"geometry_role":"linework"},"geometry":{"type":"MultiLineString","coordinates":[[[-1.11825,44.597611111],[-1.106138889,44.599805556]],[[-1.117166667,44.594388889],[-1.105055556,44.596583333]],[[-1.11825,44.597611111],[-1.117166667,44.594388889]],[[-1.106138889,44.599805556],[-1.105055556,44.596583333]]]}},{"type":"Feature","id":"LFCH-ebfa152b42f490e23556","properties":{"airport":"LFCH","name":"W","layer":"Labels","category":"Points VFR","object_type":"Label","style_id":"label.points-vfr","source_group":"LFCH Points VFR","vsmr_group_ids":[],"geometry_role":"text_label","text-field":"W"},"geometry":{"type":"Point","coordinates":[-1.211111111,44.598611111]}},{"type":"Feature","id":"LFCH-511d821b8b41cea0f12a","properties":{"airport":"LFCH","name":"NE","layer":"Labels","category":"Points VFR","object_type":"Label","style_id":"label.points-vfr","source_group":"LFCH Points VFR","vsmr_group_ids":[],"geometry_role":"text_label","text-field":"NE"},"geometry":{"type":"Point","coordinates":[-1.048333333,44.643611111]}},{"type":"Feature","id":"LFCH-bf814bf2ded20ba312f2","properties":{"airport":"LFCH","name":"E","layer":"Labels","category":"Points VFR","object_type":"Label","style_id":"label.points-vfr","source_group":"LFCH Points VFR","vsmr_group_ids":[],"geometry_role":"text_label","text-field":"E"},"geometry":{"type":"Point","coordinates":[-1.005555556,44.633333333]}},{"type":"Feature","id":"LFCH-ec26142544c984ede9ef","properties":{"airport":"LFCH","name":"N","layer":"Labels","category":"Points VFR","object_type":"Label","style_id":"label.points-vfr","source_group":"LFCH Points VFR","vsmr_group_ids":[],"geometry_role":"text_label","text-field":"N"},"geometry":{"type":"Point","coordinates":[-1.126944444,44.603333333]}},{"type":"Feature","id":"LFCH-3c3bea1631151a3d8905","properties":{"airport":"LFCH","name":"P","layer":"Labels","category":"Points VFR","object_type":"Label","style_id":"label.points-vfr","source_group":"LFCH Points VFR","vsmr_group_ids":[],"geometry_role":"text_label","text-field":"P"},"geometry":{"type":"Point","coordinates":[-1.220277778,44.586111111]}}]}
