{"type":"FeatureCollection","name":"LFCL AVISO","bbox":[1.495138889,43.548055556,1.661388889,43.693888889],"metadata":{"schema":"vSMR AVISO","schema_version":2,"geometry_mode":"shared","airport":"LFCL","coordinate_reference_system":"WGS84","coordinate_order":"longitude, latitude","default_color_palette":"dark","color_palettes":["dark","light"],"background_colors":{"dark":"#434A4F","light":"#434A4F"},"runways":[{"ends":["15","33"],"headings":[154,334],"thresholds":[[1.497174722,43.59],[1.501357778,43.583382778]]}],"saved_active_runways":[],"saved_active_airport_modes":[],"airport_reference":[1.498610833,43.587777778],"feature_count":4,"style_count":2,"layer_counts":{"Guidance lines":1,"Labels":3},"category_counts":{"Points VFR":3,"Runways":1},"geometry_source":"local GNG/KMZ","geometry_source_url":"","geometry_license":"GPL-3.0"},"styles":{"line.runwayconcrete.555555":{"name":"Runways","layer":"Guidance lines","object_type":"Line","paint":{"stroke":"#111318","stroke-opacity":1,"stroke-width":1,"palette-overrides":{"light":{"stroke":"#555555"}}},"feature_count":1},"label.points-vfr":{"name":"Points VFR","layer":"Labels","object_type":"Label","paint":{"text-color":"#CCCCCC","text-font":"Arial","text-size":12,"text-halo-color":"#000000","text-halo-width":1,"text-anchor":"center","zoomLevel":7},"feature_count":3}},"vsmr_groups":[],"features":[{"type":"Feature","id":"LFCL-5ca88c0012f05c7b24e5","properties":{"airport":"LFCL","name":"LFCL Groundlayout","layer":"Guidance lines","category":"Runways","object_type":"Line","style_id":"line.runwayconcrete.555555","source_group":"LFCL Groundlayout","vsmr_group_ids":[],"geometry_role":"linework"},"geometry":{"type":"MultiLineString","coordinates":[[[1.495138889,43.589305556],[1.499333333,43.582694444]],[[1.49925,43.590694444],[1.495138889,43.589305556]],[[1.503472222,43.584111111],[1.499333333,43.582694444]]]}},{"type":"Feature","id":"LFCL-35c1643cfa4a63873587","properties":{"airport":"LFCL","name":"AE","layer":"Labels","category":"Points VFR","object_type":"Label","style_id":"label.points-vfr","source_group":"LFCL Points VFR","vsmr_group_ids":[],"geometry_role":"text_label","text-field":"AE"},"geometry":{"type":"Point","coordinates":[1.661388889,43.693888889]}},{"type":"Feature","id":"LFCL-d23eb97e9cb41225bdaf","properties":{"airport":"LFCL","name":"DS","layer":"Labels","category":"Points VFR","object_type":"Label","style_id":"label.points-vfr","source_group":"LFCL Points VFR","vsmr_group_ids":[],"geometry_role":"text_label","text-field":"DS"},"geometry":{"type":"Point","coordinates":[1.608333333,43.548055556]}},{"type":"Feature","id":"LFCL-7896e30dbc3f826a8d1d","properties":{"airport":"LFCL","name":"DN","layer":"Labels","category":"Points VFR","object_type":"Label","style_id":"label.points-vfr","source_group":"LFCL Points VFR","vsmr_group_ids":[],"geometry_role":"text_label","text-field":"DN"},"geometry":{"type":"Point","coordinates":[1.524722222,43.654166667]}}]}
