{"type":"FeatureCollection","name":"LFGB AVISO","bbox":[7.348055556,47.688888889,7.493055556,47.781388889],"metadata":{"schema":"vSMR AVISO","schema_version":2,"geometry_mode":"shared","airport":"LFGB","coordinate_reference_system":"WGS84","coordinate_order":"longitude, latitude","default_color_palette":"dark","color_palettes":["dark","light"],"background_colors":{"dark":"#434A4F","light":"#434A4F"},"feature_count":4,"style_count":1,"layer_counts":{"Labels":4},"category_counts":{"Points VFR":4},"geometry_source":"local GNG/KMZ","geometry_source_url":"","geometry_license":"GPL-3.0"},"styles":{"label.points-vfr":{"name":"Points VFR","layer":"Labels","object_type":"Label","paint":{"text-color":"#CCCCCC","text-font":"Arial","text-size":12,"text-halo-color":"#000000","text-halo-width":1,"text-anchor":"center","zoomLevel":7},"feature_count":4}},"vsmr_groups":[],"features":[{"type":"Feature","id":"LFGB-771479029a727984c3d7","properties":{"airport":"LFGB","name":"NH","layer":"Labels","category":"Points VFR","object_type":"Label","style_id":"label.points-vfr","source_group":"LFGB Points VFR","vsmr_group_ids":[],"geometry_role":"text_label","text-field":"NH"},"geometry":{"type":"Point","coordinates":[7.405,47.781388889]}},{"type":"Feature","id":"LFGB-fece6b63e1609c5e8542","properties":{"airport":"LFGB","name":"WH","layer":"Labels","category":"Points VFR","object_type":"Label","style_id":"label.points-vfr","source_group":"LFGB Points VFR","vsmr_group_ids":[],"geometry_role":"text_label","text-field":"WH"},"geometry":{"type":"Point","coordinates":[7.348055556,47.727777778]}},{"type":"Feature","id":"LFGB-1afaa030ab28c7379a85","properties":{"airport":"LFGB","name":"EH","layer":"Labels","category":"Points VFR","object_type":"Label","style_id":"label.points-vfr","source_group":"LFGB Points VFR","vsmr_group_ids":[],"geometry_role":"text_label","text-field":"EH"},"geometry":{"type":"Point","coordinates":[7.493055556,47.780833333]}},{"type":"Feature","id":"LFGB-90f1bf8d0c85fb082690","properties":{"airport":"LFGB","name":"SH","layer":"Labels","category":"Points VFR","object_type":"Label","style_id":"label.points-vfr","source_group":"LFGB Points VFR","vsmr_group_ids":[],"geometry_role":"text_label","text-field":"SH"},"geometry":{"type":"Point","coordinates":[7.361944444,47.688888889]}}]}
