{"type":"FeatureCollection","name":"LFHM AVISO","bbox":[6.615833333,45.795833333,6.681111111,45.845],"metadata":{"schema":"vSMR AVISO","schema_version":2,"geometry_mode":"shared","airport":"LFHM","coordinate_reference_system":"WGS84","coordinate_order":"longitude, latitude","default_color_palette":"dark","color_palettes":["dark","light"],"background_colors":{"dark":"#434A4F","light":"#434A4F"},"feature_count":3,"style_count":1,"layer_counts":{"Labels":3},"category_counts":{"Points VFR":3},"geometry_source":"local GNG/KMZ","geometry_source_url":"","geometry_license":"GPL-3.0"},"styles":{"label.points-vfr":{"name":"Points VFR","layer":"Labels","object_type":"Label","paint":{"text-color":"#CCCCCC","text-font":"Arial","text-size":12,"text-halo-color":"#000000","text-halo-width":1,"text-anchor":"center","zoomLevel":7},"feature_count":3}},"vsmr_groups":[],"features":[{"type":"Feature","id":"LFHM-99c10ea693db2ee8f9a3","properties":{"airport":"LFHM","name":"N","layer":"Labels","category":"Points VFR","object_type":"Label","style_id":"label.points-vfr","source_group":"LFHM Points VFR","vsmr_group_ids":[],"geometry_role":"text_label","text-field":"N"},"geometry":{"type":"Point","coordinates":[6.625555556,45.845]}},{"type":"Feature","id":"LFHM-7946d664d3790cc60a19","properties":{"airport":"LFHM","name":"WH","layer":"Labels","category":"Points VFR","object_type":"Label","style_id":"label.points-vfr","source_group":"LFHM Points VFR","vsmr_group_ids":[],"geometry_role":"text_label","text-field":"WH"},"geometry":{"type":"Point","coordinates":[6.615833333,45.795833333]}},{"type":"Feature","id":"LFHM-d93c16da5dc6f0c799ce","properties":{"airport":"LFHM","name":"EH","layer":"Labels","category":"Points VFR","object_type":"Label","style_id":"label.points-vfr","source_group":"LFHM Points VFR","vsmr_group_ids":[],"geometry_role":"text_label","text-field":"EH"},"geometry":{"type":"Point","coordinates":[6.681111111,45.844444444]}}]}
