{"type":"FeatureCollection","name":"LFHU AVISO","bbox":[6.02222,45.0439,6.14167,45.0792],"metadata":{"schema":"vSMR AVISO","schema_version":2,"geometry_mode":"shared","airport":"LFHU","coordinate_reference_system":"WGS84","coordinate_order":"longitude, latitude","default_color_palette":"dark","color_palettes":["dark","light"],"background_colors":{"dark":"#434A4F","light":"#434A4F"},"feature_count":4,"style_count":1,"layer_counts":{"Labels":4},"category_counts":{"Points VFR":4},"geometry_source":"local GNG/KMZ","geometry_source_url":"","geometry_license":"GPL-3.0"},"styles":{"label.points-vfr":{"name":"Points VFR","layer":"Labels","object_type":"Label","paint":{"text-color":"#CCCCCC","text-font":"Arial","text-size":12,"text-halo-color":"#000000","text-halo-width":1,"text-anchor":"center","zoomLevel":7},"feature_count":4}},"vsmr_groups":[],"features":[{"type":"Feature","id":"LFHU-69c76041be40c0915362","properties":{"airport":"LFHU","name":"S","layer":"Labels","category":"Points VFR","object_type":"Label","style_id":"label.points-vfr","source_group":"LFHU Points VFR","vsmr_group_ids":[],"geometry_role":"text_label","text-field":"S"},"geometry":{"type":"Point","coordinates":[6.105,45.0717]}},{"type":"Feature","id":"LFHU-0a531e2ed1c507512639","properties":{"airport":"LFHU","name":"E","layer":"Labels","category":"Points VFR","object_type":"Label","style_id":"label.points-vfr","source_group":"LFHU Points VFR","vsmr_group_ids":[],"geometry_role":"text_label","text-field":"E"},"geometry":{"type":"Point","coordinates":[6.125,45.0792]}},{"type":"Feature","id":"LFHU-4e5767aefec56e7535b3","properties":{"airport":"LFHU","name":"W","layer":"Labels","category":"Points VFR","object_type":"Label","style_id":"label.points-vfr","source_group":"LFHU Points VFR","vsmr_group_ids":[],"geometry_role":"text_label","text-field":"W"},"geometry":{"type":"Point","coordinates":[6.02222,45.075]}},{"type":"Feature","id":"LFHU-7f7785c98e899b49ca9b","properties":{"airport":"LFHU","name":"SE","layer":"Labels","category":"Points VFR","object_type":"Label","style_id":"label.points-vfr","source_group":"LFHU Points VFR","vsmr_group_ids":[],"geometry_role":"text_label","text-field":"SE"},"geometry":{"type":"Point","coordinates":[6.14167,45.0439]}}]}
