{"type":"FeatureCollection","name":"LFIP AVISO","bbox":[0.359444444,42.745277778,0.463055556,42.904722222],"metadata":{"schema":"vSMR AVISO","schema_version":2,"geometry_mode":"shared","airport":"LFIP","coordinate_reference_system":"WGS84","coordinate_order":"longitude, latitude","default_color_palette":"dark","color_palettes":["dark","light"],"background_colors":{"dark":"#434A4F","light":"#434A4F"},"feature_count":4,"style_count":1,"layer_counts":{"Labels":4},"category_counts":{"Points VFR":4},"geometry_source":"local GNG/KMZ","geometry_source_url":"","geometry_license":"GPL-3.0"},"styles":{"label.points-vfr":{"name":"Points VFR","layer":"Labels","object_type":"Label","paint":{"text-color":"#CCCCCC","text-font":"Arial","text-size":12,"text-halo-color":"#000000","text-halo-width":1,"text-anchor":"center","zoomLevel":7},"feature_count":4}},"vsmr_groups":[],"features":[{"type":"Feature","id":"LFIP-52226846c3b962ef59af","properties":{"airport":"LFIP","name":"E","layer":"Labels","category":"Points VFR","object_type":"Label","style_id":"label.points-vfr","source_group":"LFIP Points VFR","vsmr_group_ids":[],"geometry_role":"text_label","text-field":"E"},"geometry":{"type":"Point","coordinates":[0.463055556,42.802222222]}},{"type":"Feature","id":"LFIP-572924a358f5d3de0781","properties":{"airport":"LFIP","name":"N1","layer":"Labels","category":"Points VFR","object_type":"Label","style_id":"label.points-vfr","source_group":"LFIP Points VFR","vsmr_group_ids":[],"geometry_role":"text_label","text-field":"N1"},"geometry":{"type":"Point","coordinates":[0.359444444,42.904722222]}},{"type":"Feature","id":"LFIP-92947f212f6e892f670d","properties":{"airport":"LFIP","name":"S","layer":"Labels","category":"Points VFR","object_type":"Label","style_id":"label.points-vfr","source_group":"LFIP Points VFR","vsmr_group_ids":[],"geometry_role":"text_label","text-field":"S"},"geometry":{"type":"Point","coordinates":[0.409166667,42.745277778]}},{"type":"Feature","id":"LFIP-dfee87ab61c7b838b7f2","properties":{"airport":"LFIP","name":"N","layer":"Labels","category":"Points VFR","object_type":"Label","style_id":"label.points-vfr","source_group":"LFIP Points VFR","vsmr_group_ids":[],"geometry_role":"text_label","text-field":"N"},"geometry":{"type":"Point","coordinates":[0.408611111,42.809444444]}}]}
