{"type":"FeatureCollection","name":"LFJD AVISO","bbox":[5.455555556,46.044722222,5.455555556,46.044722222],"metadata":{"schema":"vSMR AVISO","schema_version":2,"airport":"LFJD","coordinate_reference_system":"WGS84","coordinate_order":"longitude, latitude","default_color_palette":"night","color_palettes":["night","day"],"background_colors":{"night":"#434A4F","day":"#434A4F"},"geometry_mode":"shared","feature_count":1,"style_count":2,"layer_counts":{"Labels":1},"category_counts":{"Points VFR":1},"geometry_source":"local GNG/KMZ","geometry_source_url":"","geometry_license":"GPL-3.0"},"styles":{"label.text.label.labels":{"name":"Labels","layer":"Labels","object_type":"Label","paint":{"text-anchor":"center","text-color":"#CCCCCC","text-halo-color":"#000000","text-halo-width":1,"text-size":12,"zoomLevel":5},"feature_count":0},"label.points-vfr":{"name":"Points VFR","layer":"Labels","object_type":"Label","paint":{"text-color":"#CCCCCC","text-font":"Arial","text-size":12,"text-halo-color":"#000000","text-halo-width":1,"text-anchor":"center","zoomLevel":7},"feature_count":1}},"features":[{"type":"Feature","id":"LFJD-588491547c379a3f31aa","properties":{"airport":"LFJD","name":"W","layer":"Labels","category":"Points VFR","object_type":"Label","style_id":"label.points-vfr","source_group":"LFJD Points VFR","vsmr_group_ids":[],"geometry_role":"text_label","text-field":"W"},"geometry":{"type":"Point","coordinates":[5.455555556,46.044722222]}}]}
