{"type":"FeatureCollection","name":"LFJE AVISO","bbox":[5.355277778,44.4625,5.365833333,44.513055556],"metadata":{"schema":"vSMR AVISO","schema_version":2,"airport":"LFJE","coordinate_reference_system":"WGS84","coordinate_order":"longitude, latitude","default_color_palette":"night","color_palettes":["night","day"],"background_colors":{"night":"#434A4F","day":"#434A4F"},"geometry_mode":"shared","feature_count":2,"style_count":2,"layer_counts":{"Labels":2},"category_counts":{"Points VFR":2},"geometry_source":"local GNG/KMZ","geometry_source_url":"","geometry_license":"GPL-3.0"},"styles":{"label.text.label.labels":{"name":"Labels","layer":"Labels","object_type":"Label","paint":{"text-anchor":"center","text-color":"#CCCCCC","text-halo-color":"#000000","text-halo-width":1,"text-size":12,"zoomLevel":0},"feature_count":0},"label.points-vfr":{"name":"Points VFR","layer":"Labels","object_type":"Label","paint":{"text-color":"#CCCCCC","text-font":"Arial","text-size":12,"text-halo-color":"#000000","text-halo-width":1,"text-anchor":"center","zoomLevel":7},"feature_count":2}},"features":[{"type":"Feature","id":"LFJE-715490c4fb8a84fc8224","properties":{"airport":"LFJE","name":"S","layer":"Labels","category":"Points VFR","object_type":"Label","style_id":"label.points-vfr","source_group":"LFJE Points VFR","vsmr_group_ids":[],"geometry_role":"text_label","text-field":"S"},"geometry":{"type":"Point","coordinates":[5.365833333,44.4625]}},{"type":"Feature","id":"LFJE-d8614f1182b043c1301a","properties":{"airport":"LFJE","name":"NW","layer":"Labels","category":"Points VFR","object_type":"Label","style_id":"label.points-vfr","source_group":"LFJE Points VFR","vsmr_group_ids":[],"geometry_role":"text_label","text-field":"NW"},"geometry":{"type":"Point","coordinates":[5.355277778,44.513055556]}}]}
