{"type":"FeatureCollection","name":"LFLI AVISO","bbox":[5.9,46.121666667,6.68,46.443333333],"metadata":{"schema":"vSMR AVISO","schema_version":2,"geometry_mode":"shared","airport":"LFLI","coordinate_reference_system":"WGS84","coordinate_order":"longitude, latitude","default_color_palette":"dark","color_palettes":["dark","light"],"background_colors":{"dark":"#434A4F","light":"#434A4F"},"feature_count":9,"style_count":1,"layer_counts":{"Labels":9},"category_counts":{"Points VFR":9},"geometry_source":"local GNG/KMZ","geometry_source_url":"","geometry_license":"GPL-3.0"},"styles":{"label.points-vfr":{"name":"Points VFR","layer":"Labels","object_type":"Label","paint":{"text-color":"#CCCCCC","text-font":"Arial","text-size":12,"text-halo-color":"#000000","text-halo-width":1,"text-anchor":"center","zoomLevel":7},"feature_count":9}},"vsmr_groups":[],"features":[{"type":"Feature","id":"LFLI-d2a442385d04ab69aedf","properties":{"airport":"LFLI","name":"R","layer":"Labels","category":"Points VFR","object_type":"Label","style_id":"label.points-vfr","source_group":"LFLI Points VFR","vsmr_group_ids":[],"geometry_role":"text_label","text-field":"R"},"geometry":{"type":"Point","coordinates":[6.261111111,46.141944444]}},{"type":"Feature","id":"LFLI-f7f88e4b6a857794f84f","properties":{"airport":"LFLI","name":"E","layer":"Labels","category":"Points VFR","object_type":"Label","style_id":"label.points-vfr","source_group":"LFLI Points VFR","vsmr_group_ids":[],"geometry_role":"text_label","text-field":"E"},"geometry":{"type":"Point","coordinates":[6.363333333,46.346666667]}},{"type":"Feature","id":"LFLI-3b269c21de1b62a2c256","properties":{"airport":"LFLI","name":"N","layer":"Labels","category":"Points VFR","object_type":"Label","style_id":"label.points-vfr","source_group":"LFLI Points VFR","vsmr_group_ids":[],"geometry_role":"text_label","text-field":"N"},"geometry":{"type":"Point","coordinates":[6.153333333,46.355]}},{"type":"Feature","id":"LFLI-106f8b6f32dbc60014b4","properties":{"airport":"LFLI","name":"W","layer":"Labels","category":"Points VFR","object_type":"Label","style_id":"label.points-vfr","source_group":"LFLI Points VFR","vsmr_group_ids":[],"geometry_role":"text_label","text-field":"W"},"geometry":{"type":"Point","coordinates":[5.995,46.228333333]}},{"type":"Feature","id":"LFLI-479dcdb90da5a4831542","properties":{"airport":"LFLI","name":"SW","layer":"Labels","category":"Points VFR","object_type":"Label","style_id":"label.points-vfr","source_group":"LFLI Points VFR","vsmr_group_ids":[],"geometry_role":"text_label","text-field":"SW"},"geometry":{"type":"Point","coordinates":[5.9,46.121666667]}},{"type":"Feature","id":"LFLI-9befea9575325e5131d9","properties":{"airport":"LFLI","name":"S","layer":"Labels","category":"Points VFR","object_type":"Label","style_id":"label.points-vfr","source_group":"LFLI Points VFR","vsmr_group_ids":[],"geometry_role":"text_label","text-field":"S"},"geometry":{"type":"Point","coordinates":[6.1,46.133333333]}},{"type":"Feature","id":"LFLI-9e409b122514686096c5","properties":{"airport":"LFLI","name":"SE","layer":"Labels","category":"Points VFR","object_type":"Label","style_id":"label.points-vfr","source_group":"LFLI Points VFR","vsmr_group_ids":[],"geometry_role":"text_label","text-field":"SE"},"geometry":{"type":"Point","coordinates":[6.173333333,46.213333333]}},{"type":"Feature","id":"LFLI-233348ec96342e0b2350","properties":{"airport":"LFLI","name":"BIVLO","layer":"Labels","category":"Points VFR","object_type":"Label","style_id":"label.points-vfr","source_group":"LFLI Points VFR","vsmr_group_ids":[],"geometry_role":"text_label","text-field":"BIVLO"},"geometry":{"type":"Point","coordinates":[6.253333333,46.196666667]}},{"type":"Feature","id":"LFLI-95f658412501275bd2b8","properties":{"airport":"LFLI","name":"MOLUS","layer":"Labels","category":"Points VFR","object_type":"Label","style_id":"label.points-vfr","source_group":"LFLI Points VFR","vsmr_group_ids":[],"geometry_role":"text_label","text-field":"MOLUS"},"geometry":{"type":"Point","coordinates":[6.68,46.443333333]}}]}
