{"type":"FeatureCollection","name":"LFMA AVISO","bbox":[5.344160419191848,43.48154727670912,5.394970420357577,43.52188605151059],"metadata":{"schema":"vSMR AVISO","schema_version":2,"geometry_mode":"shared","airport":"LFMA","coordinate_reference_system":"WGS84","coordinate_order":"longitude, latitude","default_color_palette":"dark","color_palettes":["dark","light"],"background_colors":{"dark":"#434A4F","light":"#434A4F"},"runways":[{"ends":["14","32"],"headings":[144,324],"thresholds":[[5.362591944,43.510432778],[5.370435833,43.502080833]]}],"saved_active_runways":[],"saved_active_airport_modes":[],"airport_reference":[5.367221944,43.505277778],"feature_count":9,"style_count":10,"layer_counts":{"Airfield surfaces":9},"category_counts":{"":9},"geometry_source":"local GNG/KMZ","geometry_source_url":"","geometry_license":"GPL-3.0"},"styles":{"line.runwayconcrete.555555":{"name":"Runways","layer":"Guidance lines","object_type":"Line","paint":{"stroke":"#111318","stroke-opacity":1,"stroke-width":1,"palette-overrides":{"light":{"stroke":"#555555"}}},"feature_count":0},"line.taxiway.c0b631":{"name":"Taxiways","layer":"Guidance lines","object_type":"Line","paint":{"stroke":"#4E5A69","stroke-opacity":1,"stroke-width":1,"palette-overrides":{"light":{"stroke":"#C0B631"}}},"feature_count":0},"line.apronsurface.808080":{"name":"Apron Surface","layer":"Guidance lines","object_type":"Line","paint":{"stroke":"#808080","stroke-opacity":1,"stroke-width":1,"palette-overrides":{"light":{"stroke":"#808080"}}},"feature_count":0},"line.stopbar.7e0000":{"name":"Stopbars","layer":"Guidance lines","object_type":"Line","paint":{"stroke":"#7E0000","stroke-opacity":1,"stroke-width":1,"palette-overrides":{"light":{"stroke":"#7E0000"}}},"feature_count":0},"line.twr-ctr.000000":{"name":"TWR-CTR","layer":"Guidance lines","object_type":"Line","paint":{"stroke":"#000000","stroke-opacity":1,"stroke-width":1,"palette-overrides":{"light":{"stroke":"#000000"}}},"feature_count":0},"line.centerlines.ffff00":{"name":"Centerlines","layer":"Guidance lines","object_type":"Line","paint":{"stroke":"#FFFF00","stroke-opacity":1,"stroke-width":1,"palette-overrides":{"light":{"stroke":"#FFFF00"}}},"feature_count":0},"line.labels.808080":{"name":"Labels","layer":"Guidance lines","object_type":"Line","paint":{"stroke":"#808080","stroke-opacity":1,"stroke-width":1,"palette-overrides":{"light":{"stroke":"#808080"}}},"feature_count":0},"label.gates":{"name":"Gates","layer":"Labels","object_type":"Label","paint":{"text-color":"#CCCCCC","text-font":"Arial","text-size":12,"text-halo-color":"#000000","text-halo-width":1,"text-anchor":"center","zoomLevel":9},"feature_count":0},"label.taxiways":{"name":"Taxiways","layer":"Labels","object_type":"Label","paint":{"text-color":"#CCCCCC","text-font":"Arial","text-size":12,"text-halo-color":"#000000","text-halo-width":1,"text-anchor":"center","zoomLevel":7},"feature_count":0},"polygon":{"name":"","layer":"Airfield surfaces","object_type":"Area","paint":{"fill":"#CCCCCC","fill-opacity":1},"feature_count":9}},"vsmr_groups":[],"features":[{"type":"Feature","id":"LFMA-c13edaf8eaf60d080c14","properties":{"airport":"LFMA","name":"LFMA_Background","layer":"Airfield surfaces","category":"","object_type":"Area","style_id":"polygon","source_group":"LFMA_Background","vsmr_group_ids":[],"geometry_role":"filled_region"},"geometry":{"type":"Polygon","coordinates":[[[5.368606704851613,43.52188605151059],[5.344160419191848,43.50953184476362],[5.370122503679009,43.48154727670912],[5.394970420357577,43.49428178148654],[5.368606704851613,43.52188605151059]]]}},{"type":"Feature","id":"LFMA-bffeae181ac7bda70df8","properties":{"airport":"LFMA","name":"LFMA_Base","layer":"Airfield surfaces","category":"","object_type":"Area","style_id":"polygon","source_group":"LFMA_Base","vsmr_group_ids":[],"geometry_role":"filled_region"},"geometry":{"type":"Polygon","coordinates":[[[5.361888885454571,43.51143709576216],[5.361582080832024,43.51128122450334],[5.36150876877324,43.51123578337211],[5.361455478710237,43.51118458782174],[5.361431362292195,43.51111859899756],[5.361438137880946,43.51105014033816],[5.361482052590993,43.51098365179349],[5.361544677676071,43.51092824036891],[5.361633759602946,43.51088497053365],[5.361721467543717,43.51085404674939],[5.361806521765342,43.51085454315076],[5.361885391364294,43.51085508494881],[5.361934711641776,43.51084350789027],[5.361999242707087,43.51081387571497],[5.362066583917276,43.51076403665064],[5.365727687112443,43.50687462780634],[5.365780908413229,43.50678289540984],[5.365772357399353,43.50670934172577],[5.365756327041831,43.5066385698629],[5.365702746657981,43.50657080181608],[5.365649663835703,43.5065384751907],[5.364663928232421,43.50604311528313],[5.364544971930152,43.50600445756594],[5.364468088509842,43.50601729390706],[5.364413834274058,43.50603541646088],[5.364393676661019,43.50607237344629],[5.364398046779765,43.50611596597478],[5.364415171542854,43.5061308357269],[5.364439902253193,43.50628606653718],[5.364455319605328,43.50631321833529],[5.364476203259234,43.50632806037078],[5.363376157471514,43.50754996247366],[5.363003483143556,43.50737956981264],[5.364024411298192,43.50629456205819],[5.363288074662826,43.5059250856044],[5.364323360567711,43.50481620260337],[5.365063132231418,43.50519351686119],[5.364661249828362,43.50562046045575],[5.364627012786141,43.50572568499757],[5.364644940058807,43.505797806271],[5.364692823053316,43.50586152699088],[5.36475946192242,43.50592238282913],[5.364844703801575,43.50596946868558],[5.364967266265712,43.50599719335766],[5.365083827416304,43.50599905996067],[5.365164049001699,43.50595620655025],[5.365238536716735,43.50590657902276],[5.36529973461824,43.50584750657185],[5.366616656533378,43.50445264335585],[5.366585225457756,43.50440243884907],[5.366049634055987,43.50414952095988],[5.366141969118983,43.50404561932376],[5.366275449879428,43.50410797228101],[5.366222798155446,43.5041587980982],[5.366617169451406,43.50437405191154],[5.366691484316468,43.50436881077278],[5.368355001258925,43.50259675140394],[5.368354208437117,43.50254043812634],[5.368305504714261,43.50246528002232],[5.368233917116592,43.50239413131848],[5.368153921699541,43.50235248439429],[5.368031615297135,43.50231371066596],[5.367936334287413,43.50231441613937],[5.367827333735889,43.50234338267194],[5.367729424077547,43.50240810649166],[5.367631658196917,43.50248306895686],[5.366634158014783,43.50356099945236],[5.365813064317848,43.50314723232825],[5.367532728419127,43.50129709081618],[5.36836700916977,43.50172022823936],[5.368088804818873,43.50201412459492],[5.368091668066352,43.50209218244571],[5.368111743614696,43.50213939322015],[5.368168962922448,43.50219272890838],[5.36823487859399,43.50223704026257],[5.369228429922499,43.50273386931146],[5.369377042708956,43.50276092687231],[5.369523259660383,43.50274320269075],[5.369633862217176,43.50270270286124],[5.36968625504707,43.50266391475309],[5.372343602208107,43.49981341234712],[5.372351500977466,43.49974807445425],[5.372333277832373,43.49970725065196],[5.372288679458139,43.49967302302623],[5.372261037170361,43.49959002981906],[5.372288072776095,43.4995053495888],[5.372360946009143,43.49941776810893],[5.372458991118434,43.49936327875349],[5.372590975837548,43.49933797622107],[5.372658167246545,43.4993477157538],[5.373051048864623,43.4995534272629],[5.369987879251823,43.50280889776727],[5.3699676818144,43.50289219626622],[5.369955692583512,43.50300643846844],[5.369999506473489,43.50308221550205],[5.370062469733514,43.50313812019062],[5.37012527410236,43.50318275169365],[5.370628840571124,43.50343230917721],[5.370745446202633,43.50343426166522],[5.370811142034649,43.50340840623353],[5.370851522197122,43.50337851094234],[5.371739420709316,43.50241358719204],[5.372535314379525,43.50281454925057],[5.371385444507566,43.50380256695386],[5.371534290526537,43.503886018698],[5.370095056184352,43.50541967247249],[5.369762251536592,43.50524374248088],[5.369840550636975,43.50515426182453],[5.369465707887855,43.50495272948431],[5.369407634181032,43.5049516005526],[5.369360596499082,43.50497066510414],[5.36931178238663,43.5050162566916],[5.367177056134043,43.50728782028197],[5.366474305956173,43.50694258486005],[5.366370892770798,43.50691842959886],[5.366220723471782,43.50692888406911],[5.366124385915589,43.5069498429442],[5.366088081068861,43.50696412841877],[5.366028660383528,43.50701440648882],[5.361888885454571,43.51143709576216]]]}},{"type":"Feature","id":"LFMA-99fb9522dbfb1746af09","properties":{"airport":"LFMA","name":"LFMA_Grass","layer":"Airfield surfaces","category":"","object_type":"Area","style_id":"polygon","source_group":"LFMA_Grass","vsmr_group_ids":[],"geometry_role":"filled_region"},"geometry":{"type":"Polygon","coordinates":[[[5.36949618499915,43.50332240868362],[5.369521894810609,43.50330548799759],[5.369601936467032,43.50325679552056],[5.36973000200099,43.50324016105595],[5.369838064508512,43.50323622238155],[5.369963837077831,43.50326142964327],[5.370297593655526,43.50343443802429],[5.370352869617454,43.50346957888258],[5.370403924666663,43.50351207042348],[5.370423327276841,43.50355897950034],[5.370413753641417,43.50359564747568],[5.367243308283909,43.50698804726729],[5.36719772147578,43.5070255469204],[5.367150605543185,43.50704540569605],[5.367066176144473,43.50705346259173],[5.367003194130828,43.50703813430052],[5.366573797853493,43.50683598655149],[5.366538811340647,43.50680744430235],[5.366502374390549,43.50676683498898],[5.36646676155375,43.50669370250016],[5.366471821453189,43.50659797201174],[5.366500327312682,43.50652994003058],[5.36949618499915,43.50332240868362]]]}},{"type":"Feature","id":"LFMA-c877a4ceb94d4c8548ad","properties":{"airport":"LFMA","name":"LFMA_Grass","layer":"Airfield surfaces","category":"","object_type":"Area","style_id":"polygon","source_group":"LFMA_Grass","vsmr_group_ids":[],"geometry_role":"filled_region"},"geometry":{"type":"Polygon","coordinates":[[[5.365346191324063,43.50616069352031],[5.365318681825344,43.50612065617561],[5.365299113533437,43.50608170991929],[5.366783392954848,43.50450675607273],[5.367463372040826,43.50484204431167],[5.367493793783411,43.50486366395307],[5.367521465945053,43.50491519670243],[5.367528646687314,43.5049749291832],[5.366260154842911,43.50631491032045],[5.366217827871422,43.50634856511009],[5.366142457802776,43.50639970993465],[5.366068398157879,43.50643129972269],[5.365960843372482,43.50644819040868],[5.365845056755088,43.50644329700517],[5.365749568787415,43.50641640869068],[5.365446287494295,43.50626688408954],[5.365346191324063,43.50616069352031]]]}},{"type":"Feature","id":"LFMA-62c1ca5e7de89a7c316a","properties":{"airport":"LFMA","name":"LFMA_Grass","layer":"Airfield surfaces","category":"","object_type":"Area","style_id":"polygon","source_group":"LFMA_Grass","vsmr_group_ids":[],"geometry_role":"filled_region"},"geometry":{"type":"Polygon","coordinates":[[[5.368529011893346,43.5026453491126],[5.368549405262559,43.50263025160138],[5.368593750373202,43.50262762354668],[5.368794291040935,43.50268592302741],[5.369078252175181,43.50281488644363],[5.369164712544905,43.50287633043632],[5.36922283891776,43.5029517811853],[5.369257596634665,43.50305614828942],[5.369230331653712,43.50314602886467],[5.36770601987683,43.50477392999541],[5.367673042895705,43.50479601884359],[5.367600522496598,43.50482414890253],[5.367559216273376,43.50481755618247],[5.367479741475673,43.50480204804819],[5.366812507884595,43.50447126391673],[5.368529011893346,43.5026453491126]]]}},{"type":"Feature","id":"LFMA-f54a64798065e0e752d0","properties":{"airport":"LFMA","name":"LFMA_Buildings","layer":"Airfield surfaces","category":"","object_type":"Area","style_id":"polygon","source_group":"LFMA_Buildings","vsmr_group_ids":[],"geometry_role":"filled_region"},"geometry":{"type":"Polygon","coordinates":[[[5.363018989359548,43.50623565663821],[5.363313023669747,43.5059118521575],[5.364029454014656,43.50627916736506],[5.363730809205114,43.50658708512105],[5.363018989359548,43.50623565663821]]]}},{"type":"Feature","id":"LFMA-5dc60207c690b075b4d0","properties":{"airport":"LFMA","name":"LFMA_Buildings","layer":"Airfield surfaces","category":"","object_type":"Area","style_id":"polygon","source_group":"LFMA_Buildings","vsmr_group_ids":[],"geometry_role":"filled_region"},"geometry":{"type":"Polygon","coordinates":[[[5.365557022938489,43.50343016104853],[5.365837058922731,43.50315919179391],[5.366589654545972,43.50354017549769],[5.366330218076644,43.50383410358597],[5.365557022938489,43.50343016104853]]]}},{"type":"Feature","id":"LFMA-1babb0424f35358308a6","properties":{"airport":"LFMA","name":"LFMA_Buildings","layer":"Airfield surfaces","category":"","object_type":"Area","style_id":"polygon","source_group":"LFMA_Buildings","vsmr_group_ids":[],"geometry_role":"filled_region"},"geometry":{"type":"Polygon","coordinates":[[[5.371552766634899,43.50389419031279],[5.371397392438051,43.50379957902205],[5.371731431419966,43.50349582934055],[5.371878695456531,43.50360047630498],[5.371552766634899,43.50389419031279]]]}},{"type":"Feature","id":"LFMA-b7f47ee145de0b811308","properties":{"airport":"LFMA","name":"LFMA_Buildings","layer":"Airfield surfaces","category":"","object_type":"Area","style_id":"polygon","source_group":"LFMA_Buildings","vsmr_group_ids":[],"geometry_role":"filled_region"},"geometry":{"type":"Polygon","coordinates":[[[5.372057497513632,43.50360114124339],[5.371785593060199,43.50343557221394],[5.372054690841377,43.50320812018293],[5.372321263527682,43.50338569886842],[5.372057497513632,43.50360114124339]]]}}]}
