{"type":"FeatureCollection","name":"LFME AVISO","bbox":[4.194722222,43.644175,4.633333333,43.952777778],"metadata":{"schema":"vSMR AVISO","schema_version":2,"geometry_mode":"shared","airport":"LFME","coordinate_reference_system":"WGS84","coordinate_order":"longitude, latitude","default_color_palette":"dark","color_palettes":["dark","light"],"background_colors":{"dark":"#434A4F","light":"#434A4F"},"feature_count":7,"style_count":1,"layer_counts":{"Labels":7},"category_counts":{"Points VFR":7},"geometry_source":"local GNG/KMZ","geometry_source_url":"","geometry_license":"GPL-3.0"},"styles":{"label.points-vfr":{"name":"Points VFR","layer":"Labels","object_type":"Label","paint":{"text-color":"#CCCCCC","text-font":"Arial","text-size":12,"text-halo-color":"#000000","text-halo-width":1,"text-anchor":"center","zoomLevel":7},"feature_count":7}},"vsmr_groups":[],"features":[{"type":"Feature","id":"LFME-c592cd58aeedb72f94dc","properties":{"airport":"LFME","name":"AL","layer":"Labels","category":"Points VFR","object_type":"Label","style_id":"label.points-vfr","source_group":"LFME Points VFR","vsmr_group_ids":[],"geometry_role":"text_label","text-field":"AL"},"geometry":{"type":"Point","coordinates":[4.5875,43.666388889]}},{"type":"Feature","id":"LFME-363cc1b30a0ae94e8917","properties":{"airport":"LFME","name":"BC","layer":"Labels","category":"Points VFR","object_type":"Label","style_id":"label.points-vfr","source_group":"LFME Points VFR","vsmr_group_ids":[],"geometry_role":"text_label","text-field":"BC"},"geometry":{"type":"Point","coordinates":[4.633333333,43.830277778]}},{"type":"Feature","id":"LFME-26bdcb6a2480d8cad777","properties":{"airport":"LFME","name":"CA","layer":"Labels","category":"Points VFR","object_type":"Label","style_id":"label.points-vfr","source_group":"LFME Points VFR","vsmr_group_ids":[],"geometry_role":"text_label","text-field":"CA"},"geometry":{"type":"Point","coordinates":[4.194722222,43.779444444]}},{"type":"Feature","id":"LFME-9801c14739f38adb9804","properties":{"airport":"LFME","name":"CS","layer":"Labels","category":"Points VFR","object_type":"Label","style_id":"label.points-vfr","source_group":"LFME Points VFR","vsmr_group_ids":[],"geometry_role":"text_label","text-field":"CS"},"geometry":{"type":"Point","coordinates":[4.478333333,43.952777778]}},{"type":"Feature","id":"LFME-f1b38d38124850b3a723","properties":{"airport":"LFME","name":"AS","layer":"Labels","category":"Points VFR","object_type":"Label","style_id":"label.points-vfr","source_group":"LFME Points VFR","vsmr_group_ids":[],"geometry_role":"text_label","text-field":"AS"},"geometry":{"type":"Point","coordinates":[4.213888889,43.681944444]}},{"type":"Feature","id":"LFME-db896b6ceb0be2e7d7ea","properties":{"airport":"LFME","name":"SG","layer":"Labels","category":"Points VFR","object_type":"Label","style_id":"label.points-vfr","source_group":"LFME Points VFR","vsmr_group_ids":[],"geometry_role":"text_label","text-field":"SG"},"geometry":{"type":"Point","coordinates":[4.432444444,43.644175]}},{"type":"Feature","id":"LFME-b2e5b4ff95455f07bb20","properties":{"airport":"LFME","name":"PA","layer":"Labels","category":"Points VFR","object_type":"Label","style_id":"label.points-vfr","source_group":"LFME Points VFR","vsmr_group_ids":[],"geometry_role":"text_label","text-field":"PA"},"geometry":{"type":"Point","coordinates":[4.544541667,43.69025]}}]}
