{"type":"FeatureCollection","name":"LFNA AVISO","bbox":[5.945555556,44.380277778,6.167777778,44.540833333],"metadata":{"schema":"vSMR AVISO","schema_version":2,"geometry_mode":"shared","airport":"LFNA","coordinate_reference_system":"WGS84","coordinate_order":"longitude, latitude","default_color_palette":"dark","color_palettes":["dark","light"],"background_colors":{"dark":"#434A4F","light":"#434A4F"},"runways":[{"ends":["02","20"],"headings":[23,203],"thresholds":[[6.033910833,44.449721944],[6.037868889,44.455516944]]}],"saved_active_runways":[],"saved_active_airport_modes":[],"airport_reference":[6.036666944,44.453888889],"feature_count":7,"style_count":3,"layer_counts":{"Guidance lines":2,"Labels":5},"category_counts":{"Grass runways":1,"Points VFR":5,"Runways":1},"geometry_source":"local GNG/KMZ","geometry_source_url":"","geometry_license":"GPL-3.0"},"styles":{"line.runwayconcrete.555555":{"name":"Runways","layer":"Guidance lines","object_type":"Line","paint":{"stroke":"#111318","stroke-opacity":1,"stroke-width":1,"palette-overrides":{"light":{"stroke":"#555555"}}},"feature_count":1},"line.runwaygrass.008000":{"name":"Grass runways","layer":"Guidance lines","object_type":"Line","paint":{"stroke":"#859A77","stroke-opacity":1,"stroke-width":1,"palette-overrides":{"light":{"stroke":"#008000"}}},"feature_count":1},"label.points-vfr":{"name":"Points VFR","layer":"Labels","object_type":"Label","paint":{"text-color":"#CCCCCC","text-font":"Arial","text-size":12,"text-halo-color":"#000000","text-halo-width":1,"text-anchor":"center","zoomLevel":7},"feature_count":5}},"vsmr_groups":[],"features":[{"type":"Feature","id":"LFNA-511d08016b07ab891624","properties":{"airport":"LFNA","name":"LFNA Groundlayout","layer":"Guidance lines","category":"Runways","object_type":"Line","style_id":"line.runwayconcrete.555555","source_group":"LFNA Groundlayout","vsmr_group_ids":[],"geometry_role":"linework"},"geometry":{"type":"MultiLineString","coordinates":[[[6.037833333,44.450555556],[6.040527778,44.454555556]],[[6.03375,44.452027778],[6.037833333,44.450555556]],[[6.036472222,44.456027778],[6.040527778,44.454555556]]]}},{"type":"Feature","id":"LFNA-2b97192184e4c17c3164","properties":{"airport":"LFNA","name":"LFNA Groundlayout","layer":"Guidance lines","category":"Grass runways","object_type":"Line","style_id":"line.runwaygrass.008000","source_group":"LFNA Groundlayout","vsmr_group_ids":[],"geometry_role":"linework"},"geometry":{"type":"MultiLineString","coordinates":[[[6.031861111,44.450444444],[6.035861111,44.45625]],[[6.035916667,44.448944444],[6.039916667,44.45475]],[[6.031861111,44.450444444],[6.035916667,44.448944444]],[[6.035861111,44.45625],[6.039916667,44.45475]]]}},{"type":"Feature","id":"LFNA-677736be24fb45c6238e","properties":{"airport":"LFNA","name":"S1","layer":"Labels","category":"Points VFR","object_type":"Label","style_id":"label.points-vfr","source_group":"LFNA Points VFR","vsmr_group_ids":[],"geometry_role":"text_label","text-field":"S1"},"geometry":{"type":"Point","coordinates":[6.020277778,44.420833333]}},{"type":"Feature","id":"LFNA-d95969bb515c901cd6a8","properties":{"airport":"LFNA","name":"E1","layer":"Labels","category":"Points VFR","object_type":"Label","style_id":"label.points-vfr","source_group":"LFNA Points VFR","vsmr_group_ids":[],"geometry_role":"text_label","text-field":"E1"},"geometry":{"type":"Point","coordinates":[6.083333333,44.479444444]}},{"type":"Feature","id":"LFNA-195517b602efb5cc1aff","properties":{"airport":"LFNA","name":"S","layer":"Labels","category":"Points VFR","object_type":"Label","style_id":"label.points-vfr","source_group":"LFNA Points VFR","vsmr_group_ids":[],"geometry_role":"text_label","text-field":"S"},"geometry":{"type":"Point","coordinates":[5.945555556,44.380277778]}},{"type":"Feature","id":"LFNA-ffeec202af127b8e87ee","properties":{"airport":"LFNA","name":"E","layer":"Labels","category":"Points VFR","object_type":"Label","style_id":"label.points-vfr","source_group":"LFNA Points VFR","vsmr_group_ids":[],"geometry_role":"text_label","text-field":"E"},"geometry":{"type":"Point","coordinates":[6.167777778,44.467777778]}},{"type":"Feature","id":"LFNA-e2a9265c7f32dccf2b80","properties":{"airport":"LFNA","name":"N","layer":"Labels","category":"Points VFR","object_type":"Label","style_id":"label.points-vfr","source_group":"LFNA Points VFR","vsmr_group_ids":[],"geometry_role":"text_label","text-field":"N"},"geometry":{"type":"Point","coordinates":[6.035277778,44.540833333]}}]}
