{"type":"FeatureCollection","name":"LFNH AVISO","bbox":[5.09472,44.0364,5.09472,44.0364],"metadata":{"schema":"vSMR AVISO","schema_version":2,"geometry_mode":"shared","airport":"LFNH","coordinate_reference_system":"WGS84","coordinate_order":"longitude, latitude","default_color_palette":"dark","color_palettes":["dark","light"],"background_colors":{"dark":"#434A4F","light":"#434A4F"},"feature_count":1,"style_count":1,"layer_counts":{"Labels":1},"category_counts":{"Points VFR":1},"geometry_source":"local GNG/KMZ","geometry_source_url":"","geometry_license":"GPL-3.0"},"styles":{"label.points-vfr":{"name":"Points VFR","layer":"Labels","object_type":"Label","paint":{"text-color":"#CCCCCC","text-font":"Arial","text-size":12,"text-halo-color":"#000000","text-halo-width":1,"text-anchor":"center","zoomLevel":7},"feature_count":1}},"vsmr_groups":[],"features":[{"type":"Feature","id":"LFNH-f4f603a67a6ab086d4d9","properties":{"airport":"LFNH","name":"NE","layer":"Labels","category":"Points VFR","object_type":"Label","style_id":"label.points-vfr","source_group":"LFNH Points VFR","vsmr_group_ids":[],"geometry_role":"text_label","text-field":"NE"},"geometry":{"type":"Point","coordinates":[5.09472,44.0364]}}]}
