{"type":"FeatureCollection","name":"LFPY AVISO","bbox":[1.94917,48.4667,2.61667,48.6992],"metadata":{"schema":"vSMR AVISO","schema_version":2,"geometry_mode":"shared","airport":"LFPY","coordinate_reference_system":"WGS84","coordinate_order":"longitude, latitude","default_color_palette":"dark","color_palettes":["dark","light"],"background_colors":{"dark":"#434A4F","light":"#434A4F"},"runways":[],"saved_active_runways":[],"saved_active_airport_modes":[],"airport_reference":[2.332221944,48.596110833],"feature_count":9,"style_count":2,"layer_counts":{"Labels":9},"category_counts":{"Points VFR":9},"geometry_source":"local GNG/KMZ","geometry_source_url":"","geometry_license":"GPL-3.0"},"styles":{"airport.reference":{"name":"Airport reference","layer":"Reference points","object_type":"Label","paint":{"text-color":"#CCCCCC","text-size":12,"text-halo-width":1},"feature_count":0},"label.points-vfr":{"name":"Points VFR","layer":"Labels","object_type":"Label","paint":{"text-color":"#CCCCCC","text-font":"Arial","text-size":12,"text-halo-color":"#000000","text-halo-width":1,"text-anchor":"center","zoomLevel":7},"feature_count":9}},"vsmr_groups":[],"features":[{"type":"Feature","id":"LFPY-ba5bed03016520803740","properties":{"airport":"LFPY","name":"SB","layer":"Labels","category":"Points VFR","object_type":"Label","style_id":"label.points-vfr","source_group":"LFPY Points VFR","vsmr_group_ids":[],"geometry_role":"text_label","text-field":"SB"},"geometry":{"type":"Point","coordinates":[2.51667,48.4781]}},{"type":"Feature","id":"LFPY-a53eecf0b03fa45ec56e","properties":{"airport":"LFPY","name":"B","layer":"Labels","category":"Points VFR","object_type":"Label","style_id":"label.points-vfr","source_group":"LFPY Points VFR","vsmr_group_ids":[],"geometry_role":"text_label","text-field":"B"},"geometry":{"type":"Point","coordinates":[2.46667,48.5736]}},{"type":"Feature","id":"LFPY-143f0045a68d7705740f","properties":{"airport":"LFPY","name":"R","layer":"Labels","category":"Points VFR","object_type":"Label","style_id":"label.points-vfr","source_group":"LFPY Points VFR","vsmr_group_ids":[],"geometry_role":"text_label","text-field":"R"},"geometry":{"type":"Point","coordinates":[1.94917,48.4667]}},{"type":"Feature","id":"LFPY-103e7bc1e4f140d8bcb7","properties":{"airport":"LFPY","name":"BCR","layer":"Labels","category":"Points VFR","object_type":"Label","style_id":"label.points-vfr","source_group":"LFPY Points VFR","vsmr_group_ids":[],"geometry_role":"text_label","text-field":"BCR"},"geometry":{"type":"Point","coordinates":[2.61667,48.6992]}},{"type":"Feature","id":"LFPY-e92974f42fefa326be7c","properties":{"airport":"LFPY","name":"W","layer":"Labels","category":"Points VFR","object_type":"Label","style_id":"label.points-vfr","source_group":"LFPY Points VFR","vsmr_group_ids":[],"geometry_role":"text_label","text-field":"W"},"geometry":{"type":"Point","coordinates":[2.21667,48.5856]}},{"type":"Feature","id":"LFPY-2b5e585be5a5567dda63","properties":{"airport":"LFPY","name":"N","layer":"Labels","category":"Points VFR","object_type":"Label","style_id":"label.points-vfr","source_group":"LFPY Points VFR","vsmr_group_ids":[],"geometry_role":"text_label","text-field":"N"},"geometry":{"type":"Point","coordinates":[2.29583,48.6208]}},{"type":"Feature","id":"LFPY-0a010c50cd0154fe6660","properties":{"airport":"LFPY","name":"EA","layer":"Labels","category":"Points VFR","object_type":"Label","style_id":"label.points-vfr","source_group":"LFPY Points VFR","vsmr_group_ids":[],"geometry_role":"text_label","text-field":"EA"},"geometry":{"type":"Point","coordinates":[2.46917,48.6267]}},{"type":"Feature","id":"LFPY-92a913085d1e5cb982af","properties":{"airport":"LFPY","name":"E","layer":"Labels","category":"Points VFR","object_type":"Label","style_id":"label.points-vfr","source_group":"LFPY Points VFR","vsmr_group_ids":[],"geometry_role":"text_label","text-field":"E"},"geometry":{"type":"Point","coordinates":[2.53889,48.6625]}},{"type":"Feature","id":"LFPY-02b7c9f798febd7d65ed","properties":{"airport":"LFPY","name":"SA","layer":"Labels","category":"Points VFR","object_type":"Label","style_id":"label.points-vfr","source_group":"LFPY Points VFR","vsmr_group_ids":[],"geometry_role":"text_label","text-field":"SA"},"geometry":{"type":"Point","coordinates":[2.32139,48.5683]}}]}
