{"type":"FeatureCollection","name":"LFQH AVISO","bbox":[4.579443889,47.845277778,4.579443889,47.845277778],"metadata":{"schema":"vSMR AVISO","schema_version":2,"geometry_mode":"shared","airport":"LFQH","coordinate_reference_system":"WGS84","coordinate_order":"longitude, latitude","default_color_palette":"dark","color_palettes":["dark","light"],"background_colors":{"dark":"#434A4F","light":"#434A4F"},"runways":[],"saved_active_runways":[],"saved_active_airport_modes":[],"airport_reference":[4.579443889,47.845277778],"feature_count":1,"style_count":1,"layer_counts":{"Reference points":1},"category_counts":{"Airport reference":1},"geometry_source":"local GNG/KMZ","geometry_source_url":"","geometry_license":"GPL-3.0"},"styles":{"airport.reference":{"name":"Airport reference","layer":"Reference points","object_type":"Label","paint":{"text-color":"#CCCCCC","text-size":12,"text-halo-width":1},"feature_count":1}},"vsmr_groups":[],"features":[{"type":"Feature","id":"LFQH-c68046e156e78fdac32e","properties":{"airport":"LFQH","name":"LFQH","layer":"Reference points","category":"Airport reference","object_type":"Label","style_id":"airport.reference","source_group":"LFQH","vsmr_group_ids":[],"geometry_role":"airport_reference_point","text-field":"LFQH"},"geometry":{"type":"Point","coordinates":[4.579443889,47.845277778]}}]}
