{"type":"FeatureCollection","name":"LFQI AVISO","bbox":[2.865,50.1058,3.41722,50.3153],"metadata":{"schema":"vSMR AVISO","schema_version":2,"airport":"LFQI","coordinate_reference_system":"WGS84","coordinate_order":"longitude, latitude","default_color_palette":"night","color_palettes":["night","day"],"background_colors":{"night":"#434A4F","day":"#434A4F"},"geometry_mode":"shared","feature_count":7,"style_count":2,"layer_counts":{"Labels":7},"category_counts":{"Points VFR":7},"geometry_source":"local GNG/KMZ","geometry_source_url":"","geometry_license":"GPL-3.0"},"styles":{"label.text.label.labels":{"name":"Labels","layer":"Labels","object_type":"Label","paint":{"text-anchor":"center","text-color":"#CCCCCC","text-halo-color":"#000000","text-halo-width":1,"text-size":12,"zoomLevel":0},"feature_count":0},"label.points-vfr":{"name":"Points VFR","layer":"Labels","object_type":"Label","paint":{"text-color":"#CCCCCC","text-font":"Arial","text-size":12,"text-halo-color":"#000000","text-halo-width":1,"text-anchor":"center","zoomLevel":7},"feature_count":7}},"features":[{"type":"Feature","id":"LFQI-cf02af239514a5f2fb46","properties":{"airport":"LFQI","name":"SW","layer":"Labels","category":"Points VFR","object_type":"Label","style_id":"label.points-vfr","source_group":"LFQI Points VFR","vsmr_group_ids":[],"geometry_role":"text_label","text-field":"SW"},"geometry":{"type":"Point","coordinates":[2.87111,50.1058]}},{"type":"Feature","id":"LFQI-8650f9b4ff429f16b01e","properties":{"airport":"LFQI","name":"NW","layer":"Labels","category":"Points VFR","object_type":"Label","style_id":"label.points-vfr","source_group":"LFQI Points VFR","vsmr_group_ids":[],"geometry_role":"text_label","text-field":"NW"},"geometry":{"type":"Point","coordinates":[2.89861,50.3153]}},{"type":"Feature","id":"LFQI-17dade3aa569bc9adec5","properties":{"airport":"LFQI","name":"W","layer":"Labels","category":"Points VFR","object_type":"Label","style_id":"label.points-vfr","source_group":"LFQI Points VFR","vsmr_group_ids":[],"geometry_role":"text_label","text-field":"W"},"geometry":{"type":"Point","coordinates":[2.865,50.2053]}},{"type":"Feature","id":"LFQI-ec08f8b4db6beb3c4a73","properties":{"airport":"LFQI","name":"S","layer":"Labels","category":"Points VFR","object_type":"Label","style_id":"label.points-vfr","source_group":"LFQI Points VFR","vsmr_group_ids":[],"geometry_role":"text_label","text-field":"S"},"geometry":{"type":"Point","coordinates":[3.12725,50.1442]}},{"type":"Feature","id":"LFQI-2bcf54d9b92137ae885d","properties":{"airport":"LFQI","name":"E","layer":"Labels","category":"Points VFR","object_type":"Label","style_id":"label.points-vfr","source_group":"LFQI Points VFR","vsmr_group_ids":[],"geometry_role":"text_label","text-field":"E"},"geometry":{"type":"Point","coordinates":[3.39583,50.1922]}},{"type":"Feature","id":"LFQI-e01117f55da0cfdd42fd","properties":{"airport":"LFQI","name":"SE","layer":"Labels","category":"Points VFR","object_type":"Label","style_id":"label.points-vfr","source_group":"LFQI Points VFR","vsmr_group_ids":[],"geometry_role":"text_label","text-field":"SE"},"geometry":{"type":"Point","coordinates":[3.41667,50.1203]}},{"type":"Feature","id":"LFQI-1237b6bc0cda6856831a","properties":{"airport":"LFQI","name":"NE","layer":"Labels","category":"Points VFR","object_type":"Label","style_id":"label.points-vfr","source_group":"LFQI Points VFR","vsmr_group_ids":[],"geometry_role":"text_label","text-field":"NE"},"geometry":{"type":"Point","coordinates":[3.41722,50.2567]}}]}
