{"type":"FeatureCollection","name":"LFQJ AVISO","bbox":[4.03,50.308332778,4.03,50.308332778],"metadata":{"schema":"vSMR AVISO","schema_version":2,"geometry_mode":"shared","airport":"LFQJ","coordinate_reference_system":"WGS84","coordinate_order":"longitude, latitude","default_color_palette":"dark","color_palettes":["dark","light"],"background_colors":{"dark":"#434A4F","light":"#434A4F"},"runways":[],"saved_active_runways":[],"saved_active_airport_modes":[],"airport_reference":[4.03,50.308332778],"feature_count":1,"style_count":1,"layer_counts":{"Reference points":1},"category_counts":{"Airport reference":1},"geometry_source":"local GNG/KMZ","geometry_source_url":"","geometry_license":"GPL-3.0"},"styles":{"airport.reference":{"name":"Airport reference","layer":"Reference points","object_type":"Label","paint":{"text-color":"#CCCCCC","text-size":12,"text-halo-width":1},"feature_count":1}},"vsmr_groups":[],"features":[{"type":"Feature","id":"LFQJ-51ea388f57e842eb377a","properties":{"airport":"LFQJ","name":"LFQJ","layer":"Reference points","category":"Airport reference","object_type":"Label","style_id":"airport.reference","source_group":"LFQJ","vsmr_group_ids":[],"geometry_role":"airport_reference_point","text-field":"LFQJ"},"geometry":{"type":"Point","coordinates":[4.03,50.308332778]}}]}
