{"type":"FeatureCollection","name":"LFQX AVISO","bbox":[4.819443889,48.113888889,4.819443889,48.113888889],"metadata":{"schema":"vSMR AVISO","schema_version":2,"geometry_mode":"shared","airport":"LFQX","coordinate_reference_system":"WGS84","coordinate_order":"longitude, latitude","default_color_palette":"dark","color_palettes":["dark","light"],"background_colors":{"dark":"#434A4F","light":"#434A4F"},"runways":[],"saved_active_runways":[],"saved_active_airport_modes":[],"airport_reference":[4.819443889,48.113888889],"feature_count":1,"style_count":1,"layer_counts":{"Reference points":1},"category_counts":{"Airport reference":1},"geometry_source":"local GNG/KMZ","geometry_source_url":"","geometry_license":"GPL-3.0"},"styles":{"airport.reference":{"name":"Airport reference","layer":"Reference points","object_type":"Label","paint":{"text-color":"#CCCCCC","text-size":12,"text-halo-width":1},"feature_count":1}},"vsmr_groups":[],"features":[{"type":"Feature","id":"LFQX-75728464254c30cb0dd0","properties":{"airport":"LFQX","name":"LFQX","layer":"Reference points","category":"Airport reference","object_type":"Label","style_id":"airport.reference","source_group":"LFQX","vsmr_group_ids":[],"geometry_role":"airport_reference_point","text-field":"LFQX"},"geometry":{"type":"Point","coordinates":[4.819443889,48.113888889]}}]}
