{"type":"FeatureCollection","name":"LFRR AVISO","bbox":[-4.529444444,46.668333333,0.173333333,48.826944444],"metadata":{"schema":"vSMR AVISO","schema_version":2,"airport":"LFRR","coordinate_reference_system":"WGS84","coordinate_order":"longitude, latitude","default_color_palette":"night","color_palettes":["night","day"],"background_colors":{"night":"#434A4F","day":"#434A4F"},"geometry_mode":"shared","feature_count":19,"style_count":1,"layer_counts":{"Labels":19},"category_counts":{"Labels":19},"geometry_source":"local GNG/KMZ","geometry_source_url":"","geometry_license":"GPL-3.0"},"styles":{"label.text.label.labels":{"name":"Labels","layer":"Labels","object_type":"Label","paint":{"text-anchor":"center","text-color":"#CCCCCC","text-halo-color":"#000000","text-halo-width":1,"text-size":12,"zoomLevel":0},"feature_count":19}},"features":[{"type":"Feature","id":"LFRR-text-lfrr-16316","properties":{"airport":"LFRR","name":"HOP_HALE","layer":"Labels","category":"Labels","object_type":"Label","style_id":"label.text.label.labels","vsmr_group_ids":[],"geometry_role":"text_label","text-field":"HOP_HALE"},"geometry":{"type":"Point","coordinates":[0.0825,48.424166667]}},{"type":"Feature","id":"LFRR-text-lfrr-16317","properties":{"airport":"LFRR","name":"HOP_HACH","layer":"Labels","category":"Labels","object_type":"Label","style_id":"label.text.label.labels","vsmr_group_ids":[],"geometry_role":"text_label","text-field":"HOP_HACH"},"geometry":{"type":"Point","coordinates":[-0.554166667,47.486388889]}},{"type":"Feature","id":"LFRR-text-lfrr-16318","properties":{"airport":"LFRR","name":"HOP_HAVR","layer":"Labels","category":"Labels","object_type":"Label","style_id":"label.text.label.labels","vsmr_group_ids":[],"geometry_role":"text_label","text-field":"HOP_HAVR"},"geometry":{"type":"Point","coordinates":[-1.351111111,48.694722222]}},{"type":"Feature","id":"LFRR-text-lfrr-16319","properties":{"airport":"LFRR","name":"HOP_HBRE","layer":"Labels","category":"Labels","object_type":"Label","style_id":"label.text.label.labels","vsmr_group_ids":[],"geometry_role":"text_label","text-field":"HOP_HBRE"},"geometry":{"type":"Point","coordinates":[-4.529444444,48.403333333]}},{"type":"Feature","id":"LFRR-text-lfrr-16320","properties":{"airport":"LFRR","name":"HEL_HCHL","layer":"Labels","category":"Labels","object_type":"Label","style_id":"label.text.label.labels","vsmr_group_ids":[],"geometry_role":"text_label","text-field":"HEL_HCHL"},"geometry":{"type":"Point","coordinates":[-1.830555556,46.854166667]}},{"type":"Feature","id":"LFRR-text-lfrr-16321","properties":{"airport":"LFRR","name":"HOP_HCHO","layer":"Labels","category":"Labels","object_type":"Label","style_id":"label.text.label.labels","vsmr_group_ids":[],"geometry_role":"text_label","text-field":"HOP_HCHO"},"geometry":{"type":"Point","coordinates":[-0.897222222,47.041388889]}},{"type":"Feature","id":"LFRR-text-lfrr-16322","properties":{"airport":"LFRR","name":"HOP_HGRV","layer":"Labels","category":"Labels","object_type":"Label","style_id":"label.text.label.labels","vsmr_group_ids":[],"geometry_role":"text_label","text-field":"HOP_HGRV"},"geometry":{"type":"Point","coordinates":[-1.569444444,48.826944444]}},{"type":"Feature","id":"LFRR-text-lfrr-16323","properties":{"airport":"LFRR","name":"HOP_HROC","layer":"Labels","category":"Labels","object_type":"Label","style_id":"label.text.label.labels","vsmr_group_ids":[],"geometry_role":"text_label","text-field":"HOP_HROC"},"geometry":{"type":"Point","coordinates":[-1.413333333,46.668333333]}},{"type":"Feature","id":"LFRR-text-lfrr-16324","properties":{"airport":"LFRR","name":"HOP_HLNN","layer":"Labels","category":"Labels","object_type":"Label","style_id":"label.text.label.labels","vsmr_group_ids":[],"geometry_role":"text_label","text-field":"HOP_HLNN"},"geometry":{"type":"Point","coordinates":[-0.465277778,48.722777778]}},{"type":"Feature","id":"LFRR-text-lfrr-16325","properties":{"airport":"LFRR","name":"HOP_HLMA","layer":"Labels","category":"Labels","object_type":"Label","style_id":"label.text.label.labels","vsmr_group_ids":[],"geometry_role":"text_label","text-field":"HOP_HLMA"},"geometry":{"type":"Point","coordinates":[0.173333333,48.016666667]}},{"type":"Feature","id":"LFRR-text-lfrr-16326","properties":{"airport":"LFRR","name":"HOP_HLOR","layer":"Labels","category":"Labels","object_type":"Label","style_id":"label.text.label.labels","vsmr_group_ids":[],"geometry_role":"text_label","text-field":"HOP_HLOR"},"geometry":{"type":"Point","coordinates":[-3.356111111,47.753611111]}},{"type":"Feature","id":"LFRR-text-lfrr-16327","properties":{"airport":"LFRR","name":"HOP_HNQM","layer":"Labels","category":"Labels","object_type":"Label","style_id":"label.text.label.labels","vsmr_group_ids":[],"geometry_role":"text_label","text-field":"HOP_HNQM"},"geometry":{"type":"Point","coordinates":[-1.554444444,47.208888889]}},{"type":"Feature","id":"LFRR-text-lfrr-16328","properties":{"airport":"LFRR","name":"HOP_HNDS","layer":"Labels","category":"Labels","object_type":"Label","style_id":"label.text.label.labels","vsmr_group_ids":[],"geometry_role":"text_label","text-field":"HOP_HNDS"},"geometry":{"type":"Point","coordinates":[-0.386111111,46.831388889]}},{"type":"Feature","id":"LFRR-text-lfrr-16329","properties":{"airport":"LFRR","name":"HOP_HQUI","layer":"Labels","category":"Labels","object_type":"Label","style_id":"label.text.label.labels","vsmr_group_ids":[],"geometry_role":"text_label","text-field":"HOP_HQUI"},"geometry":{"type":"Point","coordinates":[-4.095833333,47.985277778]}},{"type":"Feature","id":"LFRR-text-lfrr-16330","properties":{"airport":"LFRR","name":"HOP_HREP","layer":"Labels","category":"Labels","object_type":"Label","style_id":"label.text.label.labels","vsmr_group_ids":[],"geometry_role":"text_label","text-field":"HOP_HREP"},"geometry":{"type":"Point","coordinates":[-1.696111111,48.123055556]}},{"type":"Feature","id":"LFRR-text-lfrr-16331","properties":{"airport":"LFRR","name":"HOP_HSTB","layer":"Labels","category":"Labels","object_type":"Label","style_id":"label.text.label.labels","vsmr_group_ids":[],"geometry_role":"text_label","text-field":"HOP_HSTB"},"geometry":{"type":"Point","coordinates":[-2.750833333,48.490833333]}},{"type":"Feature","id":"LFRR-text-lfrr-16332","properties":{"airport":"LFRR","name":"HOP_HSTM","layer":"Labels","category":"Labels","object_type":"Label","style_id":"label.text.label.labels","vsmr_group_ids":[],"geometry_role":"text_label","text-field":"HOP_HSTM"},"geometry":{"type":"Point","coordinates":[-2.008888889,48.638055556]}},{"type":"Feature","id":"LFRR-text-lfrr-16333","properties":{"airport":"LFRR","name":"HOP_HSTN","layer":"Labels","category":"Labels","object_type":"Label","style_id":"label.text.label.labels","vsmr_group_ids":[],"geometry_role":"text_label","text-field":"HOP_HSTN"},"geometry":{"type":"Point","coordinates":[-2.256388889,47.267222222]}},{"type":"Feature","id":"LFRR-text-lfrr-16334","properties":{"airport":"LFRR","name":"HOP_HVAN","layer":"Labels","category":"Labels","object_type":"Label","style_id":"label.text.label.labels","vsmr_group_ids":[],"geometry_role":"text_label","text-field":"HOP_HVAN"},"geometry":{"type":"Point","coordinates":[-2.744722222,47.663888889]}}]}
