{"type":"FeatureCollection","name":"LFRV AVISO","bbox":[-2.953888889,47.610833333,-2.588611111,47.818333333],"metadata":{"schema":"vSMR AVISO","schema_version":2,"geometry_mode":"shared","airport":"LFRV","coordinate_reference_system":"WGS84","coordinate_order":"longitude, latitude","default_color_palette":"dark","color_palettes":["dark","light"],"background_colors":{"dark":"#434A4F","light":"#434A4F"},"runways":[{"ends":["08","26"],"headings":[83,263],"thresholds":[[-2.729941944,47.724141944],[-2.717880833,47.725275]]},{"ends":["04","22"],"headings":[40,220],"thresholds":[[-2.724955833,47.717941944],[-2.712082778,47.728582778]]}],"saved_active_runways":[],"saved_active_airport_modes":[],"airport_reference":[-2.723332778,47.719166944],"feature_count":6,"style_count":3,"layer_counts":{"Guidance lines":2,"Labels":4},"category_counts":{"Grass runways":1,"Points VFR":4,"Runways":1},"geometry_source":"local GNG/KMZ","geometry_source_url":"","geometry_license":"GPL-3.0"},"styles":{"line.runwayconcrete.555555":{"name":"Runways","layer":"Guidance lines","object_type":"Line","paint":{"stroke":"#111318","stroke-opacity":1,"stroke-width":1,"palette-overrides":{"light":{"stroke":"#555555"}}},"feature_count":1},"line.runwaygrass.008000":{"name":"Grass runways","layer":"Guidance lines","object_type":"Line","paint":{"stroke":"#859A77","stroke-opacity":1,"stroke-width":1,"palette-overrides":{"light":{"stroke":"#008000"}}},"feature_count":1},"label.points-vfr":{"name":"Points VFR","layer":"Labels","object_type":"Label","paint":{"text-color":"#CCCCCC","text-font":"Arial","text-size":12,"text-halo-color":"#000000","text-halo-width":1,"text-anchor":"center","zoomLevel":7},"feature_count":4}},"vsmr_groups":[],"features":[{"type":"Feature","id":"LFRV-7158d8fe33d1504bb451","properties":{"airport":"LFRV","name":"LFRV Groundlayout","layer":"Guidance lines","category":"Runways","object_type":"Line","style_id":"line.runwayconcrete.555555","source_group":"LFRV Groundlayout","vsmr_group_ids":[],"geometry_role":"linework"},"geometry":{"type":"MultiLineString","coordinates":[[[-2.729805556,47.722361111],[-2.717611111,47.723555556]],[[-2.730388889,47.725638889],[-2.729805556,47.722361111]],[[-2.718194444,47.726861111],[-2.717611111,47.723555556]]]}},{"type":"Feature","id":"LFRV-9726fa57dbac66e394e0","properties":{"airport":"LFRV","name":"LFRV Groundlayout","layer":"Guidance lines","category":"Grass runways","object_type":"Line","style_id":"line.runwaygrass.008000","source_group":"LFRV Groundlayout","vsmr_group_ids":[],"geometry_role":"linework"},"geometry":{"type":"MultiLineString","coordinates":[[[-2.726694444,47.719],[-2.713805556,47.729694444]],[[-2.723305556,47.716805556],[-2.710388889,47.7275]],[[-2.726694444,47.719],[-2.723305556,47.716805556]],[[-2.713805556,47.729694444],[-2.710388889,47.7275]]]}},{"type":"Feature","id":"LFRV-234b9e21599ab5d37b25","properties":{"airport":"LFRV","name":"N","layer":"Labels","category":"Points VFR","object_type":"Label","style_id":"label.points-vfr","source_group":"LFRV Points VFR","vsmr_group_ids":[],"geometry_role":"text_label","text-field":"N"},"geometry":{"type":"Point","coordinates":[-2.806111111,47.818333333]}},{"type":"Feature","id":"LFRV-8907fb8ceb6f05f2f085","properties":{"airport":"LFRV","name":"SE","layer":"Labels","category":"Points VFR","object_type":"Label","style_id":"label.points-vfr","source_group":"LFRV Points VFR","vsmr_group_ids":[],"geometry_role":"text_label","text-field":"SE"},"geometry":{"type":"Point","coordinates":[-2.610555556,47.610833333]}},{"type":"Feature","id":"LFRV-6645ad471abcdd27f827","properties":{"airport":"LFRV","name":"W","layer":"Labels","category":"Points VFR","object_type":"Label","style_id":"label.points-vfr","source_group":"LFRV Points VFR","vsmr_group_ids":[],"geometry_role":"text_label","text-field":"W"},"geometry":{"type":"Point","coordinates":[-2.953888889,47.639722222]}},{"type":"Feature","id":"LFRV-a4f34747d8f158fd8ad8","properties":{"airport":"LFRV","name":"E","layer":"Labels","category":"Points VFR","object_type":"Label","style_id":"label.points-vfr","source_group":"LFRV Points VFR","vsmr_group_ids":[],"geometry_role":"text_label","text-field":"E"},"geometry":{"type":"Point","coordinates":[-2.588611111,47.720555556]}}]}
