{"type":"FeatureCollection","name":"LFSF AVISO","bbox":[5.88889,48.8836,6.34306,49.2958],"metadata":{"schema":"vSMR AVISO","schema_version":2,"geometry_mode":"shared","airport":"LFSF","coordinate_reference_system":"WGS84","coordinate_order":"longitude, latitude","default_color_palette":"dark","color_palettes":["dark","light"],"background_colors":{"dark":"#434A4F","light":"#434A4F"},"runways":[],"saved_active_runways":[],"saved_active_airport_modes":[],"feature_count":12,"style_count":2,"layer_counts":{"Labels":12},"category_counts":{"Gates":3,"Points VFR":9},"geometry_source":"local GNG/KMZ","geometry_source_url":"","geometry_license":"GPL-3.0"},"styles":{"label.gates":{"name":"Gates","layer":"Labels","object_type":"Label","paint":{"text-color":"#CCCCCC","text-font":"Arial","text-size":12,"text-halo-color":"#000000","text-halo-width":1,"text-anchor":"center","zoomLevel":9},"feature_count":3},"label.points-vfr":{"name":"Points VFR","layer":"Labels","object_type":"Label","paint":{"text-color":"#CCCCCC","text-font":"Arial","text-size":12,"text-halo-color":"#000000","text-halo-width":1,"text-anchor":"center","zoomLevel":7},"feature_count":9}},"vsmr_groups":[],"features":[{"type":"Feature","id":"LFSF-a452c9f8830e182bf51d","properties":{"airport":"LFSF","name":"1","layer":"Labels","category":"Gates","object_type":"Label","style_id":"label.gates","source_group":"LFSF Gates","vsmr_group_ids":[],"geometry_role":"text_label","text-field":"1"},"geometry":{"type":"Point","coordinates":[6.137638889,49.073388889]}},{"type":"Feature","id":"LFSF-0c60e6185db6b1b5148f","properties":{"airport":"LFSF","name":"2","layer":"Labels","category":"Gates","object_type":"Label","style_id":"label.gates","source_group":"LFSF Gates","vsmr_group_ids":[],"geometry_role":"text_label","text-field":"2"},"geometry":{"type":"Point","coordinates":[6.136972222,49.073472222]}},{"type":"Feature","id":"LFSF-772dc354829403750296","properties":{"airport":"LFSF","name":"3","layer":"Labels","category":"Gates","object_type":"Label","style_id":"label.gates","source_group":"LFSF Gates","vsmr_group_ids":[],"geometry_role":"text_label","text-field":"3"},"geometry":{"type":"Point","coordinates":[6.137055556,49.072833333]}},{"type":"Feature","id":"LFSF-e4f5b6657148832e9e32","properties":{"airport":"LFSF","name":"LFSF NW","layer":"Labels","category":"Points VFR","object_type":"Label","style_id":"label.points-vfr","source_group":"LFSF Points VFR","vsmr_group_ids":[],"geometry_role":"text_label","text-field":"LFSF NW"},"geometry":{"type":"Point","coordinates":[6.07417,49.0781]}},{"type":"Feature","id":"LFSF-3288e6699d4ec8006940","properties":{"airport":"LFSF","name":"LFSF N2","layer":"Labels","category":"Points VFR","object_type":"Label","style_id":"label.points-vfr","source_group":"LFSF Points VFR","vsmr_group_ids":[],"geometry_role":"text_label","text-field":"LFSF N2"},"geometry":{"type":"Point","coordinates":[6.34306,49.2958]}},{"type":"Feature","id":"LFSF-81dcd6c0b6f1c3b0d27b","properties":{"airport":"LFSF","name":"LFSF W","layer":"Labels","category":"Points VFR","object_type":"Label","style_id":"label.points-vfr","source_group":"LFSF Points VFR","vsmr_group_ids":[],"geometry_role":"text_label","text-field":"LFSF W"},"geometry":{"type":"Point","coordinates":[5.88889,49.0989]}},{"type":"Feature","id":"LFSF-fbed24427a5273fa472c","properties":{"airport":"LFSF","name":"LFSF NE","layer":"Labels","category":"Points VFR","object_type":"Label","style_id":"label.points-vfr","source_group":"LFSF Points VFR","vsmr_group_ids":[],"geometry_role":"text_label","text-field":"LFSF NE"},"geometry":{"type":"Point","coordinates":[6.22333,49.0758]}},{"type":"Feature","id":"LFSF-d1e4172bdcee42fb5702","properties":{"airport":"LFSF","name":"LFSF SW","layer":"Labels","category":"Points VFR","object_type":"Label","style_id":"label.points-vfr","source_group":"LFSF Points VFR","vsmr_group_ids":[],"geometry_role":"text_label","text-field":"LFSF SW"},"geometry":{"type":"Point","coordinates":[6.06139,48.8836]}},{"type":"Feature","id":"LFSF-e0797272f0212add445f","properties":{"airport":"LFSF","name":"LFSF M","layer":"Labels","category":"Points VFR","object_type":"Label","style_id":"label.points-vfr","source_group":"LFSF Points VFR","vsmr_group_ids":[],"geometry_role":"text_label","text-field":"LFSF M"},"geometry":{"type":"Point","coordinates":[6.20556,49.0067]}},{"type":"Feature","id":"LFSF-c9038f8120006519ede7","properties":{"airport":"LFSF","name":"LFSF N1","layer":"Labels","category":"Points VFR","object_type":"Label","style_id":"label.points-vfr","source_group":"LFSF Points VFR","vsmr_group_ids":[],"geometry_role":"text_label","text-field":"LFSF N1"},"geometry":{"type":"Point","coordinates":[6.27917,49.1986]}},{"type":"Feature","id":"LFSF-032831725f679e75d64b","properties":{"airport":"LFSF","name":"LFSF MLM","layer":"Labels","category":"Points VFR","object_type":"Label","style_id":"label.points-vfr","source_group":"LFSF Points VFR","vsmr_group_ids":[],"geometry_role":"text_label","text-field":"LFSF MLM"},"geometry":{"type":"Point","coordinates":[6.16389,49.2153]}},{"type":"Feature","id":"LFSF-5f756efc144378d942ab","properties":{"airport":"LFSF","name":"LFSF SMC","layer":"Labels","category":"Points VFR","object_type":"Label","style_id":"label.points-vfr","source_group":"LFSF Points VFR","vsmr_group_ids":[],"geometry_role":"text_label","text-field":"LFSF SMC"},"geometry":{"type":"Point","coordinates":[6.0,49.1931]}}]}
