{"type":"FeatureCollection","name":"LFSR AVISO","bbox":[3.57778,49.0722,4.36472,49.4819],"metadata":{"schema":"vSMR AVISO","schema_version":2,"geometry_mode":"shared","airport":"LFSR","coordinate_reference_system":"WGS84","coordinate_order":"longitude, latitude","default_color_palette":"dark","color_palettes":["dark","light"],"background_colors":{"dark":"#434A4F","light":"#434A4F"},"runways":[],"saved_active_runways":[],"saved_active_airport_modes":[],"feature_count":24,"style_count":2,"layer_counts":{"Labels":24},"category_counts":{"Gates":13,"Points VFR":11},"geometry_source":"local GNG/KMZ","geometry_source_url":"","geometry_license":"GPL-3.0"},"styles":{"label.gates":{"name":"Gates","layer":"Labels","object_type":"Label","paint":{"text-color":"#CCCCCC","text-font":"Arial","text-size":12,"text-halo-color":"#000000","text-halo-width":1,"text-anchor":"center","zoomLevel":9},"feature_count":13},"label.points-vfr":{"name":"Points VFR","layer":"Labels","object_type":"Label","paint":{"text-color":"#CCCCCC","text-font":"Arial","text-size":12,"text-halo-color":"#000000","text-halo-width":1,"text-anchor":"center","zoomLevel":7},"feature_count":11}},"vsmr_groups":[],"features":[{"type":"Feature","id":"LFSR-f4f5f0ef2ea4b58e99ee","properties":{"airport":"LFSR","name":"1","layer":"Labels","category":"Gates","object_type":"Label","style_id":"label.gates","source_group":"LFSR Gates","vsmr_group_ids":[],"geometry_role":"text_label","text-field":"1"},"geometry":{"type":"Point","coordinates":[4.059222222,49.309333333]}},{"type":"Feature","id":"LFSR-06f2a122f483a5c97f21","properties":{"airport":"LFSR","name":"2","layer":"Labels","category":"Gates","object_type":"Label","style_id":"label.gates","source_group":"LFSR Gates","vsmr_group_ids":[],"geometry_role":"text_label","text-field":"2"},"geometry":{"type":"Point","coordinates":[4.058027778,49.309333333]}},{"type":"Feature","id":"LFSR-891d7a6347249117b04c","properties":{"airport":"LFSR","name":"3","layer":"Labels","category":"Gates","object_type":"Label","style_id":"label.gates","source_group":"LFSR Gates","vsmr_group_ids":[],"geometry_role":"text_label","text-field":"3"},"geometry":{"type":"Point","coordinates":[4.059083333,49.309583333]}},{"type":"Feature","id":"LFSR-a3b7be5c8e288efc2ce0","properties":{"airport":"LFSR","name":"1","layer":"Labels","category":"Gates","object_type":"Label","style_id":"label.gates","source_group":"LFSR Gates","vsmr_group_ids":[],"geometry_role":"text_label","text-field":"1"},"geometry":{"type":"Point","coordinates":[4.039361111,49.303611111]}},{"type":"Feature","id":"LFSR-b99263856eadf736a9d5","properties":{"airport":"LFSR","name":"2","layer":"Labels","category":"Gates","object_type":"Label","style_id":"label.gates","source_group":"LFSR Gates","vsmr_group_ids":[],"geometry_role":"text_label","text-field":"2"},"geometry":{"type":"Point","coordinates":[4.038222222,49.303583333]}},{"type":"Feature","id":"LFSR-33a8db4acfff93634566","properties":{"airport":"LFSR","name":"3","layer":"Labels","category":"Gates","object_type":"Label","style_id":"label.gates","source_group":"LFSR Gates","vsmr_group_ids":[],"geometry_role":"text_label","text-field":"3"},"geometry":{"type":"Point","coordinates":[4.037138889,49.303583333]}},{"type":"Feature","id":"LFSR-03d3ca327c1a0b80a682","properties":{"airport":"LFSR","name":"4","layer":"Labels","category":"Gates","object_type":"Label","style_id":"label.gates","source_group":"LFSR Gates","vsmr_group_ids":[],"geometry_role":"text_label","text-field":"4"},"geometry":{"type":"Point","coordinates":[4.036055556,49.303583333]}},{"type":"Feature","id":"LFSR-301d32f16632d40eed81","properties":{"airport":"LFSR","name":"5","layer":"Labels","category":"Gates","object_type":"Label","style_id":"label.gates","source_group":"LFSR Gates","vsmr_group_ids":[],"geometry_role":"text_label","text-field":"5"},"geometry":{"type":"Point","coordinates":[4.034944444,49.303583333]}},{"type":"Feature","id":"LFSR-dda62faf9278242da16f","properties":{"airport":"LFSR","name":"1","layer":"Labels","category":"Gates","object_type":"Label","style_id":"label.gates","source_group":"LFSR Gates","vsmr_group_ids":[],"geometry_role":"text_label","text-field":"1"},"geometry":{"type":"Point","coordinates":[4.033361111,49.317361111]}},{"type":"Feature","id":"LFSR-28bac49b04116d2fc6a6","properties":{"airport":"LFSR","name":"2","layer":"Labels","category":"Gates","object_type":"Label","style_id":"label.gates","source_group":"LFSR Gates","vsmr_group_ids":[],"geometry_role":"text_label","text-field":"2"},"geometry":{"type":"Point","coordinates":[4.033972222,49.317666667]}},{"type":"Feature","id":"LFSR-d86e416347eabc19f184","properties":{"airport":"LFSR","name":"3","layer":"Labels","category":"Gates","object_type":"Label","style_id":"label.gates","source_group":"LFSR Gates","vsmr_group_ids":[],"geometry_role":"text_label","text-field":"3"},"geometry":{"type":"Point","coordinates":[4.034555556,49.317944444]}},{"type":"Feature","id":"LFSR-0de726b447c928a84736","properties":{"airport":"LFSR","name":"4","layer":"Labels","category":"Gates","object_type":"Label","style_id":"label.gates","source_group":"LFSR Gates","vsmr_group_ids":[],"geometry_role":"text_label","text-field":"4"},"geometry":{"type":"Point","coordinates":[4.035111111,49.318277778]}},{"type":"Feature","id":"LFSR-3ac537db512d9388bcb2","properties":{"airport":"LFSR","name":"5","layer":"Labels","category":"Gates","object_type":"Label","style_id":"label.gates","source_group":"LFSR Gates","vsmr_group_ids":[],"geometry_role":"text_label","text-field":"5"},"geometry":{"type":"Point","coordinates":[4.035694444,49.318583333]}},{"type":"Feature","id":"LFSR-f5a9aa4650707c6bfa5a","properties":{"airport":"LFSR","name":"N2","layer":"Labels","category":"Points VFR","object_type":"Label","style_id":"label.points-vfr","source_group":"LFSR Points VFR","vsmr_group_ids":[],"geometry_role":"text_label","text-field":"N2"},"geometry":{"type":"Point","coordinates":[4.02444,49.3417]}},{"type":"Feature","id":"LFSR-b0818f7fe1f5749f5680","properties":{"airport":"LFSR","name":"WP","layer":"Labels","category":"Points VFR","object_type":"Label","style_id":"label.points-vfr","source_group":"LFSR Points VFR","vsmr_group_ids":[],"geometry_role":"text_label","text-field":"WP"},"geometry":{"type":"Point","coordinates":[4.05028,49.2089]}},{"type":"Feature","id":"LFSR-8d83b1ecaacc8934a589","properties":{"airport":"LFSR","name":"WS","layer":"Labels","category":"Points VFR","object_type":"Label","style_id":"label.points-vfr","source_group":"LFSR Points VFR","vsmr_group_ids":[],"geometry_role":"text_label","text-field":"WS"},"geometry":{"type":"Point","coordinates":[3.85083,49.0722]}},{"type":"Feature","id":"LFSR-65c680db12a81030eebf","properties":{"airport":"LFSR","name":"S1","layer":"Labels","category":"Points VFR","object_type":"Label","style_id":"label.points-vfr","source_group":"LFSR Points VFR","vsmr_group_ids":[],"geometry_role":"text_label","text-field":"S1"},"geometry":{"type":"Point","coordinates":[4.21944,49.2511]}},{"type":"Feature","id":"LFSR-82b8fcaf1e16e14ace41","properties":{"airport":"LFSR","name":"E1","layer":"Labels","category":"Points VFR","object_type":"Label","style_id":"label.points-vfr","source_group":"LFSR Points VFR","vsmr_group_ids":[],"geometry_role":"text_label","text-field":"E1"},"geometry":{"type":"Point","coordinates":[4.23306,49.3917]}},{"type":"Feature","id":"LFSR-88ce57ec988051d720ee","properties":{"airport":"LFSR","name":"N1","layer":"Labels","category":"Points VFR","object_type":"Label","style_id":"label.points-vfr","source_group":"LFSR Points VFR","vsmr_group_ids":[],"geometry_role":"text_label","text-field":"N1"},"geometry":{"type":"Point","coordinates":[3.96444,49.4339]}},{"type":"Feature","id":"LFSR-7589292fbe09ab2364a2","properties":{"airport":"LFSR","name":"NW","layer":"Labels","category":"Points VFR","object_type":"Label","style_id":"label.points-vfr","source_group":"LFSR Points VFR","vsmr_group_ids":[],"geometry_role":"text_label","text-field":"NW"},"geometry":{"type":"Point","coordinates":[3.65333,49.3694]}},{"type":"Feature","id":"LFSR-9af2e5f0c3ea0e8d9d1d","properties":{"airport":"LFSR","name":"S2","layer":"Labels","category":"Points VFR","object_type":"Label","style_id":"label.points-vfr","source_group":"LFSR Points VFR","vsmr_group_ids":[],"geometry_role":"text_label","text-field":"S2"},"geometry":{"type":"Point","coordinates":[4.08833,49.2939]}},{"type":"Feature","id":"LFSR-217c974287824c99c471","properties":{"airport":"LFSR","name":"EN","layer":"Labels","category":"Points VFR","object_type":"Label","style_id":"label.points-vfr","source_group":"LFSR Points VFR","vsmr_group_ids":[],"geometry_role":"text_label","text-field":"EN"},"geometry":{"type":"Point","coordinates":[4.36472,49.4819]}},{"type":"Feature","id":"LFSR-01ae90e72dd8249f9c9e","properties":{"airport":"LFSR","name":"W","layer":"Labels","category":"Points VFR","object_type":"Label","style_id":"label.points-vfr","source_group":"LFSR Points VFR","vsmr_group_ids":[],"geometry_role":"text_label","text-field":"W"},"geometry":{"type":"Point","coordinates":[3.79889,49.1806]}},{"type":"Feature","id":"LFSR-91585e0a98237d5af6d6","properties":{"airport":"LFSR","name":"CTL","layer":"Labels","category":"Points VFR","object_type":"Label","style_id":"label.points-vfr","source_group":"LFSR Points VFR","vsmr_group_ids":[],"geometry_role":"text_label","text-field":"CTL"},"geometry":{"type":"Point","coordinates":[3.57778,49.1378]}}]}
