{"type":"FeatureCollection","name":"LFYS AVISO","bbox":[1.955,42.425,2.048888889,42.470833333],"metadata":{"schema":"vSMR AVISO","schema_version":2,"geometry_mode":"shared","airport":"LFYS","coordinate_reference_system":"WGS84","coordinate_order":"longitude, latitude","default_color_palette":"dark","color_palettes":["dark","light"],"background_colors":{"dark":"#434A4F","light":"#434A4F"},"feature_count":4,"style_count":1,"layer_counts":{"Labels":4},"category_counts":{"Points VFR":4},"geometry_source":"local GNG/KMZ","geometry_source_url":"","geometry_license":"GPL-3.0"},"styles":{"label.points-vfr":{"name":"Points VFR","layer":"Labels","object_type":"Label","paint":{"text-color":"#CCCCCC","text-font":"Arial","text-size":12,"text-halo-color":"#000000","text-halo-width":1,"text-anchor":"center","zoomLevel":7},"feature_count":4}},"vsmr_groups":[],"features":[{"type":"Feature","id":"LFYS-d057985980f2551d875b","properties":{"airport":"LFYS","name":"N","layer":"Labels","category":"Points VFR","object_type":"Label","style_id":"label.points-vfr","source_group":"LFYS Points VFR","vsmr_group_ids":[],"geometry_role":"text_label","text-field":"N"},"geometry":{"type":"Point","coordinates":[2.033611111,42.470833333]}},{"type":"Feature","id":"LFYS-56699965b2b5d5bf9bd7","properties":{"airport":"LFYS","name":"W","layer":"Labels","category":"Points VFR","object_type":"Label","style_id":"label.points-vfr","source_group":"LFYS Points VFR","vsmr_group_ids":[],"geometry_role":"text_label","text-field":"W"},"geometry":{"type":"Point","coordinates":[1.955,42.450833333]}},{"type":"Feature","id":"LFYS-e0d35da836ecd697f6cf","properties":{"airport":"LFYS","name":"SW","layer":"Labels","category":"Points VFR","object_type":"Label","style_id":"label.points-vfr","source_group":"LFYS Points VFR","vsmr_group_ids":[],"geometry_role":"text_label","text-field":"SW"},"geometry":{"type":"Point","coordinates":[1.993611111,42.425]}},{"type":"Feature","id":"LFYS-5a9a953260ae230eee26","properties":{"airport":"LFYS","name":"E","layer":"Labels","category":"Points VFR","object_type":"Label","style_id":"label.points-vfr","source_group":"LFYS Points VFR","vsmr_group_ids":[],"geometry_role":"text_label","text-field":"E"},"geometry":{"type":"Point","coordinates":[2.048888889,42.445555556]}}]}
